; GCode generated by img2gcode
; Image: 512x512px  →  180.0x180.0mm
; Paths: 328
; Draw feedrate: 1500 mm/min
; Travel feedrate: 3000 mm/min

G21         ; Unit: millimeters
G90         ; Absolute coordinates
G1 F3000  ; Travel speed
M5  ; Pen up (initialization)

G1 X5.000 Y5.000  ; Start position

; Path 1/328
G1 X89.727 Y6.758 F3000  ; Travel
M3 S1000
G4 P100  ; Wait for pen
G1 F1500
G1 X91.484 Y5.703
G1 X89.727 Y6.406
M5

; Path 2/328
G1 X52.109 Y7.109 F3000  ; Travel
M3 S1000
G4 P100  ; Wait for pen
G1 F1500
G1 X50.703 Y5.703
G1 X51.758 Y6.406
G1 X52.109 Y5.352
G1 X52.109 Y6.758
M5

; Path 3/328
G1 X71.445 Y9.570 F3000  ; Travel
M3 S1000
G4 P100  ; Wait for pen
G1 F1500
G1 X73.555 Y7.461
G1 X71.797 Y9.219
M5

; Path 4/328
G1 X90.781 Y10.273 F3000  ; Travel
M3 S1000
G4 P100  ; Wait for pen
G1 F1500
G1 X93.594 Y8.867
G1 X91.133 Y9.922
M5

; Path 5/328
G1 X54.219 Y10.625 F3000  ; Travel
M3 S1000
G4 P100  ; Wait for pen
G1 F1500
G1 X54.922 Y10.625
G1 X54.219 Y9.219
G1 X54.219 Y10.273
M5

; Path 6/328
G1 X74.961 Y11.680 F3000  ; Travel
M3 S1000
G4 P100  ; Wait for pen
G1 F1500
G1 X76.367 Y9.219
G1 X75.312 Y11.680
M5

; Path 7/328
G1 X61.602 Y11.680 F3000  ; Travel
M3 S1000
G4 P100  ; Wait for pen
G1 F1500
G1 X61.250 Y10.977
G1 X62.305 Y10.977
G1 X61.602 Y9.219
G1 X62.305 Y8.867
G1 X61.250 Y7.812
G1 X62.305 Y8.867
G1 X63.008 Y8.516
G1 X62.305 Y9.219
G1 X63.008 Y11.328
G1 X61.953 Y11.680
M5

; Path 8/328
G1 X119.258 Y12.734 F3000  ; Travel
M3 S1000
G4 P100  ; Wait for pen
G1 F1500
G1 X119.258 Y7.812
G1 X119.961 Y7.461
G1 X119.258 Y7.812
G1 X119.609 Y8.867
G1 X121.016 Y7.812
G1 X119.961 Y6.406
G1 X121.016 Y7.461
G1 X122.773 Y6.758
G1 X121.016 Y7.461
G1 X119.258 Y12.383
M5

; Path 9/328
G1 X78.477 Y13.086 F3000  ; Travel
M3 S1000
G4 P100  ; Wait for pen
G1 F1500
G1 X78.477 Y10.625
G1 X78.477 Y12.734
M5

; Path 10/328
G1 X109.766 Y13.438 F3000  ; Travel
M3 S1000
G4 P100  ; Wait for pen
G1 F1500
G1 X110.469 Y13.438
G1 X110.117 Y11.680
G1 X108.359 Y10.625
G1 X107.656 Y12.031
G1 X109.414 Y13.086
M5

; Path 11/328
G1 X78.828 Y15.898 F3000  ; Travel
M3 S1000
G4 P100  ; Wait for pen
G1 F1500
G1 X78.828 Y13.789
G1 X78.828 Y15.547
M5

; Path 12/328
G1 X103.789 Y17.305 F3000  ; Travel
M3 S1000
G4 P100  ; Wait for pen
G1 F1500
G1 X105.898 Y15.195
G1 X109.062 Y14.844
G1 X108.359 Y15.195
G1 X109.062 Y16.602
G1 X108.359 Y15.898
G1 X107.305 Y16.250
G1 X107.305 Y15.195
G1 X105.898 Y15.195
G1 X103.789 Y16.953
M5

; Path 13/328
G1 X92.188 Y17.305 F3000  ; Travel
M3 S1000
G4 P100  ; Wait for pen
G1 F1500
G1 X91.484 Y16.250
G1 X92.188 Y14.492
G1 X91.484 Y13.789
G1 X92.188 Y14.492
G1 X93.594 Y13.086
G1 X92.539 Y14.141
G1 X92.539 Y16.953
M5

; Path 14/328
G1 X72.148 Y18.711 F3000  ; Travel
M3 S1000
G4 P100  ; Wait for pen
G1 F1500
G1 X73.906 Y15.195
G1 X72.148 Y13.789
G1 X74.258 Y15.547
G1 X73.555 Y16.250
G1 X74.258 Y16.602
G1 X73.906 Y17.656
G1 X72.500 Y18.359
M5

; Path 15/328
G1 X87.266 Y19.062 F3000  ; Travel
M3 S1000
G4 P100  ; Wait for pen
G1 F1500
G1 X87.969 Y16.953
G1 X85.508 Y14.492
G1 X87.969 Y16.953
G1 X87.617 Y18.711
M5

; Path 16/328
G1 X53.516 Y20.117 F3000  ; Travel
M3 S1000
G4 P100  ; Wait for pen
G1 F1500
G1 X55.625 Y19.766
G1 X53.164 Y17.656
G1 X52.461 Y18.711
G1 X53.164 Y19.766
M5

; Path 17/328
G1 X108.711 Y20.820 F3000  ; Travel
M3 S1000
G4 P100  ; Wait for pen
G1 F1500
G1 X108.008 Y20.469
G1 X108.359 Y19.414
G1 X108.359 Y20.469
M5

; Path 18/328
G1 X49.648 Y20.820 F3000  ; Travel
M3 S1000
G4 P100  ; Wait for pen
G1 F1500
G1 X47.188 Y19.062
G1 X49.297 Y20.469
M5

; Path 19/328
G1 X79.883 Y21.523 F3000  ; Travel
M3 S1000
G4 P100  ; Wait for pen
G1 F1500
G1 X79.180 Y16.602
G1 X79.883 Y21.172
M5

; Path 20/328
G1 X42.617 Y21.523 F3000  ; Travel
M3 S1000
G4 P100  ; Wait for pen
G1 F1500
G1 X42.266 Y20.469
G1 X43.320 Y19.414
G1 X42.617 Y21.172
M5

; Path 21/328
G1 X109.766 Y22.578 F3000  ; Travel
M3 S1000
G4 P100  ; Wait for pen
G1 F1500
G1 X109.766 Y20.469
G1 X109.766 Y22.227
M5

; Path 22/328
G1 X74.609 Y22.930 F3000  ; Travel
M3 S1000
G4 P100  ; Wait for pen
G1 F1500
G1 X77.070 Y20.117
G1 X77.422 Y17.305
G1 X77.070 Y20.117
G1 X74.961 Y22.578
M5

; Path 23/328
G1 X90.430 Y23.633 F3000  ; Travel
M3 S1000
G4 P100  ; Wait for pen
G1 F1500
G1 X86.914 Y19.766
G1 X90.430 Y22.930
G1 X92.188 Y19.062
G1 X93.242 Y23.633
G1 X92.188 Y20.117
G1 X90.781 Y23.281
M5

; Path 24/328
G1 X46.836 Y23.633 F3000  ; Travel
M3 S1000
G4 P100  ; Wait for pen
G1 F1500
G1 X46.484 Y22.578
G1 X45.430 Y22.930
G1 X45.781 Y21.875
G1 X47.188 Y23.633
M5

; Path 25/328
G1 X42.266 Y23.633 F3000  ; Travel
M3 S1000
G4 P100  ; Wait for pen
G1 F1500
G1 X41.914 Y21.523
G1 X42.266 Y23.281
M5

; Path 26/328
G1 X114.688 Y23.984 F3000  ; Travel
M3 S1000
G4 P100  ; Wait for pen
G1 F1500
G1 X116.797 Y23.633
G1 X117.148 Y22.578
G1 X116.094 Y21.172
G1 X115.039 Y21.172
G1 X113.633 Y22.930
G1 X114.336 Y23.633
G1 X115.391 Y22.227
G1 X115.039 Y23.633
M5

; Path 27/328
G1 X81.289 Y23.984 F3000  ; Travel
M3 S1000
G4 P100  ; Wait for pen
G1 F1500
G1 X80.586 Y22.930
G1 X79.883 Y23.633
G1 X80.234 Y22.227
G1 X81.289 Y23.633
M5

; Path 28/328
G1 X113.984 Y24.336 F3000  ; Travel
M3 S1000
G4 P100  ; Wait for pen
G1 F1500
G1 X112.578 Y23.281
G1 X113.984 Y20.469
G1 X115.742 Y20.469
G1 X117.148 Y23.633
G1 X114.336 Y24.336
M5

; Path 29/328
G1 X121.367 Y25.039 F3000  ; Travel
M3 S1000
G4 P100  ; Wait for pen
G1 F1500
G1 X119.961 Y23.281
G1 X121.016 Y20.117
G1 X119.961 Y19.062
G1 X121.016 Y19.766
G1 X122.070 Y19.062
G1 X121.367 Y20.117
G1 X122.422 Y20.117
G1 X121.367 Y21.875
G1 X121.719 Y22.578
G1 X120.664 Y23.281
G1 X121.367 Y24.336
G1 X122.070 Y23.281
G1 X121.367 Y24.688
M5

; Path 30/328
G1 X100.977 Y25.039 F3000  ; Travel
M3 S1000
G4 P100  ; Wait for pen
G1 F1500
G1 X101.328 Y23.633
G1 X102.734 Y23.633
G1 X100.977 Y24.688
M5

; Path 31/328
G1 X81.289 Y26.445 F3000  ; Travel
M3 S1000
G4 P100  ; Wait for pen
G1 F1500
G1 X83.398 Y22.930
G1 X81.641 Y26.094
M5

; Path 32/328
G1 X68.281 Y26.797 F3000  ; Travel
M3 S1000
G4 P100  ; Wait for pen
G1 F1500
G1 X66.172 Y25.742
G1 X59.844 Y26.094
G1 X66.172 Y25.742
G1 X68.633 Y26.797
M5

; Path 33/328
G1 X125.586 Y27.852 F3000  ; Travel
M3 S1000
G4 P100  ; Wait for pen
G1 F1500
G1 X126.289 Y28.203
G1 X126.641 Y27.148
G1 X125.586 Y27.500
M5

; Path 34/328
G1 X84.453 Y27.852 F3000  ; Travel
M3 S1000
G4 P100  ; Wait for pen
G1 F1500
G1 X86.562 Y25.039
G1 X87.266 Y26.094
G1 X86.562 Y25.391
G1 X84.805 Y27.500
M5

; Path 35/328
G1 X126.641 Y28.203 F3000  ; Travel
M3 S1000
G4 P100  ; Wait for pen
G1 F1500
G1 X128.047 Y27.148
G1 X127.344 Y26.797
G1 X126.641 Y27.852
M5

; Path 36/328
G1 X129.102 Y28.555 F3000  ; Travel
M3 S1000
G4 P100  ; Wait for pen
G1 F1500
G1 X129.805 Y28.906
G1 X130.508 Y27.500
G1 X129.453 Y28.203
M5

; Path 37/328
G1 X93.594 Y29.961 F3000  ; Travel
M3 S1000
G4 P100  ; Wait for pen
G1 F1500
G1 X92.188 Y26.445
G1 X93.594 Y29.609
M5

; Path 38/328
G1 X63.359 Y29.961 F3000  ; Travel
M3 S1000
G4 P100  ; Wait for pen
G1 F1500
G1 X68.281 Y29.609
G1 X63.711 Y29.961
M5

; Path 39/328
G1 X128.398 Y30.664 F3000  ; Travel
M3 S1000
G4 P100  ; Wait for pen
G1 F1500
G1 X129.805 Y29.961
G1 X128.398 Y30.312
M5

; Path 40/328
G1 X102.383 Y30.664 F3000  ; Travel
M3 S1000
G4 P100  ; Wait for pen
G1 F1500
G1 X105.898 Y25.391
G1 X105.547 Y26.445
G1 X106.602 Y27.500
G1 X105.195 Y26.445
G1 X102.734 Y30.312
M5

; Path 41/328
G1 X132.266 Y31.016 F3000  ; Travel
M3 S1000
G4 P100  ; Wait for pen
G1 F1500
G1 X132.617 Y29.961
G1 X134.727 Y29.961
G1 X134.727 Y28.555
G1 X136.133 Y29.609
G1 X132.617 Y31.016
M5

; Path 42/328
G1 X118.203 Y31.016 F3000  ; Travel
M3 S1000
G4 P100  ; Wait for pen
G1 F1500
G1 X119.258 Y31.016
G1 X119.609 Y29.961
G1 X118.906 Y29.609
G1 X118.203 Y30.664
M5

; Path 43/328
G1 X110.469 Y31.016 F3000  ; Travel
M3 S1000
G4 P100  ; Wait for pen
G1 F1500
G1 X109.766 Y27.148
G1 X108.008 Y25.039
G1 X108.711 Y25.391
G1 X109.414 Y23.633
G1 X110.469 Y30.664
M5

; Path 44/328
G1 X43.672 Y31.719 F3000  ; Travel
M3 S1000
G4 P100  ; Wait for pen
G1 F1500
G1 X43.320 Y31.016
G1 X44.375 Y30.664
G1 X43.320 Y31.367
M5

; Path 45/328
G1 X75.664 Y32.070 F3000  ; Travel
M3 S1000
G4 P100  ; Wait for pen
G1 F1500
G1 X69.336 Y24.336
G1 X65.117 Y22.227
G1 X56.328 Y20.469
G1 X53.164 Y21.523
G1 X50.352 Y24.336
G1 X51.055 Y22.578
G1 X50.352 Y21.875
G1 X51.758 Y22.578
G1 X53.516 Y21.172
G1 X50.000 Y17.656
G1 X47.891 Y17.305
G1 X47.188 Y18.008
G1 X48.242 Y15.898
G1 X48.945 Y16.250
G1 X48.945 Y15.195
G1 X50.352 Y14.844
G1 X49.648 Y15.547
G1 X50.352 Y16.953
G1 X51.055 Y15.898
G1 X52.812 Y15.547
G1 X50.352 Y16.953
G1 X51.758 Y18.359
G1 X53.164 Y17.656
G1 X52.461 Y16.602
G1 X54.219 Y16.250
G1 X53.164 Y14.492
G1 X50.703 Y14.141
G1 X54.922 Y14.492
G1 X54.922 Y12.383
G1 X53.516 Y10.977
G1 X52.812 Y7.109
G1 X53.516 Y9.570
G1 X54.219 Y8.867
G1 X56.328 Y11.680
G1 X58.086 Y11.328
G1 X52.812 Y5.352
G1 X53.516 Y5.352
G1 X57.383 Y10.625
G1 X58.789 Y9.570
G1 X57.031 Y7.461
G1 X58.438 Y7.812
G1 X59.844 Y9.570
G1 X59.141 Y9.219
G1 X59.492 Y10.273
G1 X58.789 Y9.570
G1 X57.734 Y10.273
G1 X58.438 Y12.383
G1 X56.680 Y12.734
G1 X54.922 Y14.844
G1 X56.680 Y14.492
G1 X53.867 Y15.898
G1 X54.922 Y16.602
G1 X55.273 Y15.898
G1 X55.977 Y16.953
G1 X57.383 Y14.844
G1 X56.328 Y16.250
G1 X57.734 Y17.656
G1 X58.438 Y15.898
G1 X58.438 Y18.711
G1 X59.492 Y18.711
G1 X59.844 Y17.656
G1 X60.195 Y20.469
G1 X61.250 Y19.766
G1 X60.898 Y19.062
G1 X61.250 Y19.766
G1 X62.305 Y19.062
G1 X60.898 Y20.469
G1 X61.250 Y21.523
G1 X62.656 Y21.172
G1 X62.656 Y21.875
G1 X65.469 Y22.227
G1 X66.172 Y21.523
G1 X63.008 Y14.844
G1 X63.359 Y14.141
G1 X59.844 Y12.031
G1 X61.953 Y13.086
G1 X63.359 Y12.383
G1 X63.008 Y13.086
G1 X64.766 Y13.789
G1 X63.008 Y13.789
G1 X65.117 Y16.953
G1 X66.523 Y21.875
G1 X68.281 Y23.984
G1 X69.688 Y23.984
G1 X67.930 Y16.602
G1 X68.984 Y18.008
G1 X68.281 Y18.711
G1 X69.336 Y19.062
G1 X68.633 Y19.414
G1 X69.336 Y22.930
G1 X71.094 Y24.688
G1 X70.391 Y25.039
G1 X74.961 Y30.664
G1 X75.312 Y29.961
G1 X76.016 Y30.664
G1 X75.312 Y31.719
M5

; Path 46/328
G1 X48.242 Y33.125 F3000  ; Travel
M3 S1000
G4 P100  ; Wait for pen
G1 F1500
G1 X50.352 Y33.125
G1 X48.594 Y33.125
M5

; Path 47/328
G1 X131.211 Y33.477 F3000  ; Travel
M3 S1000
G4 P100  ; Wait for pen
G1 F1500
G1 X130.859 Y31.719
G1 X131.562 Y31.367
G1 X130.859 Y32.070
G1 X131.562 Y32.422
G1 X131.211 Y33.125
M5

; Path 48/328
G1 X116.797 Y33.477 F3000  ; Travel
M3 S1000
G4 P100  ; Wait for pen
G1 F1500
G1 X117.500 Y33.828
G1 X119.258 Y31.719
G1 X118.555 Y31.367
G1 X117.148 Y33.125
M5

; Path 49/328
G1 X83.750 Y34.531 F3000  ; Travel
M3 S1000
G4 P100  ; Wait for pen
G1 F1500
G1 X85.859 Y33.125
G1 X84.102 Y34.180
M5

; Path 50/328
G1 X102.734 Y35.234 F3000  ; Travel
M3 S1000
G4 P100  ; Wait for pen
G1 F1500
G1 X105.547 Y35.234
G1 X103.086 Y34.883
M5

; Path 51/328
G1 X38.398 Y36.289 F3000  ; Travel
M3 S1000
G4 P100  ; Wait for pen
G1 F1500
G1 X38.047 Y34.180
G1 X38.750 Y34.883
G1 X38.398 Y35.938
M5

; Path 52/328
G1 X155.117 Y36.641 F3000  ; Travel
M3 S1000
G4 P100  ; Wait for pen
G1 F1500
G1 X154.414 Y34.883
G1 X155.117 Y36.289
M5

; Path 53/328
G1 X35.938 Y36.641 F3000  ; Travel
M3 S1000
G4 P100  ; Wait for pen
G1 F1500
G1 X36.641 Y36.289
G1 X35.234 Y35.234
G1 X35.586 Y36.641
M5

; Path 54/328
G1 X81.992 Y36.992 F3000  ; Travel
M3 S1000
G4 P100  ; Wait for pen
G1 F1500
G1 X83.047 Y34.883
G1 X81.992 Y36.641
M5

; Path 55/328
G1 X74.961 Y36.992 F3000  ; Travel
M3 S1000
G4 P100  ; Wait for pen
G1 F1500
G1 X72.148 Y35.234
G1 X75.312 Y36.992
M5

; Path 56/328
G1 X118.906 Y37.695 F3000  ; Travel
M3 S1000
G4 P100  ; Wait for pen
G1 F1500
G1 X119.961 Y35.938
G1 X118.906 Y37.344
M5

; Path 57/328
G1 X48.242 Y38.398 F3000  ; Travel
M3 S1000
G4 P100  ; Wait for pen
G1 F1500
G1 X47.188 Y37.344
G1 X46.484 Y37.695
G1 X47.539 Y36.289
G1 X46.133 Y35.234
G1 X47.188 Y33.125
G1 X46.836 Y30.312
G1 X49.297 Y25.742
G1 X48.594 Y23.984
G1 X50.000 Y25.039
G1 X48.594 Y26.797
G1 X46.836 Y32.422
G1 X47.539 Y33.125
G1 X46.836 Y33.828
G1 X47.891 Y35.234
G1 X47.188 Y35.586
G1 X47.891 Y38.047
M5

; Path 58/328
G1 X84.453 Y39.453 F3000  ; Travel
M3 S1000
G4 P100  ; Wait for pen
G1 F1500
G1 X86.914 Y35.938
G1 X84.453 Y39.102
M5

; Path 59/328
G1 X37.344 Y39.805 F3000  ; Travel
M3 S1000
G4 P100  ; Wait for pen
G1 F1500
G1 X38.047 Y39.805
G1 X37.344 Y37.695
G1 X36.992 Y39.453
M5

; Path 60/328
G1 X117.500 Y40.859 F3000  ; Travel
M3 S1000
G4 P100  ; Wait for pen
G1 F1500
G1 X119.258 Y38.398
G1 X117.852 Y40.508
M5

; Path 61/328
G1 X66.875 Y41.211 F3000  ; Travel
M3 S1000
G4 P100  ; Wait for pen
G1 F1500
G1 X67.227 Y39.805
G1 X67.930 Y39.805
G1 X66.875 Y40.859
M5

; Path 62/328
G1 X60.898 Y41.562 F3000  ; Travel
M3 S1000
G4 P100  ; Wait for pen
G1 F1500
G1 X62.305 Y40.156
G1 X65.820 Y39.102
G1 X72.148 Y39.805
G1 X65.820 Y39.102
G1 X63.008 Y39.805
G1 X61.250 Y41.211
M5

; Path 63/328
G1 X85.859 Y41.914 F3000  ; Travel
M3 S1000
G4 P100  ; Wait for pen
G1 F1500
G1 X85.508 Y40.859
G1 X86.211 Y40.508
G1 X85.859 Y41.562
M5

; Path 64/328
G1 X114.688 Y42.266 F3000  ; Travel
M3 S1000
G4 P100  ; Wait for pen
G1 F1500
G1 X115.742 Y41.211
G1 X114.688 Y40.859
G1 X115.391 Y39.805
G1 X116.797 Y39.453
G1 X116.094 Y39.102
G1 X117.500 Y35.234
G1 X122.422 Y30.664
G1 X119.961 Y31.016
G1 X119.961 Y32.070
G1 X116.797 Y34.883
G1 X116.094 Y34.180
G1 X115.039 Y38.047
G1 X115.391 Y34.531
G1 X119.961 Y28.906
G1 X119.258 Y28.203
G1 X120.312 Y26.797
G1 X119.961 Y25.391
G1 X120.664 Y25.039
G1 X120.312 Y25.742
G1 X121.367 Y25.742
G1 X120.664 Y26.445
G1 X121.719 Y26.797
G1 X120.664 Y27.500
G1 X120.664 Y30.664
G1 X122.422 Y30.312
G1 X122.773 Y29.258
G1 X123.477 Y29.609
G1 X125.938 Y26.797
G1 X126.992 Y27.148
G1 X127.695 Y26.445
G1 X128.047 Y27.148
G1 X128.047 Y25.391
G1 X128.750 Y25.742
G1 X129.805 Y23.984
G1 X129.453 Y25.039
G1 X130.156 Y25.391
G1 X129.102 Y25.742
G1 X129.453 Y27.852
G1 X131.562 Y25.391
G1 X130.859 Y25.039
G1 X131.211 Y24.336
G1 X132.266 Y26.094
G1 X133.320 Y23.633
G1 X132.266 Y27.500
G1 X131.211 Y28.555
G1 X131.914 Y29.258
G1 X136.484 Y26.797
G1 X130.508 Y29.609
G1 X127.344 Y32.070
G1 X128.398 Y30.664
G1 X127.695 Y29.961
G1 X126.289 Y31.367
G1 X125.938 Y33.477
G1 X126.289 Y31.367
G1 X121.016 Y36.641
G1 X125.586 Y31.367
G1 X124.531 Y31.367
G1 X122.070 Y33.828
G1 X122.422 Y33.125
G1 X121.719 Y32.773
G1 X118.555 Y35.938
G1 X115.039 Y42.266
M5

; Path 65/328
G1 X90.078 Y42.266 F3000  ; Travel
M3 S1000
G4 P100  ; Wait for pen
G1 F1500
G1 X90.078 Y40.859
G1 X87.617 Y39.453
G1 X89.023 Y38.398
G1 X90.430 Y40.156
G1 X90.078 Y41.914
M5

; Path 66/328
G1 X78.125 Y42.266 F3000  ; Travel
M3 S1000
G4 P100  ; Wait for pen
G1 F1500
G1 X78.125 Y40.508
G1 X75.312 Y41.211
G1 X78.125 Y40.508
G1 X78.125 Y38.750
G1 X77.070 Y37.344
G1 X76.016 Y37.344
G1 X77.070 Y35.234
G1 X70.742 Y31.016
G1 X75.312 Y33.828
G1 X76.016 Y32.773
G1 X77.070 Y35.234
G1 X77.422 Y33.477
G1 X76.719 Y36.992
G1 X78.125 Y38.750
G1 X78.477 Y42.266
M5

; Path 67/328
G1 X117.500 Y42.617 F3000  ; Travel
M3 S1000
G4 P100  ; Wait for pen
G1 F1500
G1 X120.664 Y37.344
G1 X117.852 Y42.266
M5

; Path 68/328
G1 X127.344 Y42.969 F3000  ; Travel
M3 S1000
G4 P100  ; Wait for pen
G1 F1500
G1 X128.398 Y41.211
G1 X127.344 Y42.617
M5

; Path 69/328
G1 X142.812 Y43.320 F3000  ; Travel
M3 S1000
G4 P100  ; Wait for pen
G1 F1500
G1 X145.273 Y43.320
G1 X143.164 Y43.320
M5

; Path 70/328
G1 X57.383 Y43.320 F3000  ; Travel
M3 S1000
G4 P100  ; Wait for pen
G1 F1500
G1 X55.977 Y41.914
G1 X54.922 Y38.047
G1 X54.922 Y31.016
G1 X56.328 Y27.148
G1 X59.141 Y23.984
G1 X60.547 Y23.633
G1 X58.789 Y24.336
G1 X56.328 Y27.148
G1 X56.680 Y28.203
G1 X55.977 Y28.203
G1 X56.328 Y28.906
G1 X55.625 Y28.906
G1 X54.922 Y31.367
G1 X54.922 Y38.047
G1 X57.031 Y42.969
M5

; Path 71/328
G1 X117.500 Y45.078 F3000  ; Travel
M3 S1000
G4 P100  ; Wait for pen
G1 F1500
G1 X118.906 Y43.672
G1 X117.852 Y44.727
M5

; Path 72/328
G1 X50.703 Y45.078 F3000  ; Travel
M3 S1000
G4 P100  ; Wait for pen
G1 F1500
G1 X52.461 Y43.320
G1 X51.055 Y41.914
G1 X50.352 Y43.320
G1 X48.594 Y44.023
G1 X50.703 Y42.266
G1 X50.000 Y40.508
G1 X47.891 Y40.508
G1 X48.594 Y39.102
G1 X52.812 Y43.320
G1 X52.461 Y44.375
G1 X51.055 Y44.727
M5

; Path 73/328
G1 X101.680 Y45.430 F3000  ; Travel
M3 S1000
G4 P100  ; Wait for pen
G1 F1500
G1 X101.328 Y41.211
G1 X101.680 Y43.320
G1 X102.734 Y43.672
G1 X102.383 Y44.375
G1 X104.492 Y43.320
G1 X102.031 Y45.078
M5

; Path 74/328
G1 X83.750 Y45.430 F3000  ; Travel
M3 S1000
G4 P100  ; Wait for pen
G1 F1500
G1 X81.992 Y42.969
G1 X80.234 Y42.617
G1 X81.289 Y42.617
G1 X81.641 Y41.562
G1 X83.750 Y45.078
M5

; Path 75/328
G1 X45.078 Y45.430 F3000  ; Travel
M3 S1000
G4 P100  ; Wait for pen
G1 F1500
G1 X37.695 Y40.508
G1 X34.883 Y35.938
G1 X34.883 Y32.422
G1 X38.398 Y25.391
G1 X41.211 Y22.578
G1 X40.156 Y26.797
G1 X39.805 Y26.094
G1 X38.750 Y28.555
G1 X40.859 Y24.336
G1 X40.508 Y22.930
G1 X38.047 Y26.094
G1 X37.344 Y29.258
G1 X34.883 Y32.422
G1 X34.883 Y34.180
G1 X36.289 Y35.938
G1 X35.938 Y33.125
G1 X38.047 Y39.102
G1 X39.102 Y40.156
G1 X39.805 Y39.805
G1 X39.453 Y36.992
G1 X39.102 Y38.047
G1 X40.156 Y38.750
G1 X40.156 Y40.508
G1 X44.727 Y45.078
G1 X45.078 Y44.375
G1 X45.430 Y45.430
M5

; Path 76/328
G1 X123.828 Y46.133 F3000  ; Travel
M3 S1000
G4 P100  ; Wait for pen
G1 F1500
G1 X123.125 Y45.781
G1 X124.531 Y45.078
G1 X124.180 Y46.133
M5

; Path 77/328
G1 X62.305 Y46.133 F3000  ; Travel
M3 S1000
G4 P100  ; Wait for pen
G1 F1500
G1 X58.086 Y45.781
G1 X53.516 Y43.672
G1 X58.438 Y45.781
G1 X65.469 Y45.781
G1 X62.656 Y45.781
M5

; Path 78/328
G1 X114.336 Y46.484 F3000  ; Travel
M3 S1000
G4 P100  ; Wait for pen
G1 F1500
G1 X115.039 Y45.430
G1 X114.336 Y45.078
G1 X115.039 Y45.430
G1 X115.391 Y44.023
G1 X115.039 Y45.430
G1 X116.094 Y45.781
G1 X114.688 Y46.484
M5

; Path 79/328
G1 X112.227 Y46.836 F3000  ; Travel
M3 S1000
G4 P100  ; Wait for pen
G1 F1500
G1 X111.172 Y40.156
G1 X106.953 Y36.641
G1 X111.172 Y39.453
G1 X111.523 Y38.398
G1 X110.469 Y36.992
G1 X111.172 Y36.641
G1 X108.008 Y32.773
G1 X110.469 Y33.828
G1 X109.414 Y30.312
G1 X110.469 Y34.180
G1 X111.875 Y34.883
G1 X111.172 Y33.477
G1 X110.469 Y18.711
G1 X109.766 Y18.711
G1 X110.469 Y14.492
G1 X108.711 Y13.789
G1 X109.062 Y13.086
G1 X106.602 Y10.977
G1 X108.359 Y9.922
G1 X108.711 Y8.164
G1 X108.359 Y9.219
G1 X109.062 Y9.570
G1 X108.359 Y10.625
G1 X110.117 Y10.273
G1 X110.117 Y8.516
G1 X109.414 Y8.516
G1 X109.766 Y5.352
G1 X110.117 Y8.516
G1 X110.469 Y5.352
G1 X110.117 Y10.977
G1 X110.820 Y13.438
G1 X110.469 Y25.391
G1 X112.578 Y35.938
G1 X112.578 Y46.836
M5

; Path 80/328
G1 X108.711 Y47.539 F3000  ; Travel
M3 S1000
G4 P100  ; Wait for pen
G1 F1500
G1 X105.898 Y41.211
G1 X106.953 Y40.508
G1 X106.250 Y42.617
G1 X109.062 Y47.188
M5

; Path 81/328
G1 X45.781 Y47.891 F3000  ; Travel
M3 S1000
G4 P100  ; Wait for pen
G1 F1500
G1 X45.078 Y46.836
G1 X42.617 Y46.484
G1 X40.859 Y44.727
G1 X40.156 Y45.078
G1 X38.047 Y43.320
G1 X37.344 Y41.562
G1 X39.453 Y44.023
G1 X43.320 Y46.133
G1 X45.781 Y46.484
G1 X47.188 Y45.781
G1 X46.484 Y46.484
G1 X47.188 Y47.188
G1 X50.352 Y47.539
G1 X46.133 Y47.891
M5

; Path 82/328
G1 X104.141 Y48.945 F3000  ; Travel
M3 S1000
G4 P100  ; Wait for pen
G1 F1500
G1 X105.898 Y46.836
G1 X104.141 Y48.594
M5

; Path 83/328
G1 X158.984 Y49.648 F3000  ; Travel
M3 S1000
G4 P100  ; Wait for pen
G1 F1500
G1 X159.688 Y47.539
G1 X158.984 Y49.297
M5

; Path 84/328
G1 X128.750 Y49.648 F3000  ; Travel
M3 S1000
G4 P100  ; Wait for pen
G1 F1500
G1 X130.156 Y48.242
G1 X129.102 Y49.297
M5

; Path 85/328
G1 X109.766 Y50.352 F3000  ; Travel
M3 S1000
G4 P100  ; Wait for pen
G1 F1500
G1 X110.469 Y49.648
G1 X110.117 Y48.242
G1 X110.820 Y49.297
G1 X112.227 Y47.539
G1 X111.172 Y50.000
G1 X110.820 Y49.297
G1 X110.117 Y50.000
M5

; Path 86/328
G1 X96.406 Y50.703 F3000  ; Travel
M3 S1000
G4 P100  ; Wait for pen
G1 F1500
G1 X95.703 Y49.648
G1 X97.109 Y48.242
G1 X95.703 Y49.648
G1 X96.758 Y50.703
M5

; Path 87/328
G1 X153.359 Y51.406 F3000  ; Travel
M3 S1000
G4 P100  ; Wait for pen
G1 F1500
G1 X154.062 Y51.758
G1 X156.523 Y49.648
G1 X154.414 Y50.000
G1 X153.359 Y51.055
M5

; Path 88/328
G1 X125.938 Y52.109 F3000  ; Travel
M3 S1000
G4 P100  ; Wait for pen
G1 F1500
G1 X128.047 Y49.648
G1 X125.938 Y51.758
M5

; Path 89/328
G1 X129.102 Y53.164 F3000  ; Travel
M3 S1000
G4 P100  ; Wait for pen
G1 F1500
G1 X128.047 Y52.461
G1 X129.102 Y53.164
G1 X130.859 Y52.109
G1 X129.453 Y52.812
M5

; Path 90/328
G1 X101.680 Y53.867 F3000  ; Travel
M3 S1000
G4 P100  ; Wait for pen
G1 F1500
G1 X100.977 Y51.758
G1 X101.328 Y53.516
M5

; Path 91/328
G1 X94.297 Y54.570 F3000  ; Travel
M3 S1000
G4 P100  ; Wait for pen
G1 F1500
G1 X94.297 Y48.594
G1 X91.133 Y44.727
G1 X92.539 Y44.727
G1 X92.891 Y43.672
G1 X92.539 Y45.781
G1 X94.297 Y47.539
G1 X94.297 Y54.219
M5

; Path 92/328
G1 X91.484 Y54.570 F3000  ; Travel
M3 S1000
G4 P100  ; Wait for pen
G1 F1500
G1 X90.781 Y50.703
G1 X87.266 Y45.781
G1 X81.992 Y50.703
G1 X84.805 Y47.539
G1 X87.617 Y45.781
G1 X90.781 Y50.352
G1 X91.133 Y54.219
M5

; Path 93/328
G1 X77.773 Y54.570 F3000  ; Travel
M3 S1000
G4 P100  ; Wait for pen
G1 F1500
G1 X78.828 Y48.945
G1 X80.938 Y45.430
G1 X80.234 Y43.320
G1 X79.180 Y43.320
G1 X80.938 Y44.023
G1 X80.938 Y45.430
G1 X78.477 Y50.352
G1 X77.773 Y54.219
M5

; Path 94/328
G1 X141.055 Y54.922 F3000  ; Travel
M3 S1000
G4 P100  ; Wait for pen
G1 F1500
G1 X147.031 Y47.891
G1 X141.406 Y54.570
M5

; Path 95/328
G1 X69.688 Y55.273 F3000  ; Travel
M3 S1000
G4 P100  ; Wait for pen
G1 F1500
G1 X71.797 Y54.570
G1 X74.258 Y51.406
G1 X73.203 Y49.297
G1 X70.742 Y49.297
G1 X71.797 Y48.594
G1 X74.258 Y49.648
G1 X77.422 Y47.188
G1 X74.258 Y50.000
G1 X73.203 Y53.164
G1 X70.039 Y55.273
M5

; Path 96/328
G1 X128.047 Y55.625 F3000  ; Travel
M3 S1000
G4 P100  ; Wait for pen
G1 F1500
G1 X126.641 Y52.812
G1 X128.047 Y53.516
G1 X128.047 Y55.273
M5

; Path 97/328
G1 X87.969 Y55.625 F3000  ; Travel
M3 S1000
G4 P100  ; Wait for pen
G1 F1500
G1 X86.211 Y53.867
G1 X85.508 Y54.219
G1 X86.562 Y51.406
G1 X85.859 Y53.164
G1 X87.617 Y55.273
M5

; Path 98/328
G1 X100.977 Y55.977 F3000  ; Travel
M3 S1000
G4 P100  ; Wait for pen
G1 F1500
G1 X102.383 Y54.570
G1 X101.328 Y55.625
M5

; Path 99/328
G1 X88.320 Y56.680 F3000  ; Travel
M3 S1000
G4 P100  ; Wait for pen
G1 F1500
G1 X90.781 Y54.922
G1 X88.672 Y56.680
M5

; Path 100/328
G1 X60.195 Y56.680 F3000  ; Travel
M3 S1000
G4 P100  ; Wait for pen
G1 F1500
G1 X61.953 Y53.516
G1 X60.547 Y56.328
M5

; Path 101/328
G1 X92.188 Y58.086 F3000  ; Travel
M3 S1000
G4 P100  ; Wait for pen
G1 F1500
G1 X93.945 Y55.273
G1 X92.539 Y57.734
M5

; Path 102/328
G1 X133.320 Y59.141 F3000  ; Travel
M3 S1000
G4 P100  ; Wait for pen
G1 F1500
G1 X132.266 Y58.789
G1 X134.375 Y57.383
G1 X134.727 Y50.000
G1 X134.727 Y50.703
G1 X135.781 Y50.352
G1 X134.727 Y51.055
G1 X135.078 Y52.812
G1 X138.242 Y51.758
G1 X134.727 Y53.516
G1 X134.727 Y54.570
G1 X135.781 Y54.219
G1 X134.375 Y55.273
G1 X134.023 Y56.680
G1 X135.781 Y56.328
G1 X133.320 Y58.789
M5

; Path 103/328
G1 X66.523 Y59.141 F3000  ; Travel
M3 S1000
G4 P100  ; Wait for pen
G1 F1500
G1 X67.578 Y55.977
G1 X68.633 Y55.273
G1 X67.227 Y57.031
G1 X66.875 Y59.141
M5

; Path 104/328
G1 X123.828 Y60.195 F3000  ; Travel
M3 S1000
G4 P100  ; Wait for pen
G1 F1500
G1 X120.664 Y57.031
G1 X117.500 Y58.086
G1 X119.961 Y57.383
G1 X119.961 Y56.328
G1 X123.477 Y59.844
M5

; Path 105/328
G1 X59.141 Y60.195 F3000  ; Travel
M3 S1000
G4 P100  ; Wait for pen
G1 F1500
G1 X59.492 Y58.438
G1 X59.141 Y59.844
M5

; Path 106/328
G1 X101.328 Y61.250 F3000  ; Travel
M3 S1000
G4 P100  ; Wait for pen
G1 F1500
G1 X100.273 Y59.844
G1 X100.625 Y56.680
G1 X100.273 Y59.844
G1 X101.328 Y60.898
M5

; Path 107/328
G1 X74.609 Y61.250 F3000  ; Travel
M3 S1000
G4 P100  ; Wait for pen
G1 F1500
G1 X76.367 Y57.383
G1 X74.609 Y60.898
M5

; Path 108/328
G1 X61.953 Y61.602 F3000  ; Travel
M3 S1000
G4 P100  ; Wait for pen
G1 F1500
G1 X64.062 Y54.570
G1 X69.336 Y45.430
G1 X66.172 Y45.430
G1 X69.688 Y44.727
G1 X74.609 Y40.859
G1 X70.391 Y44.375
G1 X68.633 Y46.836
G1 X69.336 Y47.188
G1 X68.633 Y46.836
G1 X67.227 Y48.594
G1 X67.578 Y49.297
G1 X66.523 Y49.648
G1 X65.820 Y51.406
G1 X66.875 Y51.406
G1 X63.711 Y55.625
G1 X62.305 Y61.602
M5

; Path 109/328
G1 X104.844 Y63.008 F3000  ; Travel
M3 S1000
G4 P100  ; Wait for pen
G1 F1500
G1 X104.844 Y58.086
G1 X106.953 Y54.922
G1 X106.953 Y53.516
G1 X104.844 Y51.406
G1 X106.250 Y51.055
G1 X107.305 Y53.867
G1 X110.820 Y52.461
G1 X112.578 Y49.648
G1 X113.281 Y50.000
G1 X114.688 Y48.242
G1 X117.852 Y47.539
G1 X115.391 Y47.539
G1 X118.906 Y47.188
G1 X118.555 Y46.133
G1 X119.961 Y46.133
G1 X123.125 Y40.508
G1 X124.883 Y39.102
G1 X125.938 Y39.453
G1 X126.641 Y38.047
G1 X127.344 Y38.047
G1 X126.992 Y39.805
G1 X128.398 Y38.750
G1 X131.914 Y38.398
G1 X130.859 Y40.508
G1 X129.102 Y41.211
G1 X131.211 Y39.805
G1 X130.508 Y39.102
G1 X128.047 Y39.102
G1 X127.344 Y40.156
G1 X128.398 Y40.156
G1 X125.938 Y41.914
G1 X124.883 Y44.023
G1 X126.992 Y40.156
G1 X126.289 Y39.453
G1 X125.938 Y40.508
G1 X124.883 Y39.805
G1 X122.422 Y43.672
G1 X122.422 Y45.430
G1 X119.609 Y48.242
G1 X123.477 Y49.648
G1 X125.938 Y46.484
G1 X129.805 Y43.672
G1 X130.508 Y42.266
G1 X129.805 Y41.562
G1 X130.508 Y42.266
G1 X131.914 Y41.562
G1 X134.375 Y38.750
G1 X132.969 Y40.859
G1 X133.320 Y41.562
G1 X138.594 Y39.453
G1 X134.023 Y41.211
G1 X134.023 Y42.266
G1 X133.320 Y41.562
G1 X130.508 Y44.727
G1 X125.586 Y47.539
G1 X123.828 Y49.297
G1 X124.531 Y50.703
G1 X129.102 Y47.188
G1 X124.883 Y51.055
G1 X121.719 Y48.945
G1 X117.852 Y47.891
G1 X113.633 Y49.648
G1 X106.602 Y55.625
G1 X105.547 Y59.141
G1 X106.953 Y59.141
G1 X113.633 Y54.922
G1 X117.500 Y54.570
G1 X115.039 Y54.570
G1 X109.766 Y57.031
G1 X105.195 Y60.898
G1 X104.844 Y62.656
M5

; Path 110/328
G1 X134.375 Y63.359 F3000  ; Travel
M3 S1000
G4 P100  ; Wait for pen
G1 F1500
G1 X135.078 Y62.656
G1 X134.023 Y62.305
G1 X137.539 Y61.602
G1 X137.891 Y60.547
G1 X138.945 Y60.547
G1 X138.594 Y59.844
G1 X139.648 Y59.844
G1 X139.297 Y59.141
G1 X141.055 Y56.328
G1 X144.219 Y55.273
G1 X145.625 Y55.625
G1 X153.359 Y48.945
G1 X154.414 Y48.594
G1 X154.766 Y49.297
G1 X155.117 Y48.242
G1 X154.414 Y47.891
G1 X156.523 Y45.781
G1 X156.172 Y43.320
G1 X156.523 Y44.727
G1 X157.930 Y44.727
G1 X155.469 Y47.539
G1 X157.930 Y46.133
G1 X159.688 Y46.484
G1 X158.633 Y47.539
G1 X158.984 Y46.484
G1 X158.281 Y46.133
G1 X155.469 Y48.242
G1 X157.227 Y47.891
G1 X157.578 Y48.945
G1 X156.523 Y48.242
G1 X155.820 Y48.945
G1 X156.523 Y50.000
G1 X154.414 Y51.406
G1 X155.469 Y52.109
G1 X154.414 Y54.922
G1 X154.062 Y54.219
G1 X155.117 Y53.516
G1 X155.117 Y52.461
G1 X154.414 Y52.109
G1 X153.359 Y53.164
G1 X153.008 Y51.406
G1 X151.953 Y52.109
G1 X152.656 Y52.461
G1 X151.953 Y54.570
G1 X151.953 Y52.812
G1 X150.898 Y54.922
G1 X149.492 Y54.219
G1 X148.086 Y56.328
G1 X147.383 Y55.273
G1 X145.977 Y56.328
G1 X146.328 Y57.734
G1 X147.031 Y57.031
G1 X146.328 Y58.789
G1 X145.977 Y56.328
G1 X145.273 Y56.328
G1 X145.273 Y58.086
G1 X144.570 Y55.977
G1 X144.219 Y58.086
G1 X143.516 Y58.789
G1 X144.219 Y58.086
G1 X143.867 Y57.031
G1 X140.000 Y61.953
G1 X143.516 Y56.680
G1 X141.406 Y57.734
G1 X140.703 Y59.492
G1 X140.352 Y58.789
G1 X139.297 Y61.250
G1 X137.188 Y63.359
G1 X138.594 Y60.898
G1 X136.484 Y63.008
G1 X136.484 Y61.602
G1 X135.078 Y61.953
G1 X134.727 Y63.359
M5

; Path 111/328
G1 X83.398 Y63.359 F3000  ; Travel
M3 S1000
G4 P100  ; Wait for pen
G1 F1500
G1 X84.805 Y61.602
G1 X83.750 Y63.008
M5

; Path 112/328
G1 X65.469 Y63.711 F3000  ; Travel
M3 S1000
G4 P100  ; Wait for pen
G1 F1500
G1 X67.227 Y61.602
G1 X65.820 Y63.359
M5

; Path 113/328
G1 X42.617 Y63.711 F3000  ; Travel
M3 S1000
G4 P100  ; Wait for pen
G1 F1500
G1 X42.266 Y62.656
G1 X43.320 Y62.656
G1 X42.617 Y63.359
M5

; Path 114/328
G1 X89.023 Y64.414 F3000  ; Travel
M3 S1000
G4 P100  ; Wait for pen
G1 F1500
G1 X88.672 Y63.359
G1 X88.320 Y64.062
G1 X88.672 Y63.359
G1 X89.023 Y64.062
M5

; Path 115/328
G1 X41.211 Y64.414 F3000  ; Travel
M3 S1000
G4 P100  ; Wait for pen
G1 F1500
G1 X36.289 Y48.594
G1 X36.641 Y45.430
G1 X36.641 Y49.297
G1 X37.695 Y49.297
G1 X37.344 Y44.375
G1 X37.344 Y50.000
G1 X38.047 Y50.703
G1 X36.992 Y49.648
G1 X36.641 Y50.352
G1 X37.344 Y52.812
G1 X38.047 Y52.461
G1 X38.750 Y57.383
G1 X39.453 Y57.031
G1 X40.156 Y58.086
G1 X39.102 Y57.734
G1 X40.859 Y61.250
G1 X41.211 Y64.062
M5

; Path 116/328
G1 X132.266 Y64.766 F3000  ; Travel
M3 S1000
G4 P100  ; Wait for pen
G1 F1500
G1 X130.859 Y63.359
G1 X132.969 Y62.656
G1 X132.266 Y64.414
M5

; Path 117/328
G1 X111.875 Y65.117 F3000  ; Travel
M3 S1000
G4 P100  ; Wait for pen
G1 F1500
G1 X120.664 Y61.602
G1 X112.227 Y65.117
M5

; Path 118/328
G1 X132.266 Y65.820 F3000  ; Travel
M3 S1000
G4 P100  ; Wait for pen
G1 F1500
G1 X133.320 Y64.414
G1 X132.617 Y65.820
M5

; Path 119/328
G1 X57.031 Y66.172 F3000  ; Travel
M3 S1000
G4 P100  ; Wait for pen
G1 F1500
G1 X56.328 Y64.414
G1 X57.031 Y65.820
M5

; Path 120/328
G1 X104.492 Y66.875 F3000  ; Travel
M3 S1000
G4 P100  ; Wait for pen
G1 F1500
G1 X103.438 Y63.711
G1 X101.680 Y61.953
G1 X104.141 Y64.766
G1 X108.711 Y61.602
G1 X116.094 Y58.789
G1 X109.414 Y61.250
G1 X104.141 Y65.469
G1 X104.492 Y66.523
M5

; Path 121/328
G1 X86.211 Y67.227 F3000  ; Travel
M3 S1000
G4 P100  ; Wait for pen
G1 F1500
G1 X88.320 Y65.820
G1 X86.562 Y67.227
M5

; Path 122/328
G1 X63.008 Y67.578 F3000  ; Travel
M3 S1000
G4 P100  ; Wait for pen
G1 F1500
G1 X61.953 Y64.414
G1 X63.008 Y67.227
M5

; Path 123/328
G1 X59.141 Y67.930 F3000  ; Travel
M3 S1000
G4 P100  ; Wait for pen
G1 F1500
G1 X58.789 Y61.602
G1 X59.141 Y67.578
M5

; Path 124/328
G1 X103.086 Y69.336 F3000  ; Travel
M3 S1000
G4 P100  ; Wait for pen
G1 F1500
G1 X104.844 Y67.930
G1 X105.898 Y68.633
G1 X111.172 Y65.469
G1 X107.656 Y68.281
G1 X103.438 Y68.984
M5

; Path 125/328
G1 X67.930 Y69.336 F3000  ; Travel
M3 S1000
G4 P100  ; Wait for pen
G1 F1500
G1 X67.578 Y68.633
G1 X66.875 Y68.984
G1 X67.930 Y68.281
G1 X67.930 Y68.984
M5

; Path 126/328
G1 X43.672 Y70.391 F3000  ; Travel
M3 S1000
G4 P100  ; Wait for pen
G1 F1500
G1 X42.617 Y68.281
G1 X43.672 Y70.039
M5

; Path 127/328
G1 X106.250 Y70.742 F3000  ; Travel
M3 S1000
G4 P100  ; Wait for pen
G1 F1500
G1 X107.305 Y69.336
G1 X106.250 Y70.391
M5

; Path 128/328
G1 X66.523 Y71.797 F3000  ; Travel
M3 S1000
G4 P100  ; Wait for pen
G1 F1500
G1 X67.930 Y70.391
G1 X66.875 Y71.445
M5

; Path 129/328
G1 X111.875 Y73.203 F3000  ; Travel
M3 S1000
G4 P100  ; Wait for pen
G1 F1500
G1 X115.039 Y70.391
G1 X113.633 Y70.039
G1 X107.305 Y71.797
G1 X119.961 Y68.281
G1 X123.125 Y66.875
G1 X124.883 Y65.117
G1 X121.016 Y67.930
G1 X117.148 Y69.688
G1 X116.094 Y69.336
G1 X113.984 Y71.797
G1 X111.875 Y72.852
M5

; Path 130/328
G1 X129.805 Y73.555 F3000  ; Travel
M3 S1000
G4 P100  ; Wait for pen
G1 F1500
G1 X131.211 Y72.500
G1 X130.859 Y71.445
G1 X130.156 Y72.148
G1 X131.211 Y71.094
G1 X130.156 Y70.391
G1 X129.805 Y66.172
G1 X127.695 Y63.359
G1 X125.938 Y67.227
G1 X129.453 Y60.547
G1 X129.453 Y58.789
G1 X129.453 Y60.898
G1 X127.695 Y63.359
G1 X130.156 Y63.711
G1 X130.156 Y64.414
G1 X129.805 Y63.711
G1 X129.102 Y64.414
G1 X130.156 Y65.469
G1 X129.805 Y66.172
G1 X130.859 Y66.523
G1 X130.508 Y67.578
G1 X131.562 Y67.578
G1 X130.859 Y69.688
G1 X131.914 Y69.688
G1 X130.859 Y70.742
G1 X131.914 Y73.203
G1 X130.156 Y73.203
M5

; Path 131/328
G1 X90.781 Y73.906 F3000  ; Travel
M3 S1000
G4 P100  ; Wait for pen
G1 F1500
G1 X88.672 Y70.742
G1 X90.430 Y73.555
M5

; Path 132/328
G1 X70.742 Y73.906 F3000  ; Travel
M3 S1000
G4 P100  ; Wait for pen
G1 F1500
G1 X68.984 Y71.797
G1 X70.391 Y73.555
M5

; Path 133/328
G1 X117.852 Y74.258 F3000  ; Travel
M3 S1000
G4 P100  ; Wait for pen
G1 F1500
G1 X119.961 Y73.555
G1 X125.586 Y67.930
G1 X122.070 Y71.797
G1 X118.203 Y74.258
M5

; Path 134/328
G1 X85.156 Y74.258 F3000  ; Travel
M3 S1000
G4 P100  ; Wait for pen
G1 F1500
G1 X86.562 Y72.500
G1 X85.508 Y73.906
M5

; Path 135/328
G1 X78.828 Y74.258 F3000  ; Travel
M3 S1000
G4 P100  ; Wait for pen
G1 F1500
G1 X79.531 Y74.609
G1 X80.234 Y73.555
G1 X79.531 Y73.203
G1 X79.180 Y73.906
M5

; Path 136/328
G1 X64.766 Y74.258 F3000  ; Travel
M3 S1000
G4 P100  ; Wait for pen
G1 F1500
G1 X64.062 Y71.445
G1 X64.766 Y73.906
M5

; Path 137/328
G1 X133.672 Y74.609 F3000  ; Travel
M3 S1000
G4 P100  ; Wait for pen
G1 F1500
G1 X135.078 Y71.797
G1 X134.023 Y74.258
M5

; Path 138/328
G1 X110.469 Y74.609 F3000  ; Travel
M3 S1000
G4 P100  ; Wait for pen
G1 F1500
G1 X111.172 Y72.500
G1 X110.820 Y74.258
M5

; Path 139/328
G1 X54.922 Y74.609 F3000  ; Travel
M3 S1000
G4 P100  ; Wait for pen
G1 F1500
G1 X57.383 Y72.148
G1 X55.273 Y74.258
M5

; Path 140/328
G1 X43.672 Y75.664 F3000  ; Travel
M3 S1000
G4 P100  ; Wait for pen
G1 F1500
G1 X43.672 Y71.445
G1 X43.672 Y75.312
M5

; Path 141/328
G1 X76.016 Y77.070 F3000  ; Travel
M3 S1000
G4 P100  ; Wait for pen
G1 F1500
G1 X77.070 Y76.016
G1 X76.016 Y76.719
M5

; Path 142/328
G1 X134.727 Y77.422 F3000  ; Travel
M3 S1000
G4 P100  ; Wait for pen
G1 F1500
G1 X136.484 Y74.961
G1 X135.078 Y77.070
M5

; Path 143/328
G1 X79.531 Y78.477 F3000  ; Travel
M3 S1000
G4 P100  ; Wait for pen
G1 F1500
G1 X81.289 Y76.016
G1 X79.531 Y78.125
M5

; Path 144/328
G1 X66.523 Y78.828 F3000  ; Travel
M3 S1000
G4 P100  ; Wait for pen
G1 F1500
G1 X65.469 Y76.367
G1 X66.172 Y78.477
M5

; Path 145/328
G1 X44.727 Y78.828 F3000  ; Travel
M3 S1000
G4 P100  ; Wait for pen
G1 F1500
G1 X44.023 Y76.367
G1 X44.375 Y78.477
M5

; Path 146/328
G1 X95.000 Y79.180 F3000  ; Travel
M3 S1000
G4 P100  ; Wait for pen
G1 F1500
G1 X93.242 Y77.070
G1 X94.648 Y78.828
M5

; Path 147/328
G1 X99.922 Y81.289 F3000  ; Travel
M3 S1000
G4 P100  ; Wait for pen
G1 F1500
G1 X100.273 Y79.180
G1 X104.141 Y77.773
G1 X101.680 Y78.477
G1 X99.922 Y80.938
M5

; Path 148/328
G1 X104.141 Y82.344 F3000  ; Travel
M3 S1000
G4 P100  ; Wait for pen
G1 F1500
G1 X105.195 Y80.586
G1 X106.953 Y82.344
G1 X105.547 Y80.938
G1 X104.141 Y81.992
M5

; Path 149/328
G1 X52.461 Y82.344 F3000  ; Travel
M3 S1000
G4 P100  ; Wait for pen
G1 F1500
G1 X53.516 Y81.641
G1 X53.164 Y80.586
G1 X52.461 Y81.992
M5

; Path 150/328
G1 X129.805 Y83.047 F3000  ; Travel
M3 S1000
G4 P100  ; Wait for pen
G1 F1500
G1 X130.156 Y80.938
G1 X129.805 Y82.695
M5

; Path 151/328
G1 X121.719 Y84.102 F3000  ; Travel
M3 S1000
G4 P100  ; Wait for pen
G1 F1500
G1 X120.664 Y82.344
G1 X119.609 Y83.047
G1 X120.312 Y81.992
G1 X121.367 Y83.047
G1 X121.719 Y82.344
G1 X121.719 Y83.750
M5

; Path 152/328
G1 X75.312 Y84.453 F3000  ; Travel
M3 S1000
G4 P100  ; Wait for pen
G1 F1500
G1 X73.906 Y82.695
G1 X74.609 Y81.641
G1 X73.906 Y82.695
G1 X74.961 Y84.102
M5

; Path 153/328
G1 X86.211 Y86.211 F3000  ; Travel
M3 S1000
G4 P100  ; Wait for pen
G1 F1500
G1 X84.805 Y85.508
G1 X86.562 Y86.211
M5

; Path 154/328
G1 X102.031 Y86.562 F3000  ; Travel
M3 S1000
G4 P100  ; Wait for pen
G1 F1500
G1 X100.625 Y85.508
G1 X100.625 Y84.453
G1 X99.922 Y84.805
G1 X97.812 Y82.695
G1 X97.461 Y83.398
G1 X96.406 Y81.992
G1 X95.703 Y82.344
G1 X96.406 Y81.289
G1 X95.000 Y80.234
G1 X99.922 Y84.453
G1 X100.273 Y83.750
G1 X102.383 Y86.211
M5

; Path 155/328
G1 X71.094 Y86.562 F3000  ; Travel
M3 S1000
G4 P100  ; Wait for pen
G1 F1500
G1 X70.039 Y83.047
G1 X66.523 Y79.883
G1 X71.445 Y84.102
G1 X72.148 Y82.344
G1 X71.797 Y80.234
G1 X73.203 Y77.422
G1 X71.445 Y74.609
G1 X73.906 Y77.422
G1 X72.852 Y79.883
G1 X73.555 Y80.586
G1 X75.664 Y77.773
G1 X76.367 Y75.312
G1 X74.609 Y73.203
G1 X76.367 Y75.312
G1 X76.719 Y74.609
G1 X77.070 Y76.016
G1 X78.125 Y73.555
G1 X78.125 Y75.312
G1 X80.586 Y72.500
G1 X79.883 Y73.203
G1 X80.586 Y73.906
G1 X81.641 Y72.148
G1 X85.859 Y68.984
G1 X86.562 Y70.391
G1 X83.047 Y72.148
G1 X84.453 Y73.203
G1 X86.211 Y71.797
G1 X83.750 Y74.609
G1 X84.805 Y74.961
G1 X84.453 Y75.664
G1 X84.102 Y74.961
G1 X82.695 Y76.367
G1 X83.750 Y74.609
G1 X83.047 Y74.258
G1 X83.750 Y73.203
G1 X83.047 Y72.148
G1 X79.180 Y76.367
G1 X78.477 Y79.180
G1 X78.125 Y78.477
G1 X76.719 Y79.883
G1 X77.422 Y80.234
G1 X76.719 Y80.586
G1 X77.070 Y81.992
G1 X77.070 Y80.234
G1 X76.367 Y79.883
G1 X77.422 Y78.828
G1 X77.070 Y78.125
G1 X75.664 Y79.180
G1 X75.664 Y80.586
G1 X74.961 Y80.938
G1 X75.664 Y80.234
G1 X75.312 Y79.180
G1 X73.906 Y80.586
G1 X71.797 Y85.156
G1 X72.500 Y85.859
G1 X71.445 Y86.562
M5

; Path 156/328
G1 X135.430 Y86.914 F3000  ; Travel
M3 S1000
G4 P100  ; Wait for pen
G1 F1500
G1 X132.617 Y82.695
G1 X131.562 Y83.750
G1 X132.266 Y82.344
G1 X130.156 Y79.180
G1 X130.156 Y78.125
G1 X130.859 Y78.477
G1 X130.156 Y77.422
G1 X131.211 Y76.719
G1 X130.156 Y76.016
G1 X130.859 Y73.906
G1 X131.914 Y74.961
G1 X132.617 Y74.258
G1 X131.914 Y74.961
G1 X132.266 Y76.016
G1 X133.320 Y75.312
G1 X130.859 Y76.016
G1 X132.266 Y77.070
G1 X131.211 Y79.180
G1 X131.914 Y79.883
G1 X132.969 Y77.773
G1 X131.914 Y80.234
G1 X132.617 Y81.641
G1 X134.375 Y78.125
G1 X132.617 Y81.992
G1 X133.320 Y83.047
G1 X134.375 Y82.344
G1 X135.430 Y83.750
G1 X135.781 Y86.914
M5

; Path 157/328
G1 X52.109 Y86.914 F3000  ; Travel
M3 S1000
G4 P100  ; Wait for pen
G1 F1500
G1 X52.461 Y86.211
G1 X51.406 Y86.211
G1 X52.461 Y83.047
G1 X52.109 Y81.641
G1 X53.516 Y79.531
G1 X53.164 Y77.773
G1 X53.516 Y79.180
G1 X54.922 Y77.422
G1 X53.867 Y79.180
G1 X55.625 Y78.477
G1 X54.219 Y79.531
G1 X52.461 Y83.398
G1 X52.461 Y86.562
M5

; Path 158/328
G1 X124.180 Y87.266 F3000  ; Travel
M3 S1000
G4 P100  ; Wait for pen
G1 F1500
G1 X124.531 Y85.859
G1 X124.531 Y87.266
M5

; Path 159/328
G1 X59.141 Y87.266 F3000  ; Travel
M3 S1000
G4 P100  ; Wait for pen
G1 F1500
G1 X59.141 Y86.562
G1 X60.547 Y86.211
G1 X58.438 Y84.453
G1 X58.438 Y83.750
G1 X59.492 Y83.750
G1 X57.734 Y81.641
G1 X58.789 Y80.586
G1 X59.141 Y81.992
G1 X60.195 Y81.289
G1 X59.141 Y81.992
G1 X60.898 Y86.914
G1 X59.492 Y87.266
M5

; Path 160/328
G1 X119.961 Y87.617 F3000  ; Travel
M3 S1000
G4 P100  ; Wait for pen
G1 F1500
G1 X122.070 Y86.562
G1 X120.312 Y87.617
M5

; Path 161/328
G1 X122.422 Y89.023 F3000  ; Travel
M3 S1000
G4 P100  ; Wait for pen
G1 F1500
G1 X124.180 Y87.969
G1 X122.773 Y89.023
M5

; Path 162/328
G1 X47.188 Y89.023 F3000  ; Travel
M3 S1000
G4 P100  ; Wait for pen
G1 F1500
G1 X46.836 Y87.266
G1 X46.133 Y87.266
G1 X46.133 Y88.672
G1 X45.078 Y85.859
G1 X41.562 Y86.914
G1 X43.320 Y85.859
G1 X46.133 Y85.859
G1 X43.320 Y83.398
G1 X40.859 Y83.398
G1 X39.805 Y84.453
G1 X40.859 Y83.398
G1 X45.430 Y83.750
G1 X44.023 Y80.586
G1 X41.562 Y81.289
G1 X42.969 Y80.586
G1 X44.727 Y80.938
G1 X45.078 Y83.047
G1 X47.188 Y85.156
G1 X47.188 Y86.211
G1 X47.188 Y85.156
G1 X46.133 Y85.156
G1 X46.484 Y86.914
G1 X47.539 Y86.914
G1 X47.188 Y88.672
M5

; Path 163/328
G1 X147.383 Y89.727 F3000  ; Travel
M3 S1000
G4 P100  ; Wait for pen
G1 F1500
G1 X148.438 Y86.211
G1 X149.844 Y85.508
G1 X148.438 Y86.562
G1 X147.734 Y89.375
M5

; Path 164/328
G1 X47.891 Y90.078 F3000  ; Travel
M3 S1000
G4 P100  ; Wait for pen
G1 F1500
G1 X49.297 Y86.562
G1 X47.891 Y89.727
M5

; Path 165/328
G1 X137.188 Y90.430 F3000  ; Travel
M3 S1000
G4 P100  ; Wait for pen
G1 F1500
G1 X136.133 Y87.969
G1 X137.891 Y88.320
G1 X136.836 Y88.672
G1 X137.539 Y90.078
M5

; Path 166/328
G1 X40.156 Y90.781 F3000  ; Travel
M3 S1000
G4 P100  ; Wait for pen
G1 F1500
G1 X40.156 Y89.727
G1 X40.508 Y90.781
G1 X41.211 Y89.727
G1 X43.672 Y89.023
G1 X40.508 Y90.781
M5

; Path 167/328
G1 X122.773 Y91.484 F3000  ; Travel
M3 S1000
G4 P100  ; Wait for pen
G1 F1500
G1 X123.477 Y90.781
G1 X122.070 Y90.078
G1 X123.828 Y89.375
G1 X123.125 Y91.484
M5

; Path 168/328
G1 X136.836 Y92.539 F3000  ; Travel
M3 S1000
G4 P100  ; Wait for pen
G1 F1500
G1 X137.539 Y91.133
G1 X138.594 Y91.133
G1 X137.188 Y92.539
M5

; Path 169/328
G1 X53.164 Y93.242 F3000  ; Travel
M3 S1000
G4 P100  ; Wait for pen
G1 F1500
G1 X52.109 Y91.133
G1 X52.812 Y89.375
G1 X53.164 Y90.078
G1 X53.516 Y89.375
G1 X53.516 Y91.836
G1 X52.109 Y91.836
G1 X52.812 Y92.891
M5

; Path 170/328
G1 X138.242 Y93.945 F3000  ; Travel
M3 S1000
G4 P100  ; Wait for pen
G1 F1500
G1 X138.242 Y92.539
G1 X139.648 Y91.133
G1 X138.242 Y93.594
M5

; Path 171/328
G1 X108.711 Y93.945 F3000  ; Travel
M3 S1000
G4 P100  ; Wait for pen
G1 F1500
G1 X103.086 Y86.914
G1 X109.062 Y93.945
M5

; Path 172/328
G1 X42.266 Y93.945 F3000  ; Travel
M3 S1000
G4 P100  ; Wait for pen
G1 F1500
G1 X40.508 Y91.836
G1 X41.914 Y93.594
M5

; Path 173/328
G1 X61.602 Y94.297 F3000  ; Travel
M3 S1000
G4 P100  ; Wait for pen
G1 F1500
G1 X61.953 Y92.891
G1 X64.766 Y90.781
G1 X61.602 Y93.945
M5

; Path 174/328
G1 X70.391 Y95.000 F3000  ; Travel
M3 S1000
G4 P100  ; Wait for pen
G1 F1500
G1 X71.094 Y95.000
G1 X70.742 Y93.594
G1 X70.391 Y94.648
M5

; Path 175/328
G1 X123.125 Y95.703 F3000  ; Travel
M3 S1000
G4 P100  ; Wait for pen
G1 F1500
G1 X123.477 Y94.297
G1 X122.070 Y92.891
G1 X121.016 Y93.242
G1 X122.070 Y92.891
G1 X123.125 Y93.945
G1 X124.531 Y92.188
G1 X125.234 Y93.594
G1 X124.531 Y93.242
G1 X123.477 Y95.352
M5

; Path 176/328
G1 X90.781 Y95.703 F3000  ; Travel
M3 S1000
G4 P100  ; Wait for pen
G1 F1500
G1 X92.188 Y94.297
G1 X91.133 Y95.352
M5

; Path 177/328
G1 X81.992 Y95.703 F3000  ; Travel
M3 S1000
G4 P100  ; Wait for pen
G1 F1500
G1 X83.398 Y93.242
G1 X81.992 Y95.352
M5

; Path 178/328
G1 X69.688 Y95.703 F3000  ; Travel
M3 S1000
G4 P100  ; Wait for pen
G1 F1500
G1 X68.633 Y95.352
G1 X70.391 Y95.352
G1 X69.688 Y93.945
G1 X70.391 Y93.242
G1 X68.984 Y91.133
G1 X70.039 Y90.430
G1 X68.633 Y86.562
G1 X69.336 Y85.156
G1 X68.281 Y84.805
G1 X66.875 Y81.289
G1 X69.336 Y84.453
G1 X70.391 Y87.617
G1 X71.094 Y95.352
G1 X70.039 Y95.703
M5

; Path 179/328
G1 X132.617 Y96.406 F3000  ; Travel
M3 S1000
G4 P100  ; Wait for pen
G1 F1500
G1 X130.859 Y93.594
G1 X131.562 Y93.594
G1 X131.562 Y92.539
G1 X129.805 Y90.430
G1 X130.859 Y89.375
G1 X130.508 Y90.430
G1 X131.211 Y91.133
G1 X131.914 Y90.430
G1 X131.211 Y91.836
G1 X131.914 Y92.539
G1 X132.969 Y92.188
G1 X131.562 Y93.594
G1 X133.320 Y95.352
G1 X132.617 Y96.055
M5

; Path 180/328
G1 X144.219 Y98.516 F3000  ; Travel
M3 S1000
G4 P100  ; Wait for pen
G1 F1500
G1 X148.086 Y92.188
G1 X147.734 Y91.133
G1 X148.789 Y91.484
G1 X149.492 Y93.594
G1 X148.438 Y91.836
G1 X144.219 Y98.164
M5

; Path 181/328
G1 X51.758 Y99.219 F3000  ; Travel
M3 S1000
G4 P100  ; Wait for pen
G1 F1500
G1 X50.703 Y98.516
G1 X50.000 Y96.055
G1 X51.406 Y98.867
M5

; Path 182/328
G1 X145.977 Y99.570 F3000  ; Travel
M3 S1000
G4 P100  ; Wait for pen
G1 F1500
G1 X149.492 Y97.109
G1 X149.844 Y94.297
G1 X149.844 Y96.758
G1 X146.328 Y99.219
M5

; Path 183/328
G1 X101.328 Y99.570 F3000  ; Travel
M3 S1000
G4 P100  ; Wait for pen
G1 F1500
G1 X103.086 Y96.758
G1 X101.680 Y99.219
M5

; Path 184/328
G1 X75.664 Y99.922 F3000  ; Travel
M3 S1000
G4 P100  ; Wait for pen
G1 F1500
G1 X75.664 Y97.461
G1 X76.719 Y96.055
G1 X75.664 Y97.461
G1 X75.664 Y99.570
M5

; Path 185/328
G1 X59.141 Y100.273 F3000  ; Travel
M3 S1000
G4 P100  ; Wait for pen
G1 F1500
G1 X53.516 Y96.758
G1 X54.219 Y96.406
G1 X54.922 Y97.812
G1 X55.977 Y97.109
G1 X55.625 Y97.812
G1 X57.734 Y98.164
G1 X58.789 Y99.922
M5

; Path 186/328
G1 X135.078 Y101.328 F3000  ; Travel
M3 S1000
G4 P100  ; Wait for pen
G1 F1500
G1 X135.781 Y100.625
G1 X134.375 Y98.867
G1 X136.133 Y100.977
G1 X135.430 Y101.328
M5

; Path 187/328
G1 X83.047 Y101.680 F3000  ; Travel
M3 S1000
G4 P100  ; Wait for pen
G1 F1500
G1 X87.266 Y100.977
G1 X83.398 Y101.680
M5

; Path 188/328
G1 X55.625 Y101.680 F3000  ; Travel
M3 S1000
G4 P100  ; Wait for pen
G1 F1500
G1 X52.461 Y98.867
G1 X55.273 Y101.328
M5

; Path 189/328
G1 X89.727 Y102.031 F3000  ; Travel
M3 S1000
G4 P100  ; Wait for pen
G1 F1500
G1 X93.945 Y100.977
G1 X90.078 Y102.031
M5

; Path 190/328
G1 X142.461 Y102.383 F3000  ; Travel
M3 S1000
G4 P100  ; Wait for pen
G1 F1500
G1 X143.867 Y101.680
G1 X143.164 Y100.977
G1 X142.461 Y102.031
M5

; Path 191/328
G1 X79.531 Y102.383 F3000  ; Travel
M3 S1000
G4 P100  ; Wait for pen
G1 F1500
G1 X82.344 Y101.680
G1 X79.883 Y102.383
M5

; Path 192/328
G1 X60.547 Y102.734 F3000  ; Travel
M3 S1000
G4 P100  ; Wait for pen
G1 F1500
G1 X60.195 Y97.461
G1 X60.898 Y94.648
G1 X60.898 Y98.516
G1 X60.195 Y97.812
G1 X60.547 Y102.383
M5

; Path 193/328
G1 X98.867 Y103.086 F3000  ; Travel
M3 S1000
G4 P100  ; Wait for pen
G1 F1500
G1 X94.648 Y101.328
G1 X96.758 Y102.383
G1 X98.164 Y100.625
G1 X97.812 Y102.383
G1 X98.516 Y102.734
M5

; Path 194/328
G1 X86.562 Y103.086 F3000  ; Travel
M3 S1000
G4 P100  ; Wait for pen
G1 F1500
G1 X89.023 Y101.680
G1 X86.914 Y103.086
M5

; Path 195/328
G1 X74.961 Y103.789 F3000  ; Travel
M3 S1000
G4 P100  ; Wait for pen
G1 F1500
G1 X78.828 Y102.734
G1 X75.312 Y103.789
M5

; Path 196/328
G1 X64.766 Y104.492 F3000  ; Travel
M3 S1000
G4 P100  ; Wait for pen
G1 F1500
G1 X63.359 Y95.352
G1 X65.117 Y92.539
G1 X63.359 Y95.352
G1 X64.766 Y104.141
M5

; Path 197/328
G1 X50.000 Y104.492 F3000  ; Travel
M3 S1000
G4 P100  ; Wait for pen
G1 F1500
G1 X48.242 Y103.438
G1 X49.648 Y104.141
M5

; Path 198/328
G1 X91.836 Y105.195 F3000  ; Travel
M3 S1000
G4 P100  ; Wait for pen
G1 F1500
G1 X93.945 Y104.844
G1 X92.188 Y105.195
M5

; Path 199/328
G1 X116.094 Y106.250 F3000  ; Travel
M3 S1000
G4 P100  ; Wait for pen
G1 F1500
G1 X113.633 Y102.383
G1 X116.094 Y105.898
M5

; Path 200/328
G1 X107.305 Y106.250 F3000  ; Travel
M3 S1000
G4 P100  ; Wait for pen
G1 F1500
G1 X103.086 Y104.492
G1 X107.656 Y106.250
M5

; Path 201/328
G1 X94.297 Y107.305 F3000  ; Travel
M3 S1000
G4 P100  ; Wait for pen
G1 F1500
G1 X93.242 Y105.898
G1 X94.297 Y106.953
M5

; Path 202/328
G1 X79.531 Y107.305 F3000  ; Travel
M3 S1000
G4 P100  ; Wait for pen
G1 F1500
G1 X79.531 Y106.602
G1 X84.102 Y105.547
G1 X83.047 Y106.602
G1 X81.289 Y106.250
G1 X79.883 Y107.305
M5

; Path 203/328
G1 X58.438 Y107.305 F3000  ; Travel
M3 S1000
G4 P100  ; Wait for pen
G1 F1500
G1 X57.031 Y104.141
G1 X58.438 Y106.953
M5

; Path 204/328
G1 X55.625 Y109.062 F3000  ; Travel
M3 S1000
G4 P100  ; Wait for pen
G1 F1500
G1 X56.328 Y108.711
G1 X52.812 Y103.086
G1 X50.000 Y100.273
G1 X48.945 Y100.273
G1 X46.836 Y94.297
G1 X46.133 Y95.000
G1 X46.133 Y97.461
G1 X47.188 Y100.273
G1 X50.703 Y102.734
G1 X55.273 Y108.711
M5

; Path 205/328
G1 X82.344 Y109.414 F3000  ; Travel
M3 S1000
G4 P100  ; Wait for pen
G1 F1500
G1 X84.453 Y108.008
G1 X82.695 Y109.414
M5

; Path 206/328
G1 X117.500 Y110.117 F3000  ; Travel
M3 S1000
G4 P100  ; Wait for pen
G1 F1500
G1 X116.797 Y108.008
G1 X117.500 Y109.766
M5

; Path 207/328
G1 X140.703 Y110.820 F3000  ; Travel
M3 S1000
G4 P100  ; Wait for pen
G1 F1500
G1 X141.758 Y109.414
G1 X141.055 Y109.062
G1 X142.109 Y108.359
G1 X142.461 Y106.250
G1 X141.406 Y106.953
G1 X141.406 Y107.656
G1 X143.164 Y103.438
G1 X142.109 Y104.844
G1 X142.812 Y106.250
G1 X141.758 Y109.414
G1 X140.703 Y110.469
M5

; Path 208/328
G1 X91.133 Y110.820 F3000  ; Travel
M3 S1000
G4 P100  ; Wait for pen
G1 F1500
G1 X94.297 Y108.008
G1 X91.484 Y110.820
M5

; Path 209/328
G1 X98.867 Y111.523 F3000  ; Travel
M3 S1000
G4 P100  ; Wait for pen
G1 F1500
G1 X101.680 Y110.820
G1 X101.680 Y109.766
G1 X104.492 Y111.172
G1 X102.031 Y110.469
G1 X99.219 Y111.523
M5

; Path 210/328
G1 X59.844 Y111.523 F3000  ; Travel
M3 S1000
G4 P100  ; Wait for pen
G1 F1500
G1 X58.789 Y109.414
G1 X59.844 Y111.172
M5

; Path 211/328
G1 X72.500 Y111.875 F3000  ; Travel
M3 S1000
G4 P100  ; Wait for pen
G1 F1500
G1 X73.906 Y108.711
G1 X76.016 Y107.656
G1 X73.555 Y109.414
G1 X72.852 Y111.523
M5

; Path 212/328
G1 X53.867 Y111.875 F3000  ; Travel
M3 S1000
G4 P100  ; Wait for pen
G1 F1500
G1 X53.164 Y109.766
G1 X53.867 Y111.523
M5

; Path 213/328
G1 X131.562 Y112.227 F3000  ; Travel
M3 S1000
G4 P100  ; Wait for pen
G1 F1500
G1 X135.430 Y110.820
G1 X139.297 Y107.656
G1 X143.516 Y99.570
G1 X144.219 Y99.922
G1 X147.031 Y97.109
G1 X147.734 Y94.648
G1 X147.383 Y96.758
G1 X143.867 Y100.625
G1 X143.867 Y101.680
G1 X142.109 Y102.734
G1 X139.648 Y107.305
G1 X134.023 Y111.875
G1 X131.914 Y112.227
M5

; Path 214/328
G1 X62.305 Y112.227 F3000  ; Travel
M3 S1000
G4 P100  ; Wait for pen
G1 F1500
G1 X60.547 Y108.711
G1 X60.195 Y103.789
G1 X60.195 Y107.305
G1 X61.953 Y111.875
M5

; Path 215/328
G1 X93.242 Y112.930 F3000  ; Travel
M3 S1000
G4 P100  ; Wait for pen
G1 F1500
G1 X96.055 Y111.172
G1 X93.594 Y112.930
M5

; Path 216/328
G1 X137.539 Y114.688 F3000  ; Travel
M3 S1000
G4 P100  ; Wait for pen
G1 F1500
G1 X138.945 Y112.930
G1 X137.891 Y114.336
M5

; Path 217/328
G1 X71.094 Y115.039 F3000  ; Travel
M3 S1000
G4 P100  ; Wait for pen
G1 F1500
G1 X72.148 Y112.578
G1 X71.094 Y114.688
M5

; Path 218/328
G1 X129.805 Y115.391 F3000  ; Travel
M3 S1000
G4 P100  ; Wait for pen
G1 F1500
G1 X130.859 Y114.688
G1 X130.156 Y114.336
G1 X129.805 Y115.039
M5

; Path 219/328
G1 X94.648 Y115.742 F3000  ; Travel
M3 S1000
G4 P100  ; Wait for pen
G1 F1500
G1 X92.891 Y115.391
G1 X95.000 Y115.742
M5

; Path 220/328
G1 X83.398 Y115.742 F3000  ; Travel
M3 S1000
G4 P100  ; Wait for pen
G1 F1500
G1 X86.562 Y115.039
G1 X83.750 Y115.742
M5

; Path 221/328
G1 X67.227 Y117.148 F3000  ; Travel
M3 S1000
G4 P100  ; Wait for pen
G1 F1500
G1 X66.523 Y113.633
G1 X67.227 Y116.797
M5

; Path 222/328
G1 X70.391 Y119.609 F3000  ; Travel
M3 S1000
G4 P100  ; Wait for pen
G1 F1500
G1 X69.688 Y118.555
G1 X70.039 Y113.633
G1 X68.281 Y110.469
G1 X68.984 Y109.062
G1 X68.281 Y100.977
G1 X70.039 Y96.758
G1 X72.852 Y95.703
G1 X74.609 Y93.945
G1 X82.695 Y91.133
G1 X79.180 Y87.969
G1 X83.047 Y90.781
G1 X83.398 Y91.836
G1 X84.453 Y90.781
G1 X82.695 Y89.375
G1 X84.102 Y90.078
G1 X84.102 Y89.023
G1 X85.508 Y90.078
G1 X86.211 Y89.023
G1 X84.805 Y87.969
G1 X86.562 Y88.672
G1 X86.914 Y87.266
G1 X87.969 Y87.617
G1 X86.914 Y89.023
G1 X88.320 Y88.672
G1 X89.375 Y87.617
G1 X85.859 Y84.453
G1 X87.617 Y86.211
G1 X88.320 Y85.859
G1 X87.266 Y84.805
G1 X89.023 Y85.508
G1 X89.727 Y86.914
G1 X90.430 Y86.562
G1 X89.727 Y87.266
G1 X90.781 Y87.266
G1 X90.078 Y87.969
G1 X90.781 Y88.672
G1 X89.375 Y90.078
G1 X90.430 Y91.133
G1 X91.484 Y91.133
G1 X92.188 Y90.078
G1 X92.539 Y91.484
G1 X96.758 Y92.539
G1 X98.516 Y94.297
G1 X98.867 Y93.594
G1 X100.977 Y94.297
G1 X101.328 Y95.352
G1 X103.789 Y95.352
G1 X109.062 Y98.867
G1 X110.117 Y93.242
G1 X108.711 Y91.484
G1 X109.414 Y91.484
G1 X108.711 Y89.727
G1 X109.414 Y91.133
G1 X109.414 Y88.320
G1 X110.117 Y90.078
G1 X111.172 Y87.969
G1 X111.172 Y85.156
G1 X110.469 Y85.156
G1 X111.523 Y83.750
G1 X110.469 Y81.289
G1 X111.875 Y80.586
G1 X110.820 Y79.883
G1 X111.875 Y79.180
G1 X111.523 Y77.773
G1 X112.227 Y77.773
G1 X111.523 Y76.719
G1 X112.578 Y75.664
G1 X114.688 Y75.312
G1 X112.227 Y76.719
G1 X113.281 Y78.828
G1 X112.227 Y80.938
G1 X111.523 Y87.969
G1 X110.469 Y89.023
G1 X111.172 Y89.375
G1 X110.469 Y96.406
G1 X111.172 Y96.406
G1 X110.117 Y98.164
G1 X112.227 Y100.977
G1 X112.578 Y100.273
G1 X111.523 Y98.516
G1 X112.930 Y102.383
G1 X111.172 Y99.922
G1 X110.469 Y100.273
G1 X107.656 Y97.812
G1 X102.031 Y95.352
G1 X100.273 Y95.703
G1 X99.570 Y94.648
G1 X95.000 Y92.891
G1 X93.242 Y93.242
G1 X94.297 Y92.891
G1 X93.594 Y92.188
G1 X88.672 Y91.836
G1 X88.672 Y92.539
G1 X85.508 Y94.297
G1 X84.805 Y97.109
G1 X85.156 Y94.648
G1 X87.969 Y92.188
G1 X87.617 Y91.484
G1 X78.477 Y93.242
G1 X71.445 Y96.758
G1 X68.281 Y101.328
G1 X68.633 Y107.305
G1 X69.336 Y108.359
G1 X70.039 Y108.008
G1 X68.633 Y111.172
G1 X70.039 Y113.281
G1 X70.391 Y119.258
M5

; Path 223/328
G1 X126.992 Y119.961 F3000  ; Travel
M3 S1000
G4 P100  ; Wait for pen
G1 F1500
G1 X128.398 Y117.500
G1 X128.047 Y116.797
G1 X129.453 Y115.391
G1 X129.453 Y113.633
G1 X130.508 Y113.281
G1 X130.859 Y115.039
G1 X128.750 Y116.445
G1 X129.453 Y116.797
G1 X126.992 Y119.609
M5

; Path 224/328
G1 X80.938 Y119.961 F3000  ; Travel
M3 S1000
G4 P100  ; Wait for pen
G1 F1500
G1 X81.641 Y119.961
G1 X81.641 Y118.203
G1 X80.938 Y119.609
M5

; Path 225/328
G1 X66.523 Y119.961 F3000  ; Travel
M3 S1000
G4 P100  ; Wait for pen
G1 F1500
G1 X65.820 Y118.203
G1 X66.523 Y119.609
M5

; Path 226/328
G1 X120.312 Y120.312 F3000  ; Travel
M3 S1000
G4 P100  ; Wait for pen
G1 F1500
G1 X121.367 Y118.555
G1 X120.664 Y119.961
M5

; Path 227/328
G1 X62.305 Y120.312 F3000  ; Travel
M3 S1000
G4 P100  ; Wait for pen
G1 F1500
G1 X61.250 Y117.852
G1 X62.305 Y119.961
M5

; Path 228/328
G1 X121.367 Y120.664 F3000  ; Travel
M3 S1000
G4 P100  ; Wait for pen
G1 F1500
G1 X123.477 Y116.445
G1 X125.586 Y114.688
G1 X122.773 Y115.742
G1 X124.531 Y113.984
G1 X122.070 Y114.688
G1 X119.258 Y120.312
G1 X121.367 Y115.039
G1 X124.180 Y113.633
G1 X128.398 Y113.281
G1 X125.586 Y118.203
G1 X127.695 Y114.336
G1 X127.344 Y113.633
G1 X123.125 Y117.148
G1 X121.719 Y120.312
M5

; Path 229/328
G1 X131.914 Y121.016 F3000  ; Travel
M3 S1000
G4 P100  ; Wait for pen
G1 F1500
G1 X133.672 Y118.203
G1 X132.266 Y120.664
M5

; Path 230/328
G1 X78.828 Y121.016 F3000  ; Travel
M3 S1000
G4 P100  ; Wait for pen
G1 F1500
G1 X80.234 Y118.203
G1 X80.234 Y119.609
G1 X79.180 Y120.664
M5

; Path 231/328
G1 X124.531 Y121.367 F3000  ; Travel
M3 S1000
G4 P100  ; Wait for pen
G1 F1500
G1 X127.344 Y117.148
G1 X124.883 Y121.016
M5

; Path 232/328
G1 X104.141 Y121.367 F3000  ; Travel
M3 S1000
G4 P100  ; Wait for pen
G1 F1500
G1 X103.086 Y120.664
G1 X103.438 Y119.961
G1 X101.328 Y118.906
G1 X105.195 Y121.367
G1 X104.492 Y121.016
M5

; Path 233/328
G1 X127.695 Y121.719 F3000  ; Travel
M3 S1000
G4 P100  ; Wait for pen
G1 F1500
G1 X130.508 Y118.555
G1 X128.047 Y121.367
M5

; Path 234/328
G1 X61.602 Y122.422 F3000  ; Travel
M3 S1000
G4 P100  ; Wait for pen
G1 F1500
G1 X60.898 Y120.664
G1 X61.602 Y122.070
M5

; Path 235/328
G1 X133.320 Y122.773 F3000  ; Travel
M3 S1000
G4 P100  ; Wait for pen
G1 F1500
G1 X136.133 Y119.961
G1 X133.672 Y122.422
M5

; Path 236/328
G1 X59.492 Y122.773 F3000  ; Travel
M3 S1000
G4 P100  ; Wait for pen
G1 F1500
G1 X58.438 Y116.445
G1 X59.141 Y117.148
G1 X57.383 Y112.227
G1 X52.109 Y105.547
G1 X43.320 Y97.109
G1 X45.078 Y98.867
G1 X45.781 Y98.164
G1 X44.023 Y96.406
G1 X45.078 Y97.461
G1 X45.781 Y97.109
G1 X45.430 Y94.648
G1 X46.133 Y93.594
G1 X44.727 Y91.133
G1 X41.914 Y90.781
G1 X44.375 Y90.781
G1 X46.133 Y92.539
G1 X46.836 Y92.188
G1 X44.375 Y89.023
G1 X46.133 Y89.727
G1 X48.594 Y98.867
G1 X49.648 Y98.867
G1 X49.297 Y97.109
G1 X50.352 Y100.273
G1 X55.273 Y103.438
G1 X52.461 Y102.383
G1 X54.922 Y106.602
G1 X55.977 Y106.953
G1 X55.625 Y105.547
G1 X57.031 Y106.953
G1 X55.625 Y107.656
G1 X59.844 Y112.930
G1 X59.492 Y113.984
G1 X60.898 Y117.148
G1 X60.195 Y114.688
G1 X56.680 Y109.414
G1 X56.328 Y110.820
G1 X59.492 Y117.148
G1 X58.789 Y117.500
G1 X59.492 Y122.422
M5

; Path 237/328
G1 X124.531 Y123.125 F3000  ; Travel
M3 S1000
G4 P100  ; Wait for pen
G1 F1500
G1 X126.289 Y121.367
G1 X124.883 Y122.773
M5

; Path 238/328
G1 X122.070 Y123.828 F3000  ; Travel
M3 S1000
G4 P100  ; Wait for pen
G1 F1500
G1 X124.883 Y119.258
G1 X122.070 Y123.477
M5

; Path 239/328
G1 X130.156 Y124.531 F3000  ; Travel
M3 S1000
G4 P100  ; Wait for pen
G1 F1500
G1 X131.914 Y123.477
G1 X130.508 Y124.180
M5

; Path 240/328
G1 X64.062 Y124.883 F3000  ; Travel
M3 S1000
G4 P100  ; Wait for pen
G1 F1500
G1 X62.656 Y121.016
G1 X64.062 Y124.531
M5

; Path 241/328
G1 X125.586 Y125.234 F3000  ; Travel
M3 S1000
G4 P100  ; Wait for pen
G1 F1500
G1 X128.047 Y123.125
G1 X125.938 Y124.883
M5

; Path 242/328
G1 X76.719 Y125.234 F3000  ; Travel
M3 S1000
G4 P100  ; Wait for pen
G1 F1500
G1 X72.500 Y123.125
G1 X71.094 Y121.367
G1 X71.094 Y119.961
G1 X76.367 Y124.883
M5

; Path 243/328
G1 X68.633 Y125.234 F3000  ; Travel
M3 S1000
G4 P100  ; Wait for pen
G1 F1500
G1 X65.820 Y121.016
G1 X68.633 Y124.883
M5

; Path 244/328
G1 X94.297 Y125.586 F3000  ; Travel
M3 S1000
G4 P100  ; Wait for pen
G1 F1500
G1 X91.484 Y125.234
G1 X96.055 Y125.586
G1 X94.648 Y125.586
M5

; Path 245/328
G1 X70.391 Y125.586 F3000  ; Travel
M3 S1000
G4 P100  ; Wait for pen
G1 F1500
G1 X67.930 Y119.609
G1 X70.391 Y125.234
M5

; Path 246/328
G1 X85.508 Y126.289 F3000  ; Travel
M3 S1000
G4 P100  ; Wait for pen
G1 F1500
G1 X86.914 Y125.234
G1 X90.781 Y124.883
G1 X85.859 Y125.938
M5

; Path 247/328
G1 X123.125 Y126.641 F3000  ; Travel
M3 S1000
G4 P100  ; Wait for pen
G1 F1500
G1 X124.180 Y124.531
G1 X123.125 Y126.289
M5

; Path 248/328
G1 X98.516 Y126.641 F3000  ; Travel
M3 S1000
G4 P100  ; Wait for pen
G1 F1500
G1 X96.758 Y125.938
G1 X98.867 Y125.938
G1 X98.867 Y126.641
M5

; Path 249/328
G1 X116.094 Y126.992 F3000  ; Travel
M3 S1000
G4 P100  ; Wait for pen
G1 F1500
G1 X115.742 Y125.586
G1 X116.445 Y124.883
G1 X116.094 Y126.641
M5

; Path 250/328
G1 X61.953 Y127.695 F3000  ; Travel
M3 S1000
G4 P100  ; Wait for pen
G1 F1500
G1 X60.195 Y122.070
G1 X61.953 Y127.344
M5

; Path 251/328
G1 X60.898 Y130.156 F3000  ; Travel
M3 S1000
G4 P100  ; Wait for pen
G1 F1500
G1 X56.328 Y120.664
G1 X56.680 Y114.688
G1 X57.031 Y120.664
G1 X59.844 Y125.234
G1 X59.141 Y125.938
G1 X60.898 Y127.695
G1 X60.195 Y128.047
G1 X60.898 Y129.805
M5

; Path 252/328
G1 X126.289 Y130.508 F3000  ; Travel
M3 S1000
G4 P100  ; Wait for pen
G1 F1500
G1 X128.750 Y127.344
G1 X126.641 Y130.156
M5

; Path 253/328
G1 X68.633 Y130.508 F3000  ; Travel
M3 S1000
G4 P100  ; Wait for pen
G1 F1500
G1 X68.984 Y125.938
G1 X68.633 Y130.156
M5

; Path 254/328
G1 X118.203 Y130.859 F3000  ; Travel
M3 S1000
G4 P100  ; Wait for pen
G1 F1500
G1 X118.203 Y127.344
G1 X118.906 Y129.805
G1 X118.203 Y130.508
M5

; Path 255/328
G1 X109.766 Y130.859 F3000  ; Travel
M3 S1000
G4 P100  ; Wait for pen
G1 F1500
G1 X108.711 Y129.453
G1 X110.117 Y130.859
M5

; Path 256/328
G1 X115.391 Y132.266 F3000  ; Travel
M3 S1000
G4 P100  ; Wait for pen
G1 F1500
G1 X115.742 Y130.859
G1 X114.336 Y126.289
G1 X112.930 Y126.992
G1 X112.930 Y131.211
G1 X108.359 Y128.398
G1 X109.766 Y128.047
G1 X112.227 Y130.508
G1 X112.930 Y130.156
G1 X110.820 Y128.047
G1 X113.281 Y125.586
G1 X113.984 Y121.719
G1 X114.336 Y123.477
G1 X115.039 Y123.477
G1 X114.688 Y120.664
G1 X116.094 Y119.609
G1 X116.445 Y118.203
G1 X115.391 Y115.391
G1 X116.797 Y116.094
G1 X116.445 Y115.039
G1 X117.500 Y114.688
G1 X118.906 Y111.523
G1 X118.203 Y110.469
G1 X117.852 Y111.523
G1 X117.500 Y110.820
G1 X119.258 Y109.414
G1 X118.203 Y110.117
G1 X118.906 Y111.875
G1 X119.961 Y112.227
G1 X119.961 Y111.523
G1 X120.664 Y112.930
G1 X122.773 Y112.930
G1 X119.258 Y115.391
G1 X118.555 Y117.852
G1 X118.555 Y114.688
G1 X119.609 Y112.930
G1 X118.906 Y112.578
G1 X117.500 Y114.336
G1 X117.852 Y119.961
G1 X117.500 Y121.016
G1 X117.148 Y119.961
G1 X116.094 Y121.016
G1 X116.797 Y122.070
G1 X116.445 Y124.180
G1 X116.797 Y122.070
G1 X116.094 Y122.070
G1 X115.742 Y119.961
G1 X115.039 Y120.664
G1 X115.391 Y123.125
G1 X115.039 Y125.234
G1 X114.336 Y125.234
G1 X115.391 Y128.047
G1 X115.391 Y131.914
M5

; Path 257/328
G1 X115.039 Y132.969 F3000  ; Travel
M3 S1000
G4 P100  ; Wait for pen
G1 F1500
G1 X113.633 Y132.266
G1 X114.336 Y130.859
G1 X114.688 Y132.617
M5

; Path 258/328
G1 X113.281 Y134.727 F3000  ; Travel
M3 S1000
G4 P100  ; Wait for pen
G1 F1500
G1 X114.336 Y134.727
G1 X113.633 Y133.672
G1 X113.281 Y134.375
M5

; Path 259/328
G1 X112.578 Y136.133 F3000  ; Travel
M3 S1000
G4 P100  ; Wait for pen
G1 F1500
G1 X113.633 Y135.078
G1 X112.930 Y134.375
G1 X112.578 Y135.781
M5

; Path 260/328
G1 X112.578 Y138.945 F3000  ; Travel
M3 S1000
G4 P100  ; Wait for pen
G1 F1500
G1 X113.281 Y139.297
G1 X113.984 Y137.539
G1 X113.281 Y137.891
G1 X110.820 Y132.969
G1 X107.305 Y130.508
G1 X107.305 Y131.562
G1 X110.469 Y134.375
G1 X112.578 Y138.594
M5

; Path 261/328
G1 X70.391 Y139.297 F3000  ; Travel
M3 S1000
G4 P100  ; Wait for pen
G1 F1500
G1 X72.852 Y133.672
G1 X76.016 Y131.562
G1 X77.070 Y126.289
G1 X81.289 Y120.312
G1 X80.938 Y118.555
G1 X81.641 Y117.148
G1 X80.586 Y117.148
G1 X82.344 Y116.094
G1 X83.047 Y116.445
G1 X81.641 Y119.609
G1 X81.992 Y120.664
G1 X86.562 Y115.742
G1 X91.484 Y115.039
G1 X89.375 Y115.039
G1 X86.914 Y116.445
G1 X79.531 Y123.477
G1 X77.070 Y127.695
G1 X76.016 Y132.266
G1 X74.258 Y132.617
G1 X72.500 Y134.375
G1 X70.742 Y138.945
M5

; Path 262/328
G1 X74.258 Y139.648 F3000  ; Travel
M3 S1000
G4 P100  ; Wait for pen
G1 F1500
G1 X73.906 Y137.539
G1 X73.906 Y139.297
M5

; Path 263/328
G1 X109.766 Y140.703 F3000  ; Travel
M3 S1000
G4 P100  ; Wait for pen
G1 F1500
G1 X109.766 Y139.648
G1 X110.820 Y138.945
G1 X110.117 Y140.703
M5

; Path 264/328
G1 X122.070 Y141.758 F3000  ; Travel
M3 S1000
G4 P100  ; Wait for pen
G1 F1500
G1 X124.531 Y138.945
G1 X122.422 Y141.406
M5

; Path 265/328
G1 X81.992 Y141.758 F3000  ; Travel
M3 S1000
G4 P100  ; Wait for pen
G1 F1500
G1 X84.453 Y141.055
G1 X83.398 Y140.352
G1 X81.992 Y141.406
M5

; Path 266/328
G1 X113.281 Y142.109 F3000  ; Travel
M3 S1000
G4 P100  ; Wait for pen
G1 F1500
G1 X110.469 Y134.727
G1 X106.953 Y132.266
G1 X106.250 Y128.750
G1 X100.977 Y119.961
G1 X102.383 Y121.719
G1 X104.492 Y122.070
G1 X103.438 Y121.719
G1 X103.086 Y122.422
G1 X106.602 Y129.102
G1 X107.656 Y128.750
G1 X106.953 Y129.453
G1 X109.414 Y131.914
G1 X111.172 Y131.562
G1 X112.227 Y135.078
G1 X112.930 Y133.320
G1 X114.688 Y134.727
G1 X113.281 Y136.133
G1 X113.984 Y137.891
G1 X114.688 Y137.891
G1 X114.688 Y137.188
G1 X113.281 Y141.758
M5

; Path 267/328
G1 X98.516 Y142.109 F3000  ; Travel
M3 S1000
G4 P100  ; Wait for pen
G1 F1500
G1 X99.219 Y142.461
G1 X100.273 Y141.055
G1 X99.570 Y140.703
G1 X98.516 Y141.758
M5

; Path 268/328
G1 X108.359 Y142.461 F3000  ; Travel
M3 S1000
G4 P100  ; Wait for pen
G1 F1500
G1 X109.062 Y138.594
G1 X107.656 Y135.078
G1 X109.414 Y137.891
G1 X108.359 Y142.109
M5

; Path 269/328
G1 X85.508 Y142.461 F3000  ; Travel
M3 S1000
G4 P100  ; Wait for pen
G1 F1500
G1 X86.562 Y140.352
G1 X87.266 Y140.352
G1 X85.859 Y142.461
M5

; Path 270/328
G1 X83.398 Y142.461 F3000  ; Travel
M3 S1000
G4 P100  ; Wait for pen
G1 F1500
G1 X84.102 Y142.812
G1 X84.805 Y141.758
G1 X83.398 Y142.109
M5

; Path 271/328
G1 X99.570 Y142.812 F3000  ; Travel
M3 S1000
G4 P100  ; Wait for pen
G1 F1500
G1 X100.625 Y143.164
G1 X100.977 Y141.758
G1 X99.570 Y142.461
M5

; Path 272/328
G1 X61.602 Y143.516 F3000  ; Travel
M3 S1000
G4 P100  ; Wait for pen
G1 F1500
G1 X62.305 Y137.891
G1 X63.008 Y141.758
G1 X62.305 Y140.000
G1 X61.602 Y143.164
M5

; Path 273/328
G1 X81.992 Y143.867 F3000  ; Travel
M3 S1000
G4 P100  ; Wait for pen
G1 F1500
G1 X80.234 Y143.164
G1 X79.531 Y141.406
G1 X79.883 Y140.000
G1 X82.344 Y138.594
G1 X82.344 Y139.297
G1 X83.398 Y138.945
G1 X81.289 Y138.945
G1 X81.641 Y139.648
G1 X80.234 Y141.406
G1 X81.289 Y142.109
G1 X82.695 Y140.352
G1 X84.453 Y140.352
G1 X84.805 Y142.812
G1 X80.938 Y142.461
G1 X80.938 Y143.164
G1 X85.156 Y143.867
G1 X86.914 Y142.812
G1 X85.508 Y143.867
G1 X82.344 Y143.867
M5

; Path 274/328
G1 X110.117 Y144.219 F3000  ; Travel
M3 S1000
G4 P100  ; Wait for pen
G1 F1500
G1 X111.523 Y144.219
G1 X110.117 Y143.867
M5

; Path 275/328
G1 X100.273 Y144.570 F3000  ; Travel
M3 S1000
G4 P100  ; Wait for pen
G1 F1500
G1 X96.406 Y142.461
G1 X96.758 Y140.703
G1 X97.812 Y142.109
G1 X98.516 Y141.055
G1 X100.273 Y140.703
G1 X101.328 Y143.164
G1 X103.086 Y142.109
G1 X102.031 Y141.055
G1 X104.492 Y142.109
G1 X101.680 Y143.516
G1 X98.867 Y143.516
G1 X101.328 Y144.570
G1 X104.492 Y143.164
G1 X100.625 Y144.570
M5

; Path 276/328
G1 X76.719 Y144.570 F3000  ; Travel
M3 S1000
G4 P100  ; Wait for pen
G1 F1500
G1 X76.016 Y141.758
G1 X76.719 Y144.219
M5

; Path 277/328
G1 X59.141 Y145.273 F3000  ; Travel
M3 S1000
G4 P100  ; Wait for pen
G1 F1500
G1 X57.734 Y141.406
G1 X59.141 Y144.922
M5

; Path 278/328
G1 X74.961 Y146.328 F3000  ; Travel
M3 S1000
G4 P100  ; Wait for pen
G1 F1500
G1 X72.852 Y142.109
G1 X74.961 Y145.977
M5

; Path 279/328
G1 X103.789 Y146.680 F3000  ; Travel
M3 S1000
G4 P100  ; Wait for pen
G1 F1500
G1 X105.547 Y145.977
G1 X104.141 Y146.680
M5

; Path 280/328
G1 X100.977 Y146.680 F3000  ; Travel
M3 S1000
G4 P100  ; Wait for pen
G1 F1500
G1 X98.516 Y145.977
G1 X99.219 Y145.625
G1 X98.164 Y144.922
G1 X97.461 Y145.625
G1 X95.703 Y144.219
G1 X96.758 Y145.273
G1 X97.109 Y144.570
G1 X99.219 Y145.273
G1 X99.570 Y146.328
G1 X100.273 Y145.625
G1 X100.977 Y146.680
G1 X102.383 Y146.680
G1 X101.328 Y146.680
M5

; Path 281/328
G1 X73.555 Y147.383 F3000  ; Travel
M3 S1000
G4 P100  ; Wait for pen
G1 F1500
G1 X73.203 Y145.625
G1 X73.906 Y147.383
M5

; Path 282/328
G1 X119.609 Y147.734 F3000  ; Travel
M3 S1000
G4 P100  ; Wait for pen
G1 F1500
G1 X120.664 Y145.625
G1 X119.609 Y147.383
M5

; Path 283/328
G1 X108.008 Y148.086 F3000  ; Travel
M3 S1000
G4 P100  ; Wait for pen
G1 F1500
G1 X108.711 Y148.438
G1 X111.172 Y145.273
G1 X109.766 Y145.273
G1 X108.359 Y147.734
M5

; Path 284/328
G1 X65.117 Y148.086 F3000  ; Travel
M3 S1000
G4 P100  ; Wait for pen
G1 F1500
G1 X63.359 Y143.164
G1 X65.117 Y147.734
M5

; Path 285/328
G1 X64.062 Y148.789 F3000  ; Travel
M3 S1000
G4 P100  ; Wait for pen
G1 F1500
G1 X62.305 Y143.164
G1 X64.062 Y148.438
M5

; Path 286/328
G1 X83.047 Y149.141 F3000  ; Travel
M3 S1000
G4 P100  ; Wait for pen
G1 F1500
G1 X83.750 Y149.141
G1 X83.398 Y147.383
G1 X83.047 Y148.789
M5

; Path 287/328
G1 X77.773 Y149.141 F3000  ; Travel
M3 S1000
G4 P100  ; Wait for pen
G1 F1500
G1 X77.070 Y145.273
G1 X77.773 Y148.789
M5

; Path 288/328
G1 X112.578 Y150.195 F3000  ; Travel
M3 S1000
G4 P100  ; Wait for pen
G1 F1500
G1 X115.039 Y147.734
G1 X115.391 Y148.789
G1 X116.797 Y148.438
G1 X114.688 Y148.789
G1 X112.930 Y150.195
M5

; Path 289/328
G1 X115.391 Y151.250 F3000  ; Travel
M3 S1000
G4 P100  ; Wait for pen
G1 F1500
G1 X117.500 Y150.195
G1 X115.742 Y150.898
M5

; Path 290/328
G1 X75.664 Y151.602 F3000  ; Travel
M3 S1000
G4 P100  ; Wait for pen
G1 F1500
G1 X74.258 Y148.086
G1 X75.312 Y151.250
M5

; Path 291/328
G1 X76.719 Y151.953 F3000  ; Travel
M3 S1000
G4 P100  ; Wait for pen
G1 F1500
G1 X76.016 Y149.492
G1 X76.719 Y151.602
M5

; Path 292/328
G1 X81.992 Y152.656 F3000  ; Travel
M3 S1000
G4 P100  ; Wait for pen
G1 F1500
G1 X82.695 Y152.656
G1 X83.047 Y150.547
G1 X81.992 Y152.305
M5

; Path 293/328
G1 X74.609 Y152.656 F3000  ; Travel
M3 S1000
G4 P100  ; Wait for pen
G1 F1500
G1 X72.852 Y149.844
G1 X74.609 Y152.305
M5

; Path 294/328
G1 X113.281 Y154.062 F3000  ; Travel
M3 S1000
G4 P100  ; Wait for pen
G1 F1500
G1 X115.742 Y152.656
G1 X113.633 Y153.711
M5

; Path 295/328
G1 X117.852 Y154.414 F3000  ; Travel
M3 S1000
G4 P100  ; Wait for pen
G1 F1500
G1 X118.203 Y151.953
G1 X117.852 Y154.062
M5

; Path 296/328
G1 X82.695 Y155.820 F3000  ; Travel
M3 S1000
G4 P100  ; Wait for pen
G1 F1500
G1 X85.859 Y148.438
G1 X86.211 Y149.141
G1 X82.695 Y155.469
M5

; Path 297/328
G1 X109.414 Y156.172 F3000  ; Travel
M3 S1000
G4 P100  ; Wait for pen
G1 F1500
G1 X111.172 Y153.359
G1 X116.094 Y149.492
G1 X113.633 Y151.250
G1 X114.336 Y151.602
G1 X113.281 Y151.250
G1 X109.766 Y155.820
M5

; Path 298/328
G1 X113.281 Y157.227 F3000  ; Travel
M3 S1000
G4 P100  ; Wait for pen
G1 F1500
G1 X114.688 Y155.469
G1 X113.633 Y157.227
M5

; Path 299/328
G1 X78.477 Y158.633 F3000  ; Travel
M3 S1000
G4 P100  ; Wait for pen
G1 F1500
G1 X75.664 Y153.008
G1 X78.125 Y158.281
M5

; Path 300/328
G1 X77.070 Y158.984 F3000  ; Travel
M3 S1000
G4 P100  ; Wait for pen
G1 F1500
G1 X74.609 Y153.359
G1 X77.070 Y158.633
M5

; Path 301/328
G1 X112.227 Y160.039 F3000  ; Travel
M3 S1000
G4 P100  ; Wait for pen
G1 F1500
G1 X113.633 Y157.930
G1 X112.578 Y159.688
M5

; Path 302/328
G1 X106.602 Y160.039 F3000  ; Travel
M3 S1000
G4 P100  ; Wait for pen
G1 F1500
G1 X108.711 Y157.227
G1 X106.953 Y159.688
M5

; Path 303/328
G1 X75.664 Y160.039 F3000  ; Travel
M3 S1000
G4 P100  ; Wait for pen
G1 F1500
G1 X73.555 Y158.281
G1 X75.312 Y159.688
M5

; Path 304/328
G1 X87.969 Y160.742 F3000  ; Travel
M3 S1000
G4 P100  ; Wait for pen
G1 F1500
G1 X90.781 Y160.039
G1 X88.320 Y160.742
M5

; Path 305/328
G1 X80.938 Y161.797 F3000  ; Travel
M3 S1000
G4 P100  ; Wait for pen
G1 F1500
G1 X77.422 Y153.711
G1 X80.586 Y161.445
M5

; Path 306/328
G1 X87.617 Y163.555 F3000  ; Travel
M3 S1000
G4 P100  ; Wait for pen
G1 F1500
G1 X85.156 Y162.148
G1 X84.102 Y158.633
G1 X85.508 Y160.391
G1 X87.266 Y160.039
G1 X85.859 Y160.391
G1 X87.617 Y162.148
G1 X90.430 Y160.742
G1 X91.133 Y161.445
G1 X91.484 Y159.688
G1 X92.539 Y161.094
G1 X92.891 Y160.039
G1 X93.945 Y161.094
G1 X92.188 Y162.852
G1 X90.430 Y163.203
G1 X92.891 Y161.797
G1 X87.617 Y162.148
G1 X85.859 Y160.742
G1 X85.156 Y161.797
G1 X87.617 Y163.203
M5

; Path 307/328
G1 X92.539 Y163.906 F3000  ; Travel
M3 S1000
G4 P100  ; Wait for pen
G1 F1500
G1 X94.648 Y160.742
G1 X93.594 Y163.906
G1 X92.891 Y163.555
M5

; Path 308/328
G1 X106.953 Y164.609 F3000  ; Travel
M3 S1000
G4 P100  ; Wait for pen
G1 F1500
G1 X111.172 Y159.336
G1 X107.305 Y164.258
M5

; Path 309/328
G1 X98.516 Y164.609 F3000  ; Travel
M3 S1000
G4 P100  ; Wait for pen
G1 F1500
G1 X97.812 Y161.445
G1 X98.516 Y164.258
M5

; Path 310/328
G1 X85.156 Y164.609 F3000  ; Travel
M3 S1000
G4 P100  ; Wait for pen
G1 F1500
G1 X83.398 Y163.203
G1 X81.289 Y157.930
G1 X81.289 Y154.414
G1 X83.398 Y146.680
G1 X82.695 Y145.977
G1 X81.289 Y146.328
G1 X81.992 Y145.977
G1 X81.641 Y145.273
G1 X78.125 Y145.977
G1 X85.156 Y145.273
G1 X85.156 Y147.383
G1 X84.453 Y145.273
G1 X83.398 Y145.977
G1 X83.750 Y149.844
G1 X84.453 Y149.844
G1 X85.156 Y148.086
G1 X82.344 Y153.711
G1 X81.641 Y153.008
G1 X81.289 Y157.930
G1 X81.992 Y159.336
G1 X82.344 Y158.281
G1 X83.047 Y161.094
G1 X85.508 Y164.609
M5

; Path 311/328
G1 X91.133 Y165.312 F3000  ; Travel
M3 S1000
G4 P100  ; Wait for pen
G1 F1500
G1 X88.320 Y163.906
G1 X89.023 Y163.555
G1 X89.023 Y164.258
G1 X91.484 Y165.312
M5

; Path 312/328
G1 X92.891 Y165.664 F3000  ; Travel
M3 S1000
G4 P100  ; Wait for pen
G1 F1500
G1 X95.703 Y164.609
G1 X96.055 Y160.391
G1 X96.758 Y163.906
G1 X93.242 Y165.664
M5

; Path 313/328
G1 X111.875 Y166.016 F3000  ; Travel
M3 S1000
G4 P100  ; Wait for pen
G1 F1500
G1 X116.094 Y160.742
G1 X112.227 Y165.664
M5

; Path 314/328
G1 X110.469 Y166.719 F3000  ; Travel
M3 S1000
G4 P100  ; Wait for pen
G1 F1500
G1 X111.523 Y164.961
G1 X110.820 Y166.367
M5

; Path 315/328
G1 X105.547 Y166.719 F3000  ; Travel
M3 S1000
G4 P100  ; Wait for pen
G1 F1500
G1 X108.008 Y165.312
G1 X105.898 Y166.367
M5

; Path 316/328
G1 X74.961 Y168.125 F3000  ; Travel
M3 S1000
G4 P100  ; Wait for pen
G1 F1500
G1 X71.094 Y165.312
G1 X74.609 Y167.773
M5

; Path 317/328
G1 X101.328 Y168.477 F3000  ; Travel
M3 S1000
G4 P100  ; Wait for pen
G1 F1500
G1 X100.625 Y168.125
G1 X100.977 Y162.148
G1 X102.031 Y162.148
G1 X102.031 Y160.039
G1 X101.328 Y160.039
G1 X101.328 Y161.445
G1 X101.328 Y160.039
G1 X103.789 Y158.984
G1 X105.547 Y156.875
G1 X106.250 Y153.711
G1 X106.953 Y153.711
G1 X106.602 Y152.305
G1 X108.008 Y149.141
G1 X107.305 Y148.438
G1 X108.008 Y143.164
G1 X108.359 Y143.867
G1 X109.414 Y141.406
G1 X107.656 Y146.328
G1 X108.008 Y147.734
G1 X110.117 Y143.164
G1 X112.227 Y142.109
G1 X110.469 Y143.516
G1 X113.281 Y143.164
G1 X113.281 Y143.867
G1 X112.578 Y143.516
G1 X110.820 Y144.922
G1 X111.875 Y145.273
G1 X114.688 Y144.219
G1 X113.633 Y144.922
G1 X114.688 Y145.977
G1 X113.281 Y145.625
G1 X109.414 Y148.086
G1 X106.953 Y153.008
G1 X106.250 Y158.281
G1 X108.008 Y153.008
G1 X111.172 Y150.195
G1 X111.523 Y148.086
G1 X114.336 Y146.680
G1 X113.984 Y148.086
G1 X112.227 Y148.438
G1 X109.414 Y151.953
G1 X106.250 Y158.984
G1 X105.898 Y157.930
G1 X105.195 Y160.039
G1 X103.086 Y162.148
G1 X104.844 Y160.391
G1 X105.195 Y157.227
G1 X102.031 Y161.445
G1 X101.680 Y162.852
G1 X102.734 Y163.203
G1 X101.680 Y163.906
G1 X101.680 Y165.312
G1 X105.195 Y162.148
G1 X100.625 Y166.367
G1 X101.680 Y168.125
G1 X103.438 Y167.773
G1 X101.680 Y168.477
M5

; Path 318/328
G1 X85.156 Y168.828 F3000  ; Travel
M3 S1000
G4 P100  ; Wait for pen
G1 F1500
G1 X78.828 Y165.312
G1 X78.828 Y164.609
G1 X78.125 Y164.961
G1 X76.367 Y163.906
G1 X77.773 Y163.906
G1 X79.531 Y165.312
G1 X80.586 Y164.609
G1 X76.016 Y160.742
G1 X78.125 Y162.148
G1 X78.477 Y161.445
G1 X77.422 Y160.039
G1 X82.344 Y166.719
G1 X85.156 Y168.477
M5

; Path 319/328
G1 X92.891 Y171.289 F3000  ; Travel
M3 S1000
G4 P100  ; Wait for pen
G1 F1500
G1 X95.703 Y170.938
G1 X98.516 Y168.828
G1 X95.000 Y171.289
G1 X93.242 Y171.289
M5

; Path 320/328
G1 X97.461 Y173.750 F3000  ; Travel
M3 S1000
G4 P100  ; Wait for pen
G1 F1500
G1 X98.516 Y171.992
G1 X97.812 Y171.289
G1 X99.570 Y169.180
G1 X100.625 Y168.828
G1 X102.031 Y169.883
G1 X100.273 Y169.180
G1 X100.625 Y171.641
G1 X102.383 Y171.641
G1 X100.273 Y172.695
G1 X99.570 Y170.586
G1 X97.812 Y173.398
M5

; Path 321/328
G1 X106.250 Y174.102 F3000  ; Travel
M3 S1000
G4 P100  ; Wait for pen
G1 F1500
G1 X109.414 Y169.883
G1 X106.602 Y173.750
M5

; Path 322/328
G1 X80.234 Y174.805 F3000  ; Travel
M3 S1000
G4 P100  ; Wait for pen
G1 F1500
G1 X72.148 Y170.586
G1 X70.391 Y168.828
G1 X70.742 Y167.773
G1 X66.172 Y163.203
G1 X64.766 Y159.336
G1 X68.633 Y165.664
G1 X72.852 Y170.586
G1 X80.586 Y174.805
M5

; Path 323/328
G1 X98.867 Y176.914 F3000  ; Travel
M3 S1000
G4 P100  ; Wait for pen
G1 F1500
G1 X99.570 Y173.750
G1 X101.328 Y173.398
G1 X99.219 Y174.805
G1 X99.570 Y175.508
G1 X103.438 Y173.750
G1 X101.328 Y174.453
G1 X99.219 Y176.562
M5

; Path 324/328
G1 X102.031 Y177.617 F3000  ; Travel
M3 S1000
G4 P100  ; Wait for pen
G1 F1500
G1 X103.789 Y176.914
G1 X102.383 Y177.617
M5

; Path 325/328
G1 X98.516 Y177.969 F3000  ; Travel
M3 S1000
G4 P100  ; Wait for pen
G1 F1500
G1 X100.273 Y176.914
G1 X98.867 Y177.617
M5

; Path 326/328
G1 X90.430 Y180.078 F3000  ; Travel
M3 S1000
G4 P100  ; Wait for pen
G1 F1500
G1 X92.188 Y179.727
G1 X90.781 Y180.078
M5

; Path 327/328
G1 X92.891 Y180.781 F3000  ; Travel
M3 S1000
G4 P100  ; Wait for pen
G1 F1500
G1 X95.703 Y179.375
G1 X93.242 Y180.781
M5

; Path 328/328
G1 X91.836 Y181.133 F3000  ; Travel
M3 S1000
G4 P100  ; Wait for pen
G1 F1500
G1 X84.453 Y179.727
G1 X79.180 Y177.266
G1 X70.039 Y169.883
G1 X69.336 Y170.234
G1 X70.039 Y169.883
G1 X69.688 Y169.180
G1 X68.281 Y168.828
G1 X66.875 Y166.719
G1 X62.656 Y156.875
G1 X61.953 Y150.898
G1 X60.195 Y145.977
G1 X59.844 Y141.055
G1 X60.195 Y141.758
G1 X61.953 Y133.672
G1 X61.250 Y130.859
G1 X62.305 Y131.562
G1 X61.602 Y129.453
G1 X62.656 Y131.562
G1 X63.711 Y139.648
G1 X63.008 Y133.672
G1 X61.953 Y132.266
G1 X60.195 Y142.812
G1 X61.250 Y146.328
G1 X60.898 Y147.734
G1 X64.766 Y154.766
G1 X62.305 Y150.195
G1 X61.953 Y151.953
G1 X64.062 Y157.578
G1 X63.008 Y155.469
G1 X62.656 Y156.875
G1 X66.523 Y166.016
G1 X68.281 Y168.477
G1 X69.336 Y168.125
G1 X67.227 Y164.961
G1 X69.336 Y167.773
G1 X68.984 Y168.477
G1 X74.609 Y173.750
G1 X80.586 Y176.211
G1 X79.180 Y175.859
G1 X79.531 Y177.266
G1 X83.047 Y179.023
G1 X85.156 Y179.023
G1 X84.453 Y179.727
G1 X92.188 Y181.133
M5

; Done - pen up and return to start position
M5
G1 X5.000 Y185.000 F3000  ; Paper advance
