; GCode generated by img2gcode
; Image: 512x512px  →  180.0x180.0mm
; Paths: 290
; Draw feedrate: 1500 mm/min
; Travel feedrate: 3000 mm/min

G21         ; Unit: millimeters
G90         ; Absolute coordinates
G1 F3000  ; Travel speed
M5  ; Pen up (initialization)

G1 X5.000 Y5.000  ; Start position

; Path 1/290
G1 X99.922 Y6.055 F3000  ; Travel
M3 S1000
G4 P100  ; Wait for pen
G1 F1500
G1 X99.922 Y5.352
G1 X102.031 Y5.352
G1 X100.273 Y6.055
M5

; Path 2/290
G1 X90.078 Y6.055 F3000  ; Travel
M3 S1000
G4 P100  ; Wait for pen
G1 F1500
G1 X90.430 Y5.352
G1 X92.188 Y5.352
G1 X90.430 Y5.703
M5

; Path 3/290
G1 X85.859 Y6.055 F3000  ; Travel
M3 S1000
G4 P100  ; Wait for pen
G1 F1500
G1 X85.859 Y5.352
G1 X87.969 Y5.352
G1 X86.211 Y5.703
M5

; Path 4/290
G1 X111.523 Y6.406 F3000  ; Travel
M3 S1000
G4 P100  ; Wait for pen
G1 F1500
G1 X112.578 Y5.352
G1 X111.875 Y6.055
M5

; Path 5/290
G1 X73.203 Y8.164 F3000  ; Travel
M3 S1000
G4 P100  ; Wait for pen
G1 F1500
G1 X76.016 Y6.406
G1 X75.664 Y7.109
G1 X76.719 Y7.812
G1 X74.961 Y7.109
G1 X73.555 Y7.812
M5

; Path 6/290
G1 X94.297 Y8.516 F3000  ; Travel
M3 S1000
G4 P100  ; Wait for pen
G1 F1500
G1 X96.758 Y7.109
G1 X97.812 Y7.461
G1 X94.648 Y8.516
M5

; Path 7/290
G1 X71.445 Y10.625 F3000  ; Travel
M3 S1000
G4 P100  ; Wait for pen
G1 F1500
G1 X68.633 Y8.516
G1 X70.742 Y9.922
G1 X73.203 Y8.867
G1 X71.094 Y9.922
G1 X71.797 Y10.625
M5

; Path 8/290
G1 X70.391 Y11.680 F3000  ; Travel
M3 S1000
G4 P100  ; Wait for pen
G1 F1500
G1 X69.336 Y10.625
G1 X68.633 Y10.977
G1 X69.688 Y10.625
G1 X70.391 Y11.328
M5

; Path 9/290
G1 X60.898 Y13.086 F3000  ; Travel
M3 S1000
G4 P100  ; Wait for pen
G1 F1500
G1 X62.656 Y13.086
G1 X61.250 Y12.734
M5

; Path 10/290
G1 X121.016 Y13.789 F3000  ; Travel
M3 S1000
G4 P100  ; Wait for pen
G1 F1500
G1 X122.422 Y12.383
G1 X121.367 Y13.438
M5

; Path 11/290
G1 X53.516 Y14.492 F3000  ; Travel
M3 S1000
G4 P100  ; Wait for pen
G1 F1500
G1 X54.922 Y14.141
G1 X53.164 Y13.789
G1 X53.164 Y14.492
M5

; Path 12/290
G1 X49.648 Y15.547 F3000  ; Travel
M3 S1000
G4 P100  ; Wait for pen
G1 F1500
G1 X51.758 Y15.195
G1 X50.000 Y15.195
M5

; Path 13/290
G1 X118.555 Y15.898 F3000  ; Travel
M3 S1000
G4 P100  ; Wait for pen
G1 F1500
G1 X118.555 Y10.273
G1 X121.719 Y7.109
G1 X121.367 Y8.516
G1 X119.961 Y9.219
G1 X118.555 Y15.547
M5

; Path 14/290
G1 X51.758 Y15.898 F3000  ; Travel
M3 S1000
G4 P100  ; Wait for pen
G1 F1500
G1 X53.516 Y16.250
G1 X54.922 Y15.195
G1 X52.109 Y15.547
M5

; Path 15/290
G1 X52.812 Y16.602 F3000  ; Travel
M3 S1000
G4 P100  ; Wait for pen
G1 F1500
G1 X55.977 Y16.602
G1 X55.273 Y15.898
G1 X53.164 Y16.250
M5

; Path 16/290
G1 X103.086 Y17.305 F3000  ; Travel
M3 S1000
G4 P100  ; Wait for pen
G1 F1500
G1 X105.898 Y15.195
G1 X103.438 Y16.953
M5

; Path 17/290
G1 X72.852 Y18.008 F3000  ; Travel
M3 S1000
G4 P100  ; Wait for pen
G1 F1500
G1 X73.906 Y16.250
G1 X70.742 Y12.734
G1 X74.258 Y15.195
G1 X73.203 Y18.008
M5

; Path 18/290
G1 X53.516 Y18.359 F3000  ; Travel
M3 S1000
G4 P100  ; Wait for pen
G1 F1500
G1 X54.219 Y18.359
G1 X53.516 Y17.305
G1 X51.055 Y17.656
G1 X53.164 Y18.359
M5

; Path 19/290
G1 X48.242 Y18.359 F3000  ; Travel
M3 S1000
G4 P100  ; Wait for pen
G1 F1500
G1 X51.406 Y18.008
G1 X48.594 Y18.008
M5

; Path 20/290
G1 X118.203 Y19.414 F3000  ; Travel
M3 S1000
G4 P100  ; Wait for pen
G1 F1500
G1 X118.906 Y17.656
G1 X118.555 Y19.414
M5

; Path 21/290
G1 X43.672 Y19.766 F3000  ; Travel
M3 S1000
G4 P100  ; Wait for pen
G1 F1500
G1 X44.375 Y20.117
G1 X46.133 Y18.359
G1 X45.430 Y18.008
G1 X43.672 Y19.414
M5

; Path 22/290
G1 X76.367 Y20.469 F3000  ; Travel
M3 S1000
G4 P100  ; Wait for pen
G1 F1500
G1 X78.125 Y18.008
G1 X76.719 Y20.117
M5

; Path 23/290
G1 X63.359 Y20.469 F3000  ; Travel
M3 S1000
G4 P100  ; Wait for pen
G1 F1500
G1 X65.117 Y20.469
G1 X64.414 Y16.953
G1 X61.250 Y14.141
G1 X59.141 Y13.438
G1 X58.789 Y12.031
G1 X58.438 Y12.734
G1 X56.680 Y12.383
G1 X56.680 Y13.086
G1 X54.922 Y13.438
G1 X56.680 Y13.789
G1 X54.922 Y14.141
G1 X55.625 Y14.844
G1 X57.031 Y14.492
G1 X57.031 Y15.898
G1 X58.438 Y15.547
G1 X59.141 Y16.250
G1 X57.734 Y15.547
G1 X57.383 Y16.250
G1 X59.141 Y17.656
G1 X60.547 Y17.305
G1 X59.844 Y18.359
G1 X60.547 Y19.062
G1 X61.250 Y18.359
G1 X61.953 Y19.062
G1 X61.250 Y19.766
G1 X63.008 Y20.469
M5

; Path 24/290
G1 X106.953 Y20.820 F3000  ; Travel
M3 S1000
G4 P100  ; Wait for pen
G1 F1500
G1 X108.359 Y19.062
G1 X108.359 Y20.117
G1 X107.305 Y20.469
M5

; Path 25/290
G1 X99.922 Y20.820 F3000  ; Travel
M3 S1000
G4 P100  ; Wait for pen
G1 F1500
G1 X99.922 Y14.141
G1 X100.977 Y14.844
G1 X102.031 Y13.086
G1 X104.492 Y12.031
G1 X99.922 Y15.898
G1 X100.273 Y20.820
M5

; Path 26/290
G1 X134.023 Y21.172 F3000  ; Travel
M3 S1000
G4 P100  ; Wait for pen
G1 F1500
G1 X136.133 Y15.898
G1 X134.023 Y20.820
M5

; Path 27/290
G1 X67.578 Y21.875 F3000  ; Travel
M3 S1000
G4 P100  ; Wait for pen
G1 F1500
G1 X68.633 Y21.875
G1 X67.930 Y17.656
G1 X66.172 Y13.086
G1 X65.820 Y13.789
G1 X65.820 Y10.977
G1 X64.414 Y10.625
G1 X64.062 Y12.031
G1 X65.117 Y12.383
G1 X64.414 Y13.789
G1 X65.469 Y15.547
G1 X64.062 Y13.789
G1 X63.359 Y14.492
G1 X65.117 Y18.008
G1 X65.469 Y16.250
G1 X67.227 Y21.875
M5

; Path 28/290
G1 X113.281 Y22.578 F3000  ; Travel
M3 S1000
G4 P100  ; Wait for pen
G1 F1500
G1 X115.039 Y22.578
G1 X113.633 Y22.227
M5

; Path 29/290
G1 X67.227 Y22.578 F3000  ; Travel
M3 S1000
G4 P100  ; Wait for pen
G1 F1500
G1 X68.984 Y22.578
G1 X67.578 Y22.227
M5

; Path 30/290
G1 X79.883 Y23.281 F3000  ; Travel
M3 S1000
G4 P100  ; Wait for pen
G1 F1500
G1 X79.883 Y21.172
G1 X78.477 Y18.711
G1 X78.828 Y16.602
G1 X77.422 Y14.844
G1 X78.477 Y14.492
G1 X78.125 Y10.625
G1 X77.070 Y10.625
G1 X78.125 Y9.922
G1 X76.719 Y9.570
G1 X74.258 Y12.031
G1 X75.312 Y12.734
G1 X74.258 Y12.031
G1 X73.203 Y12.734
G1 X73.906 Y12.031
G1 X72.500 Y10.977
G1 X73.906 Y12.031
G1 X77.773 Y8.164
G1 X76.719 Y6.758
G1 X77.422 Y5.352
G1 X79.180 Y5.352
G1 X79.180 Y6.758
G1 X80.586 Y5.352
G1 X83.047 Y5.352
G1 X78.477 Y7.461
G1 X79.531 Y8.164
G1 X83.047 Y7.461
G1 X81.992 Y7.812
G1 X83.047 Y8.867
G1 X84.805 Y8.516
G1 X84.805 Y9.570
G1 X90.430 Y14.492
G1 X99.922 Y8.867
G1 X100.273 Y12.734
G1 X98.516 Y9.922
G1 X91.836 Y14.492
G1 X92.891 Y18.008
G1 X92.188 Y18.008
G1 X92.188 Y20.117
G1 X94.297 Y18.711
G1 X92.891 Y20.117
G1 X92.891 Y22.930
G1 X91.836 Y20.117
G1 X91.484 Y20.820
G1 X91.836 Y17.305
G1 X90.430 Y15.195
G1 X89.023 Y16.250
G1 X90.078 Y14.492
G1 X87.617 Y12.031
G1 X85.859 Y11.680
G1 X86.562 Y11.328
G1 X85.508 Y10.625
G1 X83.750 Y10.977
G1 X84.805 Y9.922
G1 X82.695 Y10.273
G1 X83.750 Y9.570
G1 X82.344 Y8.164
G1 X80.938 Y8.164
G1 X79.883 Y9.219
G1 X84.102 Y11.680
G1 X83.047 Y12.383
G1 X84.805 Y13.789
G1 X83.047 Y12.383
G1 X81.289 Y13.086
G1 X80.586 Y12.734
G1 X82.344 Y11.328
G1 X78.828 Y9.219
G1 X78.125 Y10.625
G1 X78.477 Y14.141
G1 X80.938 Y13.789
G1 X78.828 Y14.492
G1 X79.531 Y15.195
G1 X78.828 Y16.250
G1 X80.234 Y23.281
M5

; Path 31/290
G1 X115.039 Y23.633 F3000  ; Travel
M3 S1000
G4 P100  ; Wait for pen
G1 F1500
G1 X116.094 Y23.633
G1 X116.797 Y22.578
G1 X115.742 Y21.523
G1 X113.984 Y21.523
G1 X113.984 Y22.227
G1 X115.391 Y22.227
G1 X115.039 Y23.281
M5

; Path 32/290
G1 X71.797 Y23.984 F3000  ; Travel
M3 S1000
G4 P100  ; Wait for pen
G1 F1500
G1 X75.312 Y21.875
G1 X72.148 Y23.633
M5

; Path 33/290
G1 X114.688 Y24.336 F3000  ; Travel
M3 S1000
G4 P100  ; Wait for pen
G1 F1500
G1 X112.578 Y23.984
G1 X113.281 Y23.633
G1 X111.875 Y22.578
G1 X112.930 Y20.469
G1 X115.039 Y20.117
G1 X117.148 Y21.875
G1 X117.148 Y23.281
G1 X115.039 Y24.336
M5

; Path 34/290
G1 X99.922 Y24.688 F3000  ; Travel
M3 S1000
G4 P100  ; Wait for pen
G1 F1500
G1 X99.922 Y23.633
G1 X100.625 Y24.336
G1 X102.734 Y23.633
G1 X100.273 Y24.336
M5

; Path 35/290
G1 X85.156 Y26.445 F3000  ; Travel
M3 S1000
G4 P100  ; Wait for pen
G1 F1500
G1 X86.211 Y25.391
G1 X85.156 Y23.633
G1 X87.266 Y26.445
G1 X86.211 Y25.391
G1 X85.508 Y26.094
M5

; Path 36/290
G1 X72.500 Y26.797 F3000  ; Travel
M3 S1000
G4 P100  ; Wait for pen
G1 F1500
G1 X73.555 Y26.445
G1 X72.852 Y25.742
G1 X72.500 Y26.445
M5

; Path 37/290
G1 X69.336 Y27.148 F3000  ; Travel
M3 S1000
G4 P100  ; Wait for pen
G1 F1500
G1 X65.820 Y26.094
G1 X58.438 Y26.094
G1 X66.523 Y25.742
G1 X69.336 Y26.797
M5

; Path 38/290
G1 X53.867 Y28.203 F3000  ; Travel
M3 S1000
G4 P100  ; Wait for pen
G1 F1500
G1 X55.625 Y25.039
G1 X56.328 Y25.039
G1 X54.219 Y28.203
M5

; Path 39/290
G1 X144.922 Y28.555 F3000  ; Travel
M3 S1000
G4 P100  ; Wait for pen
G1 F1500
G1 X145.977 Y28.555
G1 X140.703 Y26.445
G1 X136.484 Y26.797
G1 X134.375 Y27.852
G1 X135.781 Y28.555
G1 X137.891 Y27.500
G1 X141.406 Y27.500
G1 X144.570 Y28.555
M5

; Path 40/290
G1 X140.703 Y28.906 F3000  ; Travel
M3 S1000
G4 P100  ; Wait for pen
G1 F1500
G1 X141.758 Y28.906
G1 X141.055 Y28.203
G1 X140.352 Y28.906
M5

; Path 41/290
G1 X141.406 Y29.258 F3000  ; Travel
M3 S1000
G4 P100  ; Wait for pen
G1 F1500
G1 X145.977 Y29.258
G1 X144.219 Y28.555
G1 X141.758 Y28.906
M5

; Path 42/290
G1 X74.961 Y29.258 F3000  ; Travel
M3 S1000
G4 P100  ; Wait for pen
G1 F1500
G1 X73.906 Y27.852
G1 X74.961 Y28.203
G1 X74.609 Y28.906
M5

; Path 43/290
G1 X130.859 Y30.312 F3000  ; Travel
M3 S1000
G4 P100  ; Wait for pen
G1 F1500
G1 X137.539 Y28.906
G1 X134.023 Y28.906
G1 X134.727 Y28.555
G1 X133.672 Y28.203
G1 X130.859 Y29.961
M5

; Path 44/290
G1 X129.102 Y31.016 F3000  ; Travel
M3 S1000
G4 P100  ; Wait for pen
G1 F1500
G1 X130.508 Y31.016
G1 X130.859 Y29.961
G1 X129.102 Y30.664
M5

; Path 45/290
G1 X87.617 Y31.367 F3000  ; Travel
M3 S1000
G4 P100  ; Wait for pen
G1 F1500
G1 X89.375 Y29.609
G1 X87.969 Y31.016
M5

; Path 46/290
G1 X138.945 Y31.719 F3000  ; Travel
M3 S1000
G4 P100  ; Wait for pen
G1 F1500
G1 X141.055 Y30.664
G1 X139.297 Y31.719
M5

; Path 47/290
G1 X119.961 Y32.070 F3000  ; Travel
M3 S1000
G4 P100  ; Wait for pen
G1 F1500
G1 X122.773 Y30.664
G1 X120.312 Y30.664
G1 X119.961 Y31.719
M5

; Path 48/290
G1 X115.391 Y32.070 F3000  ; Travel
M3 S1000
G4 P100  ; Wait for pen
G1 F1500
G1 X118.203 Y31.367
G1 X115.742 Y31.719
M5

; Path 49/290
G1 X78.477 Y32.070 F3000  ; Travel
M3 S1000
G4 P100  ; Wait for pen
G1 F1500
G1 X78.125 Y28.203
G1 X79.180 Y27.852
G1 X78.477 Y31.719
M5

; Path 50/290
G1 X109.766 Y33.125 F3000  ; Travel
M3 S1000
G4 P100  ; Wait for pen
G1 F1500
G1 X110.820 Y32.773
G1 X110.117 Y31.016
G1 X109.414 Y31.719
G1 X109.766 Y32.773
M5

; Path 51/290
G1 X93.945 Y33.125 F3000  ; Travel
M3 S1000
G4 P100  ; Wait for pen
G1 F1500
G1 X93.945 Y32.070
G1 X92.891 Y32.070
G1 X92.539 Y27.148
G1 X91.836 Y27.148
G1 X91.836 Y25.742
G1 X88.672 Y22.227
G1 X90.078 Y22.930
G1 X91.133 Y21.523
G1 X90.078 Y23.281
G1 X92.539 Y26.445
G1 X92.891 Y24.688
G1 X93.242 Y26.445
G1 X95.703 Y25.391
G1 X92.891 Y27.148
G1 X93.945 Y32.773
M5

; Path 52/290
G1 X53.164 Y33.125 F3000  ; Travel
M3 S1000
G4 P100  ; Wait for pen
G1 F1500
G1 X53.867 Y28.906
G1 X53.164 Y32.773
M5

; Path 53/290
G1 X35.938 Y33.477 F3000  ; Travel
M3 S1000
G4 P100  ; Wait for pen
G1 F1500
G1 X37.344 Y33.125
G1 X36.992 Y30.664
G1 X35.938 Y33.125
M5

; Path 54/290
G1 X66.523 Y34.531 F3000  ; Travel
M3 S1000
G4 P100  ; Wait for pen
G1 F1500
G1 X68.984 Y34.531
G1 X66.875 Y34.180
M5

; Path 55/290
G1 X89.023 Y34.883 F3000  ; Travel
M3 S1000
G4 P100  ; Wait for pen
G1 F1500
G1 X91.484 Y33.477
G1 X89.375 Y34.883
M5

; Path 56/290
G1 X121.016 Y35.234 F3000  ; Travel
M3 S1000
G4 P100  ; Wait for pen
G1 F1500
G1 X122.422 Y34.531
G1 X121.016 Y34.883
M5

; Path 57/290
G1 X60.547 Y35.234 F3000  ; Travel
M3 S1000
G4 P100  ; Wait for pen
G1 F1500
G1 X63.711 Y35.234
G1 X60.898 Y35.234
M5

; Path 58/290
G1 X40.508 Y35.586 F3000  ; Travel
M3 S1000
G4 P100  ; Wait for pen
G1 F1500
G1 X39.805 Y34.883
G1 X40.508 Y34.531
G1 X39.805 Y32.070
G1 X44.023 Y30.664
G1 X40.156 Y32.422
G1 X40.508 Y35.234
M5

; Path 59/290
G1 X144.570 Y35.938 F3000  ; Travel
M3 S1000
G4 P100  ; Wait for pen
G1 F1500
G1 X148.438 Y34.180
G1 X144.922 Y35.938
M5

; Path 60/290
G1 X112.930 Y36.289 F3000  ; Travel
M3 S1000
G4 P100  ; Wait for pen
G1 F1500
G1 X116.094 Y34.883
G1 X115.391 Y35.234
G1 X116.094 Y35.586
G1 X115.039 Y35.234
G1 X113.281 Y36.289
M5

; Path 61/290
G1 X53.164 Y36.992 F3000  ; Travel
M3 S1000
G4 P100  ; Wait for pen
G1 F1500
G1 X52.461 Y35.234
G1 X51.055 Y35.234
G1 X53.164 Y34.883
G1 X53.164 Y36.641
M5

; Path 62/290
G1 X84.453 Y38.398 F3000  ; Travel
M3 S1000
G4 P100  ; Wait for pen
G1 F1500
G1 X87.969 Y35.234
G1 X87.266 Y35.938
G1 X87.969 Y36.992
G1 X86.562 Y36.289
G1 X84.805 Y38.047
M5

; Path 63/290
G1 X77.773 Y38.398 F3000  ; Travel
M3 S1000
G4 P100  ; Wait for pen
G1 F1500
G1 X78.828 Y37.695
G1 X78.125 Y36.289
G1 X77.422 Y36.992
G1 X77.773 Y38.047
M5

; Path 64/290
G1 X126.289 Y38.750 F3000  ; Travel
M3 S1000
G4 P100  ; Wait for pen
G1 F1500
G1 X128.047 Y38.750
G1 X126.641 Y38.398
M5

; Path 65/290
G1 X53.516 Y39.453 F3000  ; Travel
M3 S1000
G4 P100  ; Wait for pen
G1 F1500
G1 X53.164 Y37.695
G1 X53.516 Y39.102
M5

; Path 66/290
G1 X133.672 Y40.508 F3000  ; Travel
M3 S1000
G4 P100  ; Wait for pen
G1 F1500
G1 X135.430 Y40.156
G1 X135.781 Y39.102
G1 X134.727 Y38.750
G1 X133.672 Y40.156
M5

; Path 67/290
G1 X145.977 Y40.859 F3000  ; Travel
M3 S1000
G4 P100  ; Wait for pen
G1 F1500
G1 X147.734 Y40.156
G1 X146.328 Y40.859
M5

; Path 68/290
G1 X123.828 Y40.859 F3000  ; Travel
M3 S1000
G4 P100  ; Wait for pen
G1 F1500
G1 X125.586 Y41.211
G1 X126.641 Y40.508
G1 X124.180 Y40.508
M5

; Path 69/290
G1 X155.117 Y41.914 F3000  ; Travel
M3 S1000
G4 P100  ; Wait for pen
G1 F1500
G1 X156.172 Y41.914
G1 X155.469 Y40.859
G1 X154.766 Y41.562
M5

; Path 70/290
G1 X146.680 Y42.266 F3000  ; Travel
M3 S1000
G4 P100  ; Wait for pen
G1 F1500
G1 X150.195 Y41.211
G1 X149.844 Y41.914
G1 X147.031 Y42.266
M5

; Path 71/290
G1 X89.727 Y42.266 F3000  ; Travel
M3 S1000
G4 P100  ; Wait for pen
G1 F1500
G1 X89.727 Y40.508
G1 X86.914 Y39.805
G1 X88.672 Y38.398
G1 X90.078 Y40.156
G1 X89.727 Y41.914
M5

; Path 72/290
G1 X137.539 Y43.320 F3000  ; Travel
M3 S1000
G4 P100  ; Wait for pen
G1 F1500
G1 X141.055 Y42.617
G1 X137.891 Y43.320
M5

; Path 73/290
G1 X114.688 Y43.672 F3000  ; Travel
M3 S1000
G4 P100  ; Wait for pen
G1 F1500
G1 X114.336 Y40.859
G1 X116.094 Y40.156
G1 X115.391 Y39.453
G1 X117.148 Y38.398
G1 X116.797 Y37.695
G1 X116.094 Y38.398
G1 X119.258 Y33.828
G1 X118.906 Y32.773
G1 X116.797 Y33.477
G1 X119.609 Y32.070
G1 X118.906 Y31.016
G1 X119.609 Y30.664
G1 X120.312 Y20.820
G1 X119.609 Y20.469
G1 X120.312 Y19.414
G1 X119.609 Y19.062
G1 X120.312 Y18.008
G1 X121.367 Y20.820
G1 X120.664 Y21.172
G1 X121.016 Y24.336
G1 X121.719 Y22.930
G1 X120.664 Y26.094
G1 X121.719 Y26.094
G1 X121.367 Y27.148
G1 X122.773 Y28.203
G1 X121.016 Y26.797
G1 X120.312 Y30.664
G1 X126.289 Y27.148
G1 X129.102 Y26.797
G1 X128.750 Y27.500
G1 X130.156 Y27.852
G1 X129.805 Y27.148
G1 X131.914 Y25.039
G1 X133.320 Y21.523
G1 X132.266 Y27.852
G1 X134.023 Y27.500
G1 X134.023 Y26.445
G1 X137.539 Y26.094
G1 X144.219 Y26.797
G1 X147.734 Y28.203
G1 X147.031 Y28.555
G1 X149.141 Y29.961
G1 X149.844 Y29.609
G1 X149.141 Y28.906
G1 X150.195 Y29.609
G1 X149.492 Y29.961
G1 X152.305 Y31.719
G1 X155.117 Y37.695
G1 X154.414 Y36.289
G1 X153.711 Y36.992
G1 X154.414 Y35.938
G1 X153.711 Y34.883
G1 X151.953 Y36.289
G1 X153.359 Y34.180
G1 X147.031 Y29.961
G1 X145.273 Y29.609
G1 X142.812 Y30.664
G1 X142.461 Y29.609
G1 X139.648 Y28.906
G1 X139.297 Y29.961
G1 X138.945 Y29.258
G1 X136.484 Y29.258
G1 X131.211 Y31.016
G1 X130.859 Y33.828
G1 X130.508 Y31.016
G1 X127.695 Y32.773
G1 X123.477 Y33.828
G1 X120.664 Y36.992
G1 X119.609 Y36.992
G1 X119.961 Y38.047
G1 X118.555 Y40.508
G1 X119.258 Y38.750
G1 X118.203 Y38.750
G1 X117.500 Y42.266
G1 X117.852 Y38.398
G1 X116.797 Y38.750
G1 X115.039 Y42.266
G1 X116.094 Y43.672
G1 X115.039 Y42.617
G1 X114.688 Y43.320
M5

; Path 74/290
G1 X72.148 Y43.672 F3000  ; Travel
M3 S1000
G4 P100  ; Wait for pen
G1 F1500
G1 X73.906 Y44.023
G1 X77.773 Y42.266
G1 X77.070 Y41.562
G1 X74.609 Y41.562
G1 X72.148 Y43.320
M5

; Path 75/290
G1 X54.219 Y43.672 F3000  ; Travel
M3 S1000
G4 P100  ; Wait for pen
G1 F1500
G1 X54.922 Y44.023
G1 X56.328 Y42.617
G1 X54.922 Y40.859
G1 X54.570 Y34.531
G1 X52.812 Y33.828
G1 X54.570 Y33.828
G1 X55.273 Y28.555
G1 X57.734 Y24.336
G1 X59.844 Y23.281
G1 X63.359 Y22.930
G1 X58.438 Y24.688
G1 X57.031 Y26.445
G1 X55.625 Y30.312
G1 X55.273 Y34.883
G1 X68.281 Y33.828
G1 X72.500 Y34.883
G1 X75.664 Y37.344
G1 X76.367 Y36.992
G1 X76.719 Y35.586
G1 X70.039 Y30.664
G1 X67.578 Y29.961
G1 X58.438 Y29.961
G1 X57.734 Y30.664
G1 X57.734 Y29.961
G1 X67.930 Y29.609
G1 X71.094 Y30.664
G1 X74.961 Y33.477
G1 X75.312 Y32.422
G1 X72.852 Y29.961
G1 X73.203 Y29.258
G1 X72.148 Y29.258
G1 X72.852 Y28.906
G1 X71.797 Y27.852
G1 X70.391 Y28.906
G1 X70.039 Y27.500
G1 X71.445 Y28.203
G1 X71.797 Y27.500
G1 X69.336 Y25.039
G1 X67.930 Y25.391
G1 X68.633 Y24.336
G1 X65.117 Y22.578
G1 X55.977 Y20.469
G1 X51.758 Y22.930
G1 X52.812 Y23.281
G1 X55.625 Y22.227
G1 X52.109 Y23.984
G1 X52.812 Y24.336
G1 X50.703 Y23.984
G1 X48.594 Y26.445
G1 X50.000 Y27.148
G1 X48.594 Y26.797
G1 X47.891 Y27.852
G1 X47.188 Y36.289
G1 X48.242 Y38.750
G1 X52.812 Y43.320
G1 X55.273 Y42.617
G1 X54.219 Y43.320
M5

; Path 76/290
G1 X134.023 Y44.375 F3000  ; Travel
M3 S1000
G4 P100  ; Wait for pen
G1 F1500
G1 X136.836 Y43.672
G1 X134.375 Y44.375
M5

; Path 77/290
G1 X36.641 Y44.727 F3000  ; Travel
M3 S1000
G4 P100  ; Wait for pen
G1 F1500
G1 X37.344 Y44.727
G1 X37.695 Y42.617
G1 X39.805 Y44.375
G1 X42.617 Y44.727
G1 X39.805 Y41.211
G1 X38.750 Y41.914
G1 X39.805 Y40.859
G1 X39.102 Y40.156
G1 X39.805 Y39.453
G1 X38.750 Y38.750
G1 X37.344 Y33.477
G1 X36.289 Y34.180
G1 X36.992 Y36.289
G1 X36.289 Y36.641
G1 X37.344 Y38.047
G1 X36.641 Y44.375
M5

; Path 78/290
G1 X117.148 Y45.078 F3000  ; Travel
M3 S1000
G4 P100  ; Wait for pen
G1 F1500
G1 X116.445 Y44.375
G1 X117.500 Y45.078
M5

; Path 79/290
G1 X58.438 Y45.078 F3000  ; Travel
M3 S1000
G4 P100  ; Wait for pen
G1 F1500
G1 X65.469 Y45.430
G1 X68.984 Y44.727
G1 X74.258 Y40.859
G1 X68.984 Y40.156
G1 X70.039 Y40.156
G1 X70.039 Y39.453
G1 X67.930 Y39.453
G1 X66.875 Y40.508
G1 X66.523 Y39.453
G1 X58.086 Y42.266
G1 X64.062 Y39.102
G1 X71.094 Y39.102
G1 X73.906 Y40.508
G1 X74.961 Y39.805
G1 X75.664 Y40.859
G1 X77.070 Y40.508
G1 X77.773 Y39.102
G1 X72.852 Y35.938
G1 X66.172 Y34.883
G1 X66.172 Y34.180
G1 X60.195 Y34.531
G1 X59.492 Y35.234
G1 X55.625 Y34.883
G1 X54.922 Y36.289
G1 X55.625 Y36.641
G1 X55.977 Y39.453
G1 X55.273 Y39.805
G1 X56.328 Y40.508
G1 X55.977 Y41.562
G1 X56.680 Y41.562
G1 X55.977 Y42.266
G1 X57.383 Y42.266
G1 X57.031 Y43.320
G1 X58.438 Y43.320
G1 X59.492 Y44.375
G1 X56.680 Y42.969
G1 X54.922 Y44.023
G1 X58.086 Y45.078
M5

; Path 80/290
G1 X46.836 Y45.078 F3000  ; Travel
M3 S1000
G4 P100  ; Wait for pen
G1 F1500
G1 X49.297 Y45.430
G1 X52.812 Y43.672
G1 X51.406 Y42.617
G1 X48.242 Y44.023
G1 X48.242 Y43.320
G1 X46.133 Y43.672
G1 X48.945 Y43.320
G1 X50.703 Y41.914
G1 X48.945 Y40.156
G1 X47.891 Y40.508
G1 X48.594 Y40.859
G1 X43.320 Y42.266
G1 X46.836 Y41.211
G1 X46.836 Y40.508
G1 X48.594 Y39.805
G1 X47.539 Y38.047
G1 X42.266 Y39.453
G1 X47.188 Y36.992
G1 X46.484 Y35.586
G1 X41.562 Y39.102
G1 X46.484 Y34.883
G1 X46.484 Y33.828
G1 X45.430 Y33.477
G1 X46.484 Y32.422
G1 X46.484 Y29.258
G1 X48.594 Y25.039
G1 X46.484 Y25.391
G1 X48.594 Y24.336
G1 X47.891 Y23.281
G1 X49.648 Y24.336
G1 X50.703 Y21.875
G1 X52.812 Y20.469
G1 X52.109 Y19.766
G1 X54.922 Y19.766
G1 X53.164 Y18.711
G1 X49.297 Y18.711
G1 X46.836 Y19.766
G1 X44.023 Y22.930
G1 X43.320 Y22.930
G1 X44.023 Y21.875
G1 X43.320 Y21.523
G1 X40.156 Y25.742
G1 X40.156 Y26.797
G1 X39.805 Y26.094
G1 X39.102 Y26.797
G1 X39.805 Y28.555
G1 X39.102 Y27.852
G1 X38.750 Y29.961
G1 X38.398 Y28.555
G1 X37.695 Y29.609
G1 X37.344 Y32.422
G1 X38.047 Y32.773
G1 X38.398 Y32.070
G1 X39.102 Y32.773
G1 X38.398 Y33.477
G1 X39.805 Y39.102
G1 X43.320 Y43.672
G1 X43.672 Y42.969
G1 X43.672 Y44.375
G1 X47.188 Y44.727
M5

; Path 81/290
G1 X42.969 Y45.430 F3000  ; Travel
M3 S1000
G4 P100  ; Wait for pen
G1 F1500
G1 X43.672 Y45.781
G1 X44.023 Y45.078
G1 X42.617 Y44.023
G1 X42.969 Y45.078
M5

; Path 82/290
G1 X93.594 Y46.484 F3000  ; Travel
M3 S1000
G4 P100  ; Wait for pen
G1 F1500
G1 X93.945 Y44.023
G1 X92.539 Y44.023
G1 X93.945 Y43.320
G1 X93.945 Y39.453
G1 X92.891 Y39.102
G1 X93.594 Y38.047
G1 X92.539 Y36.641
G1 X93.242 Y36.641
G1 X93.242 Y35.234
G1 X93.242 Y36.992
G1 X93.945 Y36.992
G1 X93.945 Y34.883
G1 X93.945 Y37.344
G1 X95.352 Y39.102
G1 X94.648 Y38.398
G1 X93.945 Y39.453
G1 X93.945 Y46.484
M5

; Path 83/290
G1 X136.484 Y46.836 F3000  ; Travel
M3 S1000
G4 P100  ; Wait for pen
G1 F1500
G1 X140.352 Y45.781
G1 X136.836 Y46.836
M5

; Path 84/290
G1 X78.828 Y46.836 F3000  ; Travel
M3 S1000
G4 P100  ; Wait for pen
G1 F1500
G1 X80.938 Y44.727
G1 X80.234 Y42.969
G1 X78.828 Y43.672
G1 X78.828 Y46.484
M5

; Path 85/290
G1 X65.820 Y46.836 F3000  ; Travel
M3 S1000
G4 P100  ; Wait for pen
G1 F1500
G1 X67.930 Y46.836
G1 X69.688 Y45.430
G1 X65.469 Y45.781
G1 X65.820 Y46.484
M5

; Path 86/290
G1 X50.703 Y46.836 F3000  ; Travel
M3 S1000
G4 P100  ; Wait for pen
G1 F1500
G1 X55.625 Y46.484
G1 X55.977 Y45.430
G1 X52.461 Y44.375
G1 X51.758 Y45.430
G1 X50.352 Y45.078
G1 X48.242 Y46.133
G1 X50.352 Y46.836
M5

; Path 87/290
G1 X61.602 Y48.242 F3000  ; Travel
M3 S1000
G4 P100  ; Wait for pen
G1 F1500
G1 X64.062 Y48.242
G1 X64.414 Y47.539
G1 X62.305 Y47.188
G1 X61.953 Y47.891
M5

; Path 88/290
G1 X122.070 Y48.594 F3000  ; Travel
M3 S1000
G4 P100  ; Wait for pen
G1 F1500
G1 X124.180 Y48.242
G1 X125.586 Y46.836
G1 X124.180 Y46.484
G1 X126.289 Y46.133
G1 X132.266 Y40.859
G1 X131.211 Y40.156
G1 X130.508 Y41.211
G1 X129.102 Y41.211
G1 X129.102 Y40.508
G1 X131.562 Y39.805
G1 X129.805 Y39.453
G1 X130.859 Y39.453
G1 X130.859 Y38.750
G1 X127.695 Y39.453
G1 X126.641 Y40.508
G1 X128.047 Y41.211
G1 X124.180 Y41.211
G1 X121.016 Y45.781
G1 X124.531 Y45.078
G1 X124.531 Y45.781
G1 X121.016 Y46.133
G1 X121.016 Y46.836
G1 X123.125 Y46.484
G1 X120.312 Y47.188
G1 X120.664 Y48.242
G1 X122.070 Y48.242
M5

; Path 89/290
G1 X109.766 Y48.594 F3000  ; Travel
M3 S1000
G4 P100  ; Wait for pen
G1 F1500
G1 X107.656 Y46.484
G1 X103.789 Y47.891
G1 X106.953 Y46.133
G1 X106.602 Y44.023
G1 X108.008 Y46.133
G1 X109.414 Y45.781
G1 X108.359 Y46.484
G1 X110.117 Y48.594
M5

; Path 90/290
G1 X80.938 Y48.945 F3000  ; Travel
M3 S1000
G4 P100  ; Wait for pen
G1 F1500
G1 X80.938 Y46.484
G1 X81.992 Y47.539
G1 X80.938 Y48.594
M5

; Path 91/290
G1 X74.961 Y48.945 F3000  ; Travel
M3 S1000
G4 P100  ; Wait for pen
G1 F1500
G1 X77.773 Y46.836
G1 X75.312 Y48.594
M5

; Path 92/290
G1 X70.391 Y49.648 F3000  ; Travel
M3 S1000
G4 P100  ; Wait for pen
G1 F1500
G1 X71.797 Y48.945
G1 X71.094 Y48.594
G1 X73.906 Y48.945
G1 X70.742 Y49.648
M5

; Path 93/290
G1 X156.523 Y50.000 F3000  ; Travel
M3 S1000
G4 P100  ; Wait for pen
G1 F1500
G1 X157.227 Y50.352
G1 X157.930 Y49.297
G1 X156.875 Y49.648
M5

; Path 94/290
G1 X94.297 Y50.352 F3000  ; Travel
M3 S1000
G4 P100  ; Wait for pen
G1 F1500
G1 X95.352 Y49.648
G1 X94.648 Y49.297
G1 X94.297 Y50.000
M5

; Path 95/290
G1 X109.766 Y50.703 F3000  ; Travel
M3 S1000
G4 P100  ; Wait for pen
G1 F1500
G1 X111.172 Y50.000
G1 X109.766 Y50.352
M5

; Path 96/290
G1 X124.883 Y51.055 F3000  ; Travel
M3 S1000
G4 P100  ; Wait for pen
G1 F1500
G1 X125.586 Y51.406
G1 X128.750 Y48.945
G1 X127.695 Y48.242
G1 X125.234 Y50.703
M5

; Path 97/290
G1 X116.797 Y51.758 F3000  ; Travel
M3 S1000
G4 P100  ; Wait for pen
G1 F1500
G1 X118.203 Y50.352
G1 X119.961 Y50.000
G1 X117.148 Y51.406
M5

; Path 98/290
G1 X105.195 Y51.758 F3000  ; Travel
M3 S1000
G4 P100  ; Wait for pen
G1 F1500
G1 X104.492 Y50.703
G1 X105.547 Y51.406
G1 X106.250 Y50.703
G1 X106.602 Y51.406
G1 X105.547 Y51.406
M5

; Path 99/290
G1 X98.867 Y52.812 F3000  ; Travel
M3 S1000
G4 P100  ; Wait for pen
G1 F1500
G1 X98.516 Y51.055
G1 X99.219 Y50.352
G1 X99.570 Y51.758
G1 X98.867 Y52.461
M5

; Path 100/290
G1 X118.203 Y53.516 F3000  ; Travel
M3 S1000
G4 P100  ; Wait for pen
G1 F1500
G1 X120.312 Y52.109
G1 X118.555 Y53.516
M5

; Path 101/290
G1 X140.703 Y54.922 F3000  ; Travel
M3 S1000
G4 P100  ; Wait for pen
G1 F1500
G1 X142.109 Y50.703
G1 X142.812 Y52.109
G1 X147.734 Y46.836
G1 X141.055 Y54.922
M5

; Path 102/290
G1 X68.984 Y55.625 F3000  ; Travel
M3 S1000
G4 P100  ; Wait for pen
G1 F1500
G1 X72.148 Y53.516
G1 X74.258 Y50.352
G1 X73.203 Y53.164
G1 X69.336 Y55.625
M5

; Path 103/290
G1 X59.492 Y57.734 F3000  ; Travel
M3 S1000
G4 P100  ; Wait for pen
G1 F1500
G1 X60.547 Y54.219
G1 X60.898 Y54.922
G1 X61.602 Y54.219
G1 X59.844 Y57.383
M5

; Path 104/290
G1 X147.031 Y58.789 F3000  ; Travel
M3 S1000
G4 P100  ; Wait for pen
G1 F1500
G1 X148.789 Y57.031
G1 X147.383 Y58.438
M5

; Path 105/290
G1 X74.961 Y59.492 F3000  ; Travel
M3 S1000
G4 P100  ; Wait for pen
G1 F1500
G1 X77.070 Y55.625
G1 X75.312 Y59.141
M5

; Path 106/290
G1 X107.305 Y59.844 F3000  ; Travel
M3 S1000
G4 P100  ; Wait for pen
G1 F1500
G1 X111.172 Y58.086
G1 X107.656 Y59.844
M5

; Path 107/290
G1 X81.641 Y59.844 F3000  ; Travel
M3 S1000
G4 P100  ; Wait for pen
G1 F1500
G1 X81.289 Y59.141
G1 X87.266 Y57.031
G1 X87.969 Y56.328
G1 X86.562 Y54.922
G1 X88.320 Y56.328
G1 X93.594 Y53.164
G1 X93.594 Y47.539
G1 X91.133 Y45.078
G1 X89.023 Y45.781
G1 X91.836 Y44.375
G1 X91.836 Y45.781
G1 X93.945 Y47.188
G1 X93.945 Y49.297
G1 X95.000 Y48.945
G1 X96.055 Y50.352
G1 X95.352 Y50.000
G1 X94.297 Y51.055
G1 X93.945 Y52.812
G1 X95.000 Y53.164
G1 X95.000 Y52.109
G1 X96.055 Y53.164
G1 X95.352 Y52.812
G1 X93.945 Y53.867
G1 X93.242 Y56.680
G1 X93.945 Y55.625
G1 X93.594 Y53.164
G1 X88.672 Y56.680
G1 X83.750 Y58.086
G1 X81.992 Y59.492
M5

; Path 108/290
G1 X63.008 Y60.547 F3000  ; Travel
M3 S1000
G4 P100  ; Wait for pen
G1 F1500
G1 X63.711 Y57.734
G1 X63.008 Y60.195
M5

; Path 109/290
G1 X67.578 Y60.898 F3000  ; Travel
M3 S1000
G4 P100  ; Wait for pen
G1 F1500
G1 X66.875 Y59.141
G1 X65.820 Y59.141
G1 X67.578 Y55.625
G1 X67.227 Y58.086
G1 X68.984 Y56.680
G1 X66.875 Y58.438
G1 X67.930 Y60.898
M5

; Path 110/290
G1 X40.156 Y61.602 F3000  ; Travel
M3 S1000
G4 P100  ; Wait for pen
G1 F1500
G1 X39.453 Y59.844
G1 X39.805 Y60.547
G1 X40.508 Y59.492
G1 X40.156 Y61.250
M5

; Path 111/290
G1 X140.703 Y62.305 F3000  ; Travel
M3 S1000
G4 P100  ; Wait for pen
G1 F1500
G1 X142.812 Y60.195
G1 X141.055 Y62.305
M5

; Path 112/290
G1 X109.062 Y63.008 F3000  ; Travel
M3 S1000
G4 P100  ; Wait for pen
G1 F1500
G1 X113.281 Y61.250
G1 X109.414 Y63.008
M5

; Path 113/290
G1 X78.828 Y64.062 F3000  ; Travel
M3 S1000
G4 P100  ; Wait for pen
G1 F1500
G1 X80.234 Y60.547
G1 X78.828 Y63.711
M5

; Path 114/290
G1 X139.297 Y64.766 F3000  ; Travel
M3 S1000
G4 P100  ; Wait for pen
G1 F1500
G1 X140.000 Y63.008
G1 X139.648 Y64.414
M5

; Path 115/290
G1 X142.109 Y65.117 F3000  ; Travel
M3 S1000
G4 P100  ; Wait for pen
G1 F1500
G1 X143.164 Y63.359
G1 X142.461 Y64.766
M5

; Path 116/290
G1 X70.391 Y65.469 F3000  ; Travel
M3 S1000
G4 P100  ; Wait for pen
G1 F1500
G1 X71.797 Y64.062
G1 X70.742 Y65.117
M5

; Path 117/290
G1 X139.648 Y66.172 F3000  ; Travel
M3 S1000
G4 P100  ; Wait for pen
G1 F1500
G1 X143.516 Y61.250
G1 X140.000 Y65.820
M5

; Path 118/290
G1 X131.211 Y66.172 F3000  ; Travel
M3 S1000
G4 P100  ; Wait for pen
G1 F1500
G1 X132.969 Y64.062
G1 X134.375 Y64.062
G1 X131.562 Y65.820
M5

; Path 119/290
G1 X109.062 Y67.930 F3000  ; Travel
M3 S1000
G4 P100  ; Wait for pen
G1 F1500
G1 X112.227 Y66.523
G1 X109.414 Y67.930
M5

; Path 120/290
G1 X68.633 Y67.930 F3000  ; Travel
M3 S1000
G4 P100  ; Wait for pen
G1 F1500
G1 X70.039 Y66.172
G1 X68.984 Y67.930
M5

; Path 121/290
G1 X59.141 Y67.930 F3000  ; Travel
M3 S1000
G4 P100  ; Wait for pen
G1 F1500
G1 X59.141 Y58.438
G1 X59.141 Y67.578
M5

; Path 122/290
G1 X103.438 Y70.039 F3000  ; Travel
M3 S1000
G4 P100  ; Wait for pen
G1 F1500
G1 X101.328 Y67.930
G1 X102.031 Y67.227
G1 X101.680 Y67.930
G1 X102.734 Y68.984
G1 X104.141 Y68.281
G1 X103.438 Y64.414
G1 X101.328 Y62.305
G1 X100.273 Y64.414
G1 X101.328 Y61.602
G1 X100.625 Y60.898
G1 X99.219 Y61.250
G1 X100.273 Y60.195
G1 X99.570 Y58.789
G1 X98.867 Y59.141
G1 X98.867 Y55.625
G1 X99.570 Y58.789
G1 X100.273 Y55.977
G1 X100.977 Y56.680
G1 X100.273 Y58.086
G1 X100.625 Y60.195
G1 X103.789 Y64.414
G1 X104.844 Y61.250
G1 X103.438 Y61.250
G1 X105.195 Y59.141
G1 X104.492 Y58.438
G1 X104.141 Y59.844
G1 X103.438 Y59.141
G1 X102.734 Y59.844
G1 X106.602 Y54.570
G1 X106.953 Y53.164
G1 X105.898 Y52.461
G1 X107.656 Y52.109
G1 X108.359 Y52.812
G1 X111.875 Y47.539
G1 X110.469 Y37.695
G1 X103.086 Y44.023
G1 X101.680 Y44.023
G1 X100.625 Y52.109
G1 X102.031 Y54.922
G1 X100.977 Y55.273
G1 X101.680 Y54.570
G1 X100.625 Y53.164
G1 X100.273 Y53.867
G1 X100.977 Y41.211
G1 X101.328 Y43.672
G1 X103.438 Y43.672
G1 X110.820 Y36.992
G1 X108.008 Y32.773
G1 X105.195 Y33.828
G1 X107.305 Y32.422
G1 X109.766 Y33.828
G1 X109.062 Y26.445
G1 X108.008 Y25.391
G1 X108.711 Y25.039
G1 X108.008 Y24.336
G1 X104.844 Y26.445
G1 X106.602 Y27.852
G1 X104.492 Y27.148
G1 X102.734 Y29.258
G1 X100.625 Y34.883
G1 X101.680 Y35.586
G1 X104.492 Y34.180
G1 X103.789 Y35.234
G1 X101.328 Y35.586
G1 X100.625 Y38.047
G1 X100.273 Y31.719
G1 X101.328 Y31.719
G1 X104.141 Y27.148
G1 X105.898 Y25.742
G1 X105.547 Y25.039
G1 X106.250 Y25.391
G1 X108.711 Y23.633
G1 X109.766 Y14.844
G1 X108.359 Y14.492
G1 X109.766 Y13.789
G1 X109.414 Y9.570
G1 X106.602 Y11.328
G1 X109.062 Y9.219
G1 X109.414 Y5.352
G1 X110.820 Y5.352
G1 X110.117 Y9.219
G1 X110.820 Y15.195
G1 X110.469 Y25.039
G1 X112.578 Y36.992
G1 X111.875 Y38.750
G1 X112.578 Y41.211
G1 X111.875 Y47.188
G1 X113.281 Y47.539
G1 X115.742 Y44.727
G1 X115.391 Y46.484
G1 X117.148 Y45.781
G1 X118.203 Y46.836
G1 X118.555 Y45.781
G1 X119.609 Y45.781
G1 X121.367 Y44.023
G1 X122.773 Y40.156
G1 X126.641 Y37.695
G1 X127.695 Y38.047
G1 X128.750 Y36.289
G1 X128.047 Y36.992
G1 X128.750 Y38.047
G1 X131.562 Y38.047
G1 X131.914 Y39.102
G1 X134.023 Y36.289
G1 X132.969 Y37.695
G1 X133.320 Y39.453
G1 X135.781 Y33.828
G1 X137.891 Y32.070
G1 X135.430 Y34.531
G1 X134.375 Y38.398
G1 X136.836 Y38.398
G1 X135.781 Y39.102
G1 X136.484 Y39.805
G1 X143.867 Y35.938
G1 X142.109 Y36.992
G1 X141.758 Y41.211
G1 X142.812 Y42.266
G1 X142.461 Y43.320
G1 X144.922 Y42.969
G1 X142.109 Y43.672
G1 X142.109 Y48.242
G1 X142.109 Y44.023
G1 X141.055 Y43.672
G1 X141.758 Y42.969
G1 X141.758 Y38.047
G1 X140.703 Y37.344
G1 X139.297 Y38.398
G1 X140.000 Y38.750
G1 X133.320 Y41.562
G1 X132.969 Y43.320
G1 X132.617 Y42.617
G1 X123.477 Y49.648
G1 X124.531 Y50.352
G1 X129.453 Y46.133
G1 X128.398 Y48.594
G1 X131.211 Y47.539
G1 X125.938 Y51.406
G1 X126.641 Y52.812
G1 X129.102 Y52.812
G1 X130.508 Y51.406
G1 X130.508 Y52.109
G1 X132.617 Y51.758
G1 X128.398 Y52.812
G1 X128.750 Y53.516
G1 X127.344 Y53.867
G1 X128.750 Y56.680
G1 X132.617 Y55.977
G1 X128.398 Y57.383
G1 X128.750 Y60.195
G1 X128.047 Y59.492
G1 X128.047 Y55.625
G1 X124.883 Y51.055
G1 X118.555 Y47.891
G1 X113.633 Y49.648
G1 X106.953 Y55.273
G1 X107.305 Y55.977
G1 X109.062 Y54.922
G1 X106.953 Y55.977
G1 X105.195 Y58.789
G1 X106.250 Y59.141
G1 X116.445 Y53.516
G1 X116.094 Y54.570
G1 X115.391 Y54.219
G1 X110.469 Y56.680
G1 X105.898 Y59.844
G1 X104.492 Y63.711
G1 X105.195 Y64.062
G1 X111.172 Y60.195
G1 X119.258 Y57.383
G1 X119.961 Y56.680
G1 X117.148 Y55.273
G1 X118.203 Y54.922
G1 X119.961 Y56.680
G1 X121.367 Y56.328
G1 X120.312 Y57.031
G1 X123.477 Y59.492
G1 X124.883 Y57.383
G1 X123.477 Y59.844
G1 X123.828 Y60.547
G1 X124.531 Y60.195
G1 X123.828 Y60.547
G1 X124.883 Y62.656
G1 X123.125 Y59.844
G1 X119.961 Y57.031
G1 X118.203 Y58.086
G1 X119.258 Y58.438
G1 X119.961 Y58.086
G1 X118.203 Y58.789
G1 X117.500 Y58.086
G1 X108.008 Y62.305
G1 X103.789 Y65.469
G1 X104.492 Y67.930
G1 X105.547 Y68.281
G1 X112.227 Y64.414
G1 X121.719 Y60.898
G1 X120.664 Y61.953
G1 X122.070 Y61.953
G1 X111.875 Y65.117
G1 X105.898 Y68.281
G1 X105.898 Y68.984
G1 X105.195 Y68.633
G1 X105.195 Y69.688
G1 X103.789 Y68.984
G1 X103.438 Y69.688
M5

; Path 123/290
G1 X132.969 Y70.391 F3000  ; Travel
M3 S1000
G4 P100  ; Wait for pen
G1 F1500
G1 X134.375 Y68.633
G1 X132.969 Y70.039
M5

; Path 124/290
G1 X99.922 Y70.742 F3000  ; Travel
M3 S1000
G4 P100  ; Wait for pen
G1 F1500
G1 X99.570 Y68.984
G1 X100.625 Y68.281
G1 X99.922 Y70.391
M5

; Path 125/290
G1 X78.125 Y70.742 F3000  ; Travel
M3 S1000
G4 P100  ; Wait for pen
G1 F1500
G1 X78.125 Y67.930
G1 X78.125 Y70.391
M5

; Path 126/290
G1 X42.617 Y70.742 F3000  ; Travel
M3 S1000
G4 P100  ; Wait for pen
G1 F1500
G1 X40.859 Y64.062
G1 X41.914 Y64.766
G1 X41.211 Y65.469
G1 X42.617 Y69.336
G1 X43.320 Y69.336
G1 X42.969 Y67.227
G1 X43.672 Y70.391
G1 X43.320 Y69.336
G1 X42.617 Y70.391
M5

; Path 127/290
G1 X137.539 Y71.445 F3000  ; Travel
M3 S1000
G4 P100  ; Wait for pen
G1 F1500
G1 X139.297 Y67.227
G1 X137.539 Y71.094
M5

; Path 128/290
G1 X134.375 Y71.445 F3000  ; Travel
M3 S1000
G4 P100  ; Wait for pen
G1 F1500
G1 X135.430 Y70.742
G1 X135.078 Y69.688
G1 X134.375 Y71.094
M5

; Path 129/290
G1 X110.469 Y72.148 F3000  ; Travel
M3 S1000
G4 P100  ; Wait for pen
G1 F1500
G1 X111.523 Y72.500
G1 X113.984 Y70.742
G1 X113.281 Y70.391
G1 X110.469 Y71.797
M5

; Path 130/290
G1 X136.133 Y73.203 F3000  ; Travel
M3 S1000
G4 P100  ; Wait for pen
G1 F1500
G1 X137.188 Y68.984
G1 X139.297 Y65.469
G1 X136.133 Y72.852
M5

; Path 131/290
G1 X99.922 Y73.555 F3000  ; Travel
M3 S1000
G4 P100  ; Wait for pen
G1 F1500
G1 X99.922 Y71.445
G1 X99.922 Y73.203
M5

; Path 132/290
G1 X78.477 Y74.258 F3000  ; Travel
M3 S1000
G4 P100  ; Wait for pen
G1 F1500
G1 X80.234 Y73.906
G1 X79.531 Y73.203
G1 X78.828 Y73.906
M5

; Path 133/290
G1 X80.234 Y74.609 F3000  ; Travel
M3 S1000
G4 P100  ; Wait for pen
G1 F1500
G1 X80.938 Y74.961
G1 X83.750 Y72.852
G1 X82.695 Y72.500
G1 X80.586 Y74.258
M5

; Path 134/290
G1 X70.742 Y74.609 F3000  ; Travel
M3 S1000
G4 P100  ; Wait for pen
G1 F1500
G1 X67.578 Y70.391
G1 X66.875 Y71.094
G1 X67.578 Y70.039
G1 X70.391 Y74.258
M5

; Path 135/290
G1 X60.547 Y74.961 F3000  ; Travel
M3 S1000
G4 P100  ; Wait for pen
G1 F1500
G1 X61.953 Y74.258
G1 X60.898 Y71.445
G1 X61.250 Y68.281
G1 X60.195 Y65.820
G1 X59.844 Y70.742
G1 X59.844 Y61.602
G1 X61.250 Y57.383
G1 X60.195 Y64.414
G1 X61.250 Y71.094
G1 X62.305 Y71.094
G1 X61.602 Y72.500
G1 X62.656 Y74.961
G1 X60.898 Y74.961
M5

; Path 136/290
G1 X99.570 Y75.312 F3000  ; Travel
M3 S1000
G4 P100  ; Wait for pen
G1 F1500
G1 X99.922 Y74.258
G1 X100.625 Y74.609
G1 X99.922 Y75.312
M5

; Path 137/290
G1 X76.719 Y75.312 F3000  ; Travel
M3 S1000
G4 P100  ; Wait for pen
G1 F1500
G1 X77.773 Y75.664
G1 X78.828 Y74.609
G1 X77.070 Y74.961
M5

; Path 138/290
G1 X110.820 Y75.664 F3000  ; Travel
M3 S1000
G4 P100  ; Wait for pen
G1 F1500
G1 X111.875 Y76.016
G1 X118.555 Y73.555
G1 X123.477 Y69.688
G1 X126.289 Y65.469
G1 X125.586 Y65.117
G1 X121.367 Y67.930
G1 X115.391 Y70.039
G1 X115.039 Y71.445
G1 X119.961 Y69.688
G1 X112.930 Y72.148
G1 X110.820 Y73.906
G1 X110.469 Y75.312
M5

; Path 139/290
G1 X79.883 Y76.367 F3000  ; Travel
M3 S1000
G4 P100  ; Wait for pen
G1 F1500
G1 X81.289 Y75.664
G1 X80.234 Y75.312
G1 X79.883 Y76.016
M5

; Path 140/290
G1 X43.672 Y76.367 F3000  ; Travel
M3 S1000
G4 P100  ; Wait for pen
G1 F1500
G1 X44.375 Y76.367
G1 X44.023 Y74.961
G1 X43.672 Y76.016
M5

; Path 141/290
G1 X78.828 Y77.070 F3000  ; Travel
M3 S1000
G4 P100  ; Wait for pen
G1 F1500
G1 X80.234 Y76.719
G1 X78.828 Y76.719
M5

; Path 142/290
G1 X55.273 Y77.773 F3000  ; Travel
M3 S1000
G4 P100  ; Wait for pen
G1 F1500
G1 X56.328 Y76.719
G1 X55.625 Y77.422
M5

; Path 143/290
G1 X132.617 Y78.125 F3000  ; Travel
M3 S1000
G4 P100  ; Wait for pen
G1 F1500
G1 X132.969 Y76.367
G1 X132.969 Y78.125
M5

; Path 144/290
G1 X72.500 Y78.477 F3000  ; Travel
M3 S1000
G4 P100  ; Wait for pen
G1 F1500
G1 X72.852 Y77.422
G1 X74.609 Y76.719
G1 X74.258 Y77.773
G1 X72.500 Y78.125
M5

; Path 145/290
G1 X74.258 Y80.586 F3000  ; Travel
M3 S1000
G4 P100  ; Wait for pen
G1 F1500
G1 X75.664 Y79.883
G1 X74.258 Y80.234
M5

; Path 146/290
G1 X129.453 Y80.938 F3000  ; Travel
M3 S1000
G4 P100  ; Wait for pen
G1 F1500
G1 X130.508 Y80.938
G1 X130.508 Y78.125
G1 X129.805 Y80.586
M5

; Path 147/290
G1 X66.875 Y81.641 F3000  ; Travel
M3 S1000
G4 P100  ; Wait for pen
G1 F1500
G1 X67.930 Y81.289
G1 X66.523 Y79.531
G1 X66.875 Y81.289
M5

; Path 148/290
G1 X63.359 Y81.641 F3000  ; Travel
M3 S1000
G4 P100  ; Wait for pen
G1 F1500
G1 X62.656 Y78.125
G1 X63.711 Y81.641
M5

; Path 149/290
G1 X45.430 Y81.641 F3000  ; Travel
M3 S1000
G4 P100  ; Wait for pen
G1 F1500
G1 X46.133 Y81.641
G1 X45.781 Y79.883
G1 X45.430 Y81.289
M5

; Path 150/290
G1 X61.953 Y82.695 F3000  ; Travel
M3 S1000
G4 P100  ; Wait for pen
G1 F1500
G1 X60.898 Y76.367
G1 X61.953 Y78.477
G1 X61.953 Y82.344
M5

; Path 151/290
G1 X82.695 Y83.047 F3000  ; Travel
M3 S1000
G4 P100  ; Wait for pen
G1 F1500
G1 X81.992 Y81.289
G1 X82.344 Y82.695
M5

; Path 152/290
G1 X98.867 Y83.398 F3000  ; Travel
M3 S1000
G4 P100  ; Wait for pen
G1 F1500
G1 X99.922 Y83.398
G1 X99.219 Y82.344
G1 X98.516 Y83.047
M5

; Path 153/290
G1 X63.359 Y83.750 F3000  ; Travel
M3 S1000
G4 P100  ; Wait for pen
G1 F1500
G1 X65.117 Y83.047
G1 X63.711 Y83.750
M5

; Path 154/290
G1 X67.578 Y84.102 F3000  ; Travel
M3 S1000
G4 P100  ; Wait for pen
G1 F1500
G1 X68.281 Y84.102
G1 X67.578 Y82.695
G1 X67.578 Y83.750
M5

; Path 155/290
G1 X52.461 Y84.805 F3000  ; Travel
M3 S1000
G4 P100  ; Wait for pen
G1 F1500
G1 X53.867 Y84.453
G1 X53.164 Y83.047
G1 X52.461 Y84.453
M5

; Path 156/290
G1 X68.281 Y85.859 F3000  ; Travel
M3 S1000
G4 P100  ; Wait for pen
G1 F1500
G1 X69.336 Y85.859
G1 X68.281 Y84.102
G1 X68.281 Y85.508
M5

; Path 157/290
G1 X52.109 Y86.562 F3000  ; Travel
M3 S1000
G4 P100  ; Wait for pen
G1 F1500
G1 X52.812 Y85.859
G1 X52.461 Y84.805
G1 X51.406 Y85.859
G1 X52.109 Y81.641
G1 X53.867 Y80.234
G1 X53.867 Y79.180
G1 X53.516 Y81.641
G1 X52.812 Y80.938
G1 X53.516 Y83.398
G1 X55.625 Y80.586
G1 X54.219 Y81.992
G1 X53.867 Y84.453
G1 X58.086 Y80.938
G1 X57.734 Y79.531
G1 X57.383 Y80.234
G1 X57.383 Y76.016
G1 X56.680 Y76.016
G1 X57.734 Y73.555
G1 X57.031 Y74.609
G1 X58.438 Y74.258
G1 X57.734 Y75.312
G1 X58.438 Y75.664
G1 X58.438 Y82.695
G1 X57.734 Y81.289
G1 X53.516 Y85.156
G1 X53.516 Y86.211
G1 X53.164 Y85.156
G1 X52.461 Y86.211
M5

; Path 158/290
G1 X59.844 Y86.914 F3000  ; Travel
M3 S1000
G4 P100  ; Wait for pen
G1 F1500
G1 X59.844 Y83.750
G1 X59.844 Y86.562
M5

; Path 159/290
G1 X109.766 Y87.266 F3000  ; Travel
M3 S1000
G4 P100  ; Wait for pen
G1 F1500
G1 X110.469 Y87.266
G1 X110.117 Y85.859
G1 X109.766 Y86.914
M5

; Path 160/290
G1 X46.133 Y87.969 F3000  ; Travel
M3 S1000
G4 P100  ; Wait for pen
G1 F1500
G1 X46.836 Y87.969
G1 X46.484 Y85.859
G1 X46.133 Y87.617
M5

; Path 161/290
G1 X64.062 Y88.672 F3000  ; Travel
M3 S1000
G4 P100  ; Wait for pen
G1 F1500
G1 X64.062 Y86.914
G1 X64.062 Y88.320
M5

; Path 162/290
G1 X47.188 Y88.672 F3000  ; Travel
M3 S1000
G4 P100  ; Wait for pen
G1 F1500
G1 X48.242 Y87.969
G1 X47.539 Y87.617
G1 X47.188 Y88.320
M5

; Path 163/290
G1 X85.156 Y89.023 F3000  ; Travel
M3 S1000
G4 P100  ; Wait for pen
G1 F1500
G1 X85.859 Y87.969
G1 X86.914 Y88.320
G1 X86.211 Y88.672
G1 X86.914 Y89.023
G1 X85.508 Y88.672
M5

; Path 164/290
G1 X53.867 Y89.023 F3000  ; Travel
M3 S1000
G4 P100  ; Wait for pen
G1 F1500
G1 X52.812 Y88.320
G1 X53.164 Y87.266
G1 X53.516 Y88.672
M5

; Path 165/290
G1 X147.383 Y89.375 F3000  ; Travel
M3 S1000
G4 P100  ; Wait for pen
G1 F1500
G1 X147.734 Y86.914
G1 X147.734 Y89.375
M5

; Path 166/290
G1 X45.781 Y89.727 F3000  ; Travel
M3 S1000
G4 P100  ; Wait for pen
G1 F1500
G1 X46.484 Y90.078
G1 X46.836 Y88.672
G1 X45.781 Y89.375
M5

; Path 167/290
G1 X72.148 Y90.078 F3000  ; Travel
M3 S1000
G4 P100  ; Wait for pen
G1 F1500
G1 X72.148 Y87.969
G1 X72.500 Y89.727
M5

; Path 168/290
G1 X42.617 Y90.078 F3000  ; Travel
M3 S1000
G4 P100  ; Wait for pen
G1 F1500
G1 X44.375 Y90.078
G1 X44.023 Y89.375
G1 X42.969 Y89.727
M5

; Path 169/290
G1 X118.203 Y91.133 F3000  ; Travel
M3 S1000
G4 P100  ; Wait for pen
G1 F1500
G1 X118.906 Y88.320
G1 X118.203 Y90.781
M5

; Path 170/290
G1 X139.648 Y91.836 F3000  ; Travel
M3 S1000
G4 P100  ; Wait for pen
G1 F1500
G1 X143.516 Y91.836
G1 X140.000 Y91.836
M5

; Path 171/290
G1 X46.133 Y91.836 F3000  ; Travel
M3 S1000
G4 P100  ; Wait for pen
G1 F1500
G1 X46.836 Y91.836
G1 X46.484 Y90.078
G1 X46.133 Y91.484
M5

; Path 172/290
G1 X129.805 Y92.188 F3000  ; Travel
M3 S1000
G4 P100  ; Wait for pen
G1 F1500
G1 X130.859 Y91.484
G1 X130.156 Y91.133
G1 X129.805 Y91.836
M5

; Path 173/290
G1 X85.508 Y92.188 F3000  ; Travel
M3 S1000
G4 P100  ; Wait for pen
G1 F1500
G1 X87.617 Y92.188
G1 X85.859 Y91.836
M5

; Path 174/290
G1 X125.938 Y93.242 F3000  ; Travel
M3 S1000
G4 P100  ; Wait for pen
G1 F1500
G1 X125.586 Y88.320
G1 X124.531 Y92.891
G1 X125.234 Y86.914
G1 X125.938 Y86.211
G1 X125.586 Y84.102
G1 X125.938 Y86.211
G1 X127.344 Y85.859
G1 X125.234 Y87.969
G1 X126.289 Y89.023
G1 X125.938 Y92.891
M5

; Path 175/290
G1 X108.359 Y93.242 F3000  ; Travel
M3 S1000
G4 P100  ; Wait for pen
G1 F1500
G1 X109.062 Y93.594
G1 X109.414 Y92.539
G1 X108.359 Y92.891
M5

; Path 176/290
G1 X46.836 Y93.242 F3000  ; Travel
M3 S1000
G4 P100  ; Wait for pen
G1 F1500
G1 X47.891 Y92.891
G1 X47.188 Y91.133
G1 X46.836 Y92.891
M5

; Path 177/290
G1 X130.508 Y93.594 F3000  ; Travel
M3 S1000
G4 P100  ; Wait for pen
G1 F1500
G1 X131.211 Y92.891
G1 X130.508 Y92.539
G1 X130.508 Y93.242
M5

; Path 178/290
G1 X125.586 Y95.703 F3000  ; Travel
M3 S1000
G4 P100  ; Wait for pen
G1 F1500
G1 X124.531 Y95.000
G1 X125.586 Y93.945
G1 X125.586 Y95.352
M5

; Path 179/290
G1 X42.969 Y96.406 F3000  ; Travel
M3 S1000
G4 P100  ; Wait for pen
G1 F1500
G1 X42.617 Y95.703
G1 X44.023 Y96.406
G1 X42.969 Y96.055
M5

; Path 180/290
G1 X47.539 Y96.758 F3000  ; Travel
M3 S1000
G4 P100  ; Wait for pen
G1 F1500
G1 X48.594 Y96.055
G1 X47.539 Y93.242
G1 X47.539 Y96.406
M5

; Path 181/290
G1 X108.008 Y97.461 F3000  ; Travel
M3 S1000
G4 P100  ; Wait for pen
G1 F1500
G1 X108.711 Y97.812
G1 X109.414 Y96.406
G1 X108.008 Y92.891
G1 X101.328 Y85.859
G1 X97.812 Y83.047
G1 X97.109 Y83.750
G1 X97.812 Y83.047
G1 X95.352 Y81.641
G1 X96.055 Y81.289
G1 X90.430 Y73.906
G1 X89.023 Y73.555
G1 X88.320 Y74.258
G1 X89.375 Y73.203
G1 X88.320 Y71.797
G1 X87.266 Y71.445
G1 X85.156 Y73.906
G1 X85.859 Y74.258
G1 X84.805 Y74.609
G1 X85.156 Y77.070
G1 X84.805 Y74.609
G1 X82.344 Y76.719
G1 X81.641 Y78.477
G1 X82.344 Y77.070
G1 X80.586 Y76.719
G1 X75.312 Y81.992
G1 X76.719 Y80.234
G1 X76.016 Y79.883
G1 X73.906 Y82.344
G1 X74.258 Y83.047
G1 X74.961 Y82.695
G1 X73.906 Y83.398
G1 X74.609 Y84.102
G1 X73.906 Y83.398
G1 X73.203 Y84.102
G1 X73.906 Y85.156
G1 X73.203 Y84.453
G1 X73.203 Y85.508
G1 X71.797 Y84.805
G1 X72.500 Y85.859
G1 X71.094 Y86.211
G1 X71.797 Y87.266
G1 X71.094 Y88.320
G1 X71.445 Y87.266
G1 X70.391 Y86.562
G1 X71.445 Y84.453
G1 X70.039 Y83.398
G1 X69.336 Y83.750
G1 X69.336 Y82.695
G1 X67.578 Y81.641
G1 X70.391 Y87.969
G1 X70.742 Y96.055
G1 X75.312 Y92.539
G1 X80.586 Y90.781
G1 X81.289 Y90.078
G1 X80.586 Y89.375
G1 X81.289 Y90.078
G1 X84.102 Y89.375
G1 X88.320 Y89.727
G1 X89.023 Y89.023
G1 X89.023 Y86.562
G1 X84.805 Y84.102
G1 X85.859 Y84.102
G1 X84.805 Y83.047
G1 X85.859 Y83.750
G1 X86.211 Y82.695
G1 X85.156 Y82.344
G1 X86.562 Y81.289
G1 X86.562 Y83.398
G1 X90.430 Y86.914
G1 X90.781 Y85.859
G1 X90.078 Y89.727
G1 X91.133 Y89.727
G1 X91.133 Y90.430
G1 X92.539 Y89.727
G1 X93.242 Y90.078
G1 X92.188 Y89.727
G1 X91.836 Y90.781
G1 X92.891 Y91.484
G1 X96.055 Y91.484
G1 X96.758 Y92.539
G1 X107.656 Y97.109
M5

; Path 182/290
G1 X53.164 Y97.461 F3000  ; Travel
M3 S1000
G4 P100  ; Wait for pen
G1 F1500
G1 X52.812 Y89.727
G1 X52.812 Y95.000
G1 X54.570 Y96.758
G1 X53.164 Y97.109
M5

; Path 183/290
G1 X144.570 Y97.812 F3000  ; Travel
M3 S1000
G4 P100  ; Wait for pen
G1 F1500
G1 X145.273 Y98.164
G1 X146.680 Y96.758
G1 X147.734 Y94.297
G1 X147.383 Y93.242
G1 X144.570 Y97.461
M5

; Path 184/290
G1 X134.375 Y98.164 F3000  ; Travel
M3 S1000
G4 P100  ; Wait for pen
G1 F1500
G1 X130.859 Y95.000
G1 X131.914 Y95.352
G1 X129.102 Y90.781
G1 X129.453 Y85.859
G1 X128.750 Y85.508
G1 X129.453 Y84.805
G1 X130.156 Y71.094
G1 X130.508 Y73.555
G1 X130.859 Y71.094
G1 X131.211 Y72.148
G1 X131.562 Y71.094
G1 X130.508 Y77.422
G1 X131.562 Y73.555
G1 X132.266 Y74.258
G1 X131.562 Y75.312
G1 X131.914 Y77.773
G1 X130.859 Y78.828
G1 X131.211 Y79.883
G1 X131.914 Y79.531
G1 X132.266 Y81.289
G1 X134.375 Y77.422
G1 X132.266 Y81.641
G1 X134.375 Y83.750
G1 X135.078 Y83.398
G1 X135.781 Y86.562
G1 X137.539 Y88.672
G1 X136.484 Y88.672
G1 X138.242 Y89.727
G1 X137.539 Y90.430
G1 X138.594 Y91.836
G1 X137.891 Y93.242
G1 X138.594 Y94.297
G1 X137.188 Y92.188
G1 X136.484 Y92.539
G1 X137.188 Y92.188
G1 X136.836 Y90.078
G1 X135.781 Y90.430
G1 X136.484 Y88.672
G1 X134.727 Y87.969
G1 X134.375 Y85.508
G1 X132.266 Y83.047
G1 X131.211 Y84.102
G1 X131.914 Y82.344
G1 X130.859 Y80.586
G1 X129.453 Y82.344
G1 X130.156 Y82.695
G1 X129.453 Y84.805
G1 X130.508 Y84.805
G1 X129.453 Y86.211
G1 X130.156 Y87.969
G1 X129.453 Y89.375
G1 X130.859 Y89.375
G1 X130.859 Y91.836
G1 X131.914 Y92.891
G1 X132.266 Y92.188
G1 X133.320 Y92.891
G1 X132.266 Y92.539
G1 X131.211 Y93.594
G1 X132.617 Y93.945
G1 X132.617 Y96.055
G1 X133.320 Y96.055
G1 X133.320 Y97.109
G1 X134.023 Y96.055
G1 X133.672 Y97.109
G1 X134.375 Y97.812
M5

; Path 185/290
G1 X124.883 Y98.867 F3000  ; Travel
M3 S1000
G4 P100  ; Wait for pen
G1 F1500
G1 X125.586 Y96.406
G1 X124.883 Y98.516
M5

; Path 186/290
G1 X52.812 Y98.867 F3000  ; Travel
M3 S1000
G4 P100  ; Wait for pen
G1 F1500
G1 X54.922 Y97.812
G1 X53.164 Y98.867
M5

; Path 187/290
G1 X145.625 Y99.922 F3000  ; Travel
M3 S1000
G4 P100  ; Wait for pen
G1 F1500
G1 X148.789 Y97.461
G1 X145.977 Y99.570
M5

; Path 188/290
G1 X47.891 Y100.625 F3000  ; Travel
M3 S1000
G4 P100  ; Wait for pen
G1 F1500
G1 X48.594 Y99.922
G1 X46.484 Y95.000
G1 X45.781 Y96.758
G1 X47.539 Y100.625
M5

; Path 189/290
G1 X138.242 Y100.977 F3000  ; Travel
M3 S1000
G4 P100  ; Wait for pen
G1 F1500
G1 X137.539 Y99.219
G1 X138.242 Y100.625
M5

; Path 190/290
G1 X75.664 Y100.977 F3000  ; Travel
M3 S1000
G4 P100  ; Wait for pen
G1 F1500
G1 X75.312 Y98.164
G1 X75.664 Y100.625
M5

; Path 191/290
G1 X48.945 Y100.977 F3000  ; Travel
M3 S1000
G4 P100  ; Wait for pen
G1 F1500
G1 X49.648 Y100.977
G1 X48.945 Y98.867
G1 X48.945 Y100.625
M5

; Path 192/290
G1 X50.000 Y102.031 F3000  ; Travel
M3 S1000
G4 P100  ; Wait for pen
G1 F1500
G1 X51.055 Y101.680
G1 X50.000 Y100.625
G1 X49.648 Y102.031
M5

; Path 193/290
G1 X61.953 Y103.438 F3000  ; Travel
M3 S1000
G4 P100  ; Wait for pen
G1 F1500
G1 X64.062 Y102.031
G1 X63.711 Y101.328
G1 X64.766 Y102.031
G1 X61.953 Y103.086
M5

; Path 194/290
G1 X79.180 Y104.141 F3000  ; Travel
M3 S1000
G4 P100  ; Wait for pen
G1 F1500
G1 X84.102 Y102.734
G1 X79.531 Y104.141
M5

; Path 195/290
G1 X52.109 Y104.492 F3000  ; Travel
M3 S1000
G4 P100  ; Wait for pen
G1 F1500
G1 X52.812 Y104.844
G1 X53.164 Y104.141
G1 X51.406 Y102.031
G1 X50.703 Y103.086
G1 X52.109 Y104.141
M5

; Path 196/290
G1 X123.828 Y105.195 F3000  ; Travel
M3 S1000
G4 P100  ; Wait for pen
G1 F1500
G1 X123.828 Y103.086
G1 X123.828 Y104.844
M5

; Path 197/290
G1 X117.500 Y105.195 F3000  ; Travel
M3 S1000
G4 P100  ; Wait for pen
G1 F1500
G1 X121.016 Y104.141
G1 X117.852 Y105.195
M5

; Path 198/290
G1 X75.664 Y105.547 F3000  ; Travel
M3 S1000
G4 P100  ; Wait for pen
G1 F1500
G1 X78.477 Y104.492
G1 X76.016 Y105.547
M5

; Path 199/290
G1 X60.195 Y108.711 F3000  ; Travel
M3 S1000
G4 P100  ; Wait for pen
G1 F1500
G1 X59.844 Y98.867
G1 X61.250 Y92.188
G1 X60.898 Y87.617
G1 X61.250 Y92.891
G1 X63.711 Y90.430
G1 X65.117 Y90.781
G1 X61.602 Y93.242
G1 X61.953 Y93.945
G1 X62.656 Y93.594
G1 X60.898 Y95.352
G1 X61.602 Y95.703
G1 X60.547 Y97.461
G1 X60.195 Y103.086
G1 X61.250 Y103.789
G1 X60.195 Y104.844
G1 X60.195 Y108.359
M5

; Path 200/290
G1 X130.508 Y109.414 F3000  ; Travel
M3 S1000
G4 P100  ; Wait for pen
G1 F1500
G1 X134.375 Y106.602
G1 X130.859 Y109.414
M5

; Path 201/290
G1 X82.344 Y109.414 F3000  ; Travel
M3 S1000
G4 P100  ; Wait for pen
G1 F1500
G1 X84.102 Y108.008
G1 X82.695 Y109.062
M5

; Path 202/290
G1 X58.789 Y109.766 F3000  ; Travel
M3 S1000
G4 P100  ; Wait for pen
G1 F1500
G1 X58.438 Y107.305
G1 X58.438 Y109.414
M5

; Path 203/290
G1 X102.383 Y111.172 F3000  ; Travel
M3 S1000
G4 P100  ; Wait for pen
G1 F1500
G1 X101.328 Y110.820
G1 X104.141 Y110.820
G1 X102.734 Y111.172
M5

; Path 204/290
G1 X88.320 Y111.172 F3000  ; Travel
M3 S1000
G4 P100  ; Wait for pen
G1 F1500
G1 X90.781 Y110.820
G1 X94.297 Y108.359
G1 X92.188 Y110.469
G1 X88.672 Y111.172
M5

; Path 205/290
G1 X58.086 Y111.172 F3000  ; Travel
M3 S1000
G4 P100  ; Wait for pen
G1 F1500
G1 X57.734 Y109.062
G1 X57.734 Y110.820
G1 X58.438 Y110.820
M5

; Path 206/290
G1 X98.516 Y111.523 F3000  ; Travel
M3 S1000
G4 P100  ; Wait for pen
G1 F1500
G1 X100.625 Y111.172
G1 X98.867 Y111.523
M5

; Path 207/290
G1 X111.523 Y112.578 F3000  ; Travel
M3 S1000
G4 P100  ; Wait for pen
G1 F1500
G1 X113.281 Y110.820
G1 X111.875 Y112.227
M5

; Path 208/290
G1 X135.781 Y112.930 F3000  ; Travel
M3 S1000
G4 P100  ; Wait for pen
G1 F1500
G1 X136.133 Y112.227
G1 X135.078 Y112.227
G1 X136.484 Y111.523
G1 X136.133 Y112.578
M5

; Path 209/290
G1 X92.539 Y112.930 F3000  ; Travel
M3 S1000
G4 P100  ; Wait for pen
G1 F1500
G1 X96.055 Y112.227
G1 X92.891 Y112.930
M5

; Path 210/290
G1 X123.828 Y113.633 F3000  ; Travel
M3 S1000
G4 P100  ; Wait for pen
G1 F1500
G1 X125.938 Y113.984
G1 X126.992 Y113.281
G1 X124.180 Y113.281
M5

; Path 211/290
G1 X130.859 Y113.984 F3000  ; Travel
M3 S1000
G4 P100  ; Wait for pen
G1 F1500
G1 X131.914 Y113.984
G1 X131.211 Y112.578
G1 X130.508 Y113.633
M5

; Path 212/290
G1 X59.141 Y113.984 F3000  ; Travel
M3 S1000
G4 P100  ; Wait for pen
G1 F1500
G1 X58.086 Y111.875
G1 X59.844 Y112.930
G1 X59.141 Y113.633
M5

; Path 213/290
G1 X132.617 Y114.688 F3000  ; Travel
M3 S1000
G4 P100  ; Wait for pen
G1 F1500
G1 X134.727 Y113.281
G1 X132.969 Y114.688
M5

; Path 214/290
G1 X64.062 Y114.688 F3000  ; Travel
M3 S1000
G4 P100  ; Wait for pen
G1 F1500
G1 X60.898 Y110.469
G1 X64.062 Y114.336
M5

; Path 215/290
G1 X120.664 Y116.445 F3000  ; Travel
M3 S1000
G4 P100  ; Wait for pen
G1 F1500
G1 X123.477 Y115.039
G1 X121.367 Y115.039
G1 X120.664 Y116.094
M5

; Path 216/290
G1 X117.500 Y116.445 F3000  ; Travel
M3 S1000
G4 P100  ; Wait for pen
G1 F1500
G1 X118.555 Y116.094
G1 X118.203 Y114.688
G1 X119.258 Y113.984
G1 X118.203 Y113.633
G1 X118.906 Y113.281
G1 X118.555 Y112.578
G1 X119.961 Y113.281
G1 X121.016 Y112.227
G1 X118.555 Y111.523
G1 X118.203 Y110.469
G1 X117.500 Y110.820
G1 X117.148 Y116.094
M5

; Path 217/290
G1 X64.766 Y117.500 F3000  ; Travel
M3 S1000
G4 P100  ; Wait for pen
G1 F1500
G1 X65.117 Y116.094
G1 X64.414 Y115.391
G1 X65.117 Y116.094
G1 X64.414 Y117.148
M5

; Path 218/290
G1 X100.625 Y119.609 F3000  ; Travel
M3 S1000
G4 P100  ; Wait for pen
G1 F1500
G1 X101.680 Y119.609
G1 X100.625 Y118.555
G1 X100.273 Y119.258
M5

; Path 219/290
G1 X102.031 Y120.664 F3000  ; Travel
M3 S1000
G4 P100  ; Wait for pen
G1 F1500
G1 X103.086 Y120.664
G1 X102.383 Y119.961
G1 X101.680 Y120.664
M5

; Path 220/290
G1 X67.578 Y120.664 F3000  ; Travel
M3 S1000
G4 P100  ; Wait for pen
G1 F1500
G1 X66.875 Y115.039
G1 X67.578 Y120.312
M5

; Path 221/290
G1 X62.656 Y122.070 F3000  ; Travel
M3 S1000
G4 P100  ; Wait for pen
G1 F1500
G1 X59.844 Y114.336
G1 X60.898 Y115.391
G1 X60.195 Y115.391
G1 X62.305 Y121.719
M5

; Path 222/290
G1 X115.391 Y122.422 F3000  ; Travel
M3 S1000
G4 P100  ; Wait for pen
G1 F1500
G1 X116.445 Y122.422
G1 X116.094 Y121.367
G1 X115.742 Y122.070
M5

; Path 223/290
G1 X104.141 Y123.828 F3000  ; Travel
M3 S1000
G4 P100  ; Wait for pen
G1 F1500
G1 X105.195 Y123.125
G1 X104.141 Y122.422
G1 X104.141 Y123.477
M5

; Path 224/290
G1 X85.508 Y126.641 F3000  ; Travel
M3 S1000
G4 P100  ; Wait for pen
G1 F1500
G1 X85.156 Y125.234
G1 X87.266 Y124.531
G1 X99.570 Y126.289
G1 X97.812 Y126.641
G1 X92.188 Y125.234
G1 X87.617 Y125.234
G1 X85.859 Y126.289
M5

; Path 225/290
G1 X124.531 Y126.992 F3000  ; Travel
M3 S1000
G4 P100  ; Wait for pen
G1 F1500
G1 X131.914 Y115.742
G1 X126.992 Y123.477
G1 X132.266 Y119.961
G1 X135.781 Y113.633
G1 X132.617 Y119.961
G1 X126.289 Y124.180
G1 X124.531 Y126.641
M5

; Path 226/290
G1 X113.984 Y126.992 F3000  ; Travel
M3 S1000
G4 P100  ; Wait for pen
G1 F1500
G1 X114.688 Y126.992
G1 X114.336 Y125.586
G1 X113.633 Y125.938
G1 X113.984 Y126.641
M5

; Path 227/290
G1 X68.633 Y127.344 F3000  ; Travel
M3 S1000
G4 P100  ; Wait for pen
G1 F1500
G1 X68.281 Y125.234
G1 X68.984 Y126.992
M5

; Path 228/290
G1 X109.414 Y128.047 F3000  ; Travel
M3 S1000
G4 P100  ; Wait for pen
G1 F1500
G1 X110.117 Y128.398
G1 X111.523 Y127.344
G1 X109.766 Y127.695
M5

; Path 229/290
G1 X126.992 Y129.102 F3000  ; Travel
M3 S1000
G4 P100  ; Wait for pen
G1 F1500
G1 X128.750 Y126.289
G1 X126.992 Y128.750
M5

; Path 230/290
G1 X125.234 Y129.102 F3000  ; Travel
M3 S1000
G4 P100  ; Wait for pen
G1 F1500
G1 X127.344 Y125.234
G1 X125.586 Y129.102
M5

; Path 231/290
G1 X62.305 Y129.805 F3000  ; Travel
M3 S1000
G4 P100  ; Wait for pen
G1 F1500
G1 X61.602 Y126.992
G1 X62.305 Y129.453
M5

; Path 232/290
G1 X123.828 Y130.156 F3000  ; Travel
M3 S1000
G4 P100  ; Wait for pen
G1 F1500
G1 X124.531 Y128.047
G1 X123.828 Y129.805
M5

; Path 233/290
G1 X111.875 Y130.508 F3000  ; Travel
M3 S1000
G4 P100  ; Wait for pen
G1 F1500
G1 X113.281 Y129.453
G1 X111.523 Y128.750
G1 X110.820 Y129.453
G1 X111.875 Y130.156
M5

; Path 234/290
G1 X87.969 Y131.211 F3000  ; Travel
M3 S1000
G4 P100  ; Wait for pen
G1 F1500
G1 X88.320 Y129.805
G1 X91.484 Y129.805
G1 X90.430 Y130.508
G1 X88.672 Y129.805
G1 X87.969 Y130.859
M5

; Path 235/290
G1 X70.391 Y134.023 F3000  ; Travel
M3 S1000
G4 P100  ; Wait for pen
G1 F1500
G1 X70.391 Y131.914
G1 X70.391 Y133.672
M5

; Path 236/290
G1 X123.828 Y134.375 F3000  ; Travel
M3 S1000
G4 P100  ; Wait for pen
G1 F1500
G1 X124.883 Y130.859
G1 X123.828 Y134.023
M5

; Path 237/290
G1 X63.008 Y135.781 F3000  ; Travel
M3 S1000
G4 P100  ; Wait for pen
G1 F1500
G1 X63.711 Y135.781
G1 X63.359 Y134.375
G1 X63.008 Y135.430
M5

; Path 238/290
G1 X123.125 Y137.891 F3000  ; Travel
M3 S1000
G4 P100  ; Wait for pen
G1 F1500
G1 X123.477 Y135.430
G1 X123.125 Y137.539
M5

; Path 239/290
G1 X120.312 Y138.242 F3000  ; Travel
M3 S1000
G4 P100  ; Wait for pen
G1 F1500
G1 X120.664 Y134.023
G1 X120.312 Y137.891
M5

; Path 240/290
G1 X112.227 Y138.945 F3000  ; Travel
M3 S1000
G4 P100  ; Wait for pen
G1 F1500
G1 X112.930 Y138.945
G1 X112.930 Y137.891
G1 X110.469 Y133.320
G1 X110.117 Y134.375
G1 X112.227 Y138.594
M5

; Path 241/290
G1 X67.578 Y139.648 F3000  ; Travel
M3 S1000
G4 P100  ; Wait for pen
G1 F1500
G1 X68.281 Y138.242
G1 X68.281 Y138.945
G1 X68.984 Y138.594
G1 X67.930 Y139.297
M5

; Path 242/290
G1 X109.766 Y141.406 F3000  ; Travel
M3 S1000
G4 P100  ; Wait for pen
G1 F1500
G1 X110.469 Y138.945
G1 X109.766 Y141.055
M5

; Path 243/290
G1 X85.156 Y141.406 F3000  ; Travel
M3 S1000
G4 P100  ; Wait for pen
G1 F1500
G1 X86.211 Y141.055
G1 X85.508 Y140.352
G1 X84.805 Y141.406
M5

; Path 244/290
G1 X115.742 Y141.758 F3000  ; Travel
M3 S1000
G4 P100  ; Wait for pen
G1 F1500
G1 X116.094 Y140.000
G1 X116.094 Y141.758
M5

; Path 245/290
G1 X113.633 Y141.758 F3000  ; Travel
M3 S1000
G4 P100  ; Wait for pen
G1 F1500
G1 X114.336 Y141.758
G1 X113.984 Y140.352
G1 X113.633 Y141.406
M5

; Path 246/290
G1 X96.758 Y141.758 F3000  ; Travel
M3 S1000
G4 P100  ; Wait for pen
G1 F1500
G1 X97.461 Y142.109
G1 X98.516 Y140.352
G1 X97.109 Y140.352
G1 X96.758 Y141.406
M5

; Path 247/290
G1 X86.211 Y142.461 F3000  ; Travel
M3 S1000
G4 P100  ; Wait for pen
G1 F1500
G1 X88.320 Y141.055
G1 X87.617 Y140.703
G1 X85.859 Y142.109
M5

; Path 248/290
G1 X100.625 Y142.812 F3000  ; Travel
M3 S1000
G4 P100  ; Wait for pen
G1 F1500
G1 X101.328 Y143.164
G1 X102.734 Y142.109
G1 X101.328 Y141.055
G1 X100.977 Y142.461
M5

; Path 249/290
G1 X61.602 Y142.812 F3000  ; Travel
M3 S1000
G4 P100  ; Wait for pen
G1 F1500
G1 X62.305 Y142.812
G1 X61.953 Y140.703
G1 X61.602 Y142.461
M5

; Path 250/290
G1 X84.453 Y143.164 F3000  ; Travel
M3 S1000
G4 P100  ; Wait for pen
G1 F1500
G1 X86.562 Y142.812
G1 X85.859 Y142.109
G1 X84.453 Y142.812
M5

; Path 251/290
G1 X60.195 Y143.164 F3000  ; Travel
M3 S1000
G4 P100  ; Wait for pen
G1 F1500
G1 X61.602 Y142.109
G1 X61.953 Y138.594
G1 X61.250 Y136.836
G1 X60.195 Y142.812
M5

; Path 252/290
G1 X113.281 Y143.867 F3000  ; Travel
M3 S1000
G4 P100  ; Wait for pen
G1 F1500
G1 X113.984 Y143.867
G1 X113.633 Y141.758
G1 X112.930 Y142.109
G1 X113.281 Y143.516
M5

; Path 253/290
G1 X110.469 Y143.867 F3000  ; Travel
M3 S1000
G4 P100  ; Wait for pen
G1 F1500
G1 X112.578 Y143.164
G1 X112.578 Y140.703
G1 X110.469 Y143.516
M5

; Path 254/290
G1 X101.680 Y143.867 F3000  ; Travel
M3 S1000
G4 P100  ; Wait for pen
G1 F1500
G1 X103.086 Y143.516
G1 X101.680 Y143.516
M5

; Path 255/290
G1 X63.711 Y143.867 F3000  ; Travel
M3 S1000
G4 P100  ; Wait for pen
G1 F1500
G1 X63.008 Y142.461
G1 X63.359 Y140.703
G1 X64.062 Y141.406
G1 X66.875 Y139.648
G1 X64.062 Y141.406
G1 X63.711 Y143.516
M5

; Path 256/290
G1 X100.625 Y144.570 F3000  ; Travel
M3 S1000
G4 P100  ; Wait for pen
G1 F1500
G1 X99.570 Y143.164
G1 X98.516 Y143.516
G1 X98.867 Y144.219
G1 X96.758 Y143.164
G1 X95.703 Y141.758
G1 X96.406 Y141.758
G1 X96.406 Y140.000
G1 X97.461 Y139.297
G1 X102.031 Y140.000
G1 X98.164 Y140.000
G1 X100.625 Y141.055
G1 X101.680 Y140.703
G1 X104.492 Y142.812
G1 X100.977 Y144.570
M5

; Path 257/290
G1 X110.117 Y144.922 F3000  ; Travel
M3 S1000
G4 P100  ; Wait for pen
G1 F1500
G1 X111.523 Y145.273
G1 X112.578 Y144.219
G1 X109.766 Y144.570
M5

; Path 258/290
G1 X73.906 Y145.273 F3000  ; Travel
M3 S1000
G4 P100  ; Wait for pen
G1 F1500
G1 X72.500 Y142.109
G1 X73.906 Y144.922
M5

; Path 259/290
G1 X117.852 Y146.328 F3000  ; Travel
M3 S1000
G4 P100  ; Wait for pen
G1 F1500
G1 X118.906 Y142.812
G1 X119.609 Y143.164
G1 X117.852 Y145.977
M5

; Path 260/290
G1 X109.414 Y146.680 F3000  ; Travel
M3 S1000
G4 P100  ; Wait for pen
G1 F1500
G1 X111.172 Y145.625
G1 X110.117 Y145.273
G1 X109.062 Y146.328
M5

; Path 261/290
G1 X102.383 Y147.031 F3000  ; Travel
M3 S1000
G4 P100  ; Wait for pen
G1 F1500
G1 X99.570 Y146.328
G1 X99.922 Y145.625
G1 X95.703 Y144.922
G1 X94.648 Y142.812
G1 X96.406 Y144.570
G1 X100.625 Y145.625
G1 X100.625 Y146.328
G1 X105.898 Y145.977
G1 X102.734 Y146.680
M5

; Path 262/290
G1 X108.359 Y148.086 F3000  ; Travel
M3 S1000
G4 P100  ; Wait for pen
G1 F1500
G1 X109.062 Y148.086
G1 X108.711 Y146.680
G1 X108.359 Y147.734
M5

; Path 263/290
G1 X63.711 Y148.789 F3000  ; Travel
M3 S1000
G4 P100  ; Wait for pen
G1 F1500
G1 X63.711 Y146.328
G1 X63.711 Y148.438
M5

; Path 264/290
G1 X111.523 Y149.492 F3000  ; Travel
M3 S1000
G4 P100  ; Wait for pen
G1 F1500
G1 X112.578 Y149.844
G1 X114.336 Y148.438
G1 X112.930 Y148.086
G1 X111.875 Y149.141
M5

; Path 265/290
G1 X106.953 Y150.195 F3000  ; Travel
M3 S1000
G4 P100  ; Wait for pen
G1 F1500
G1 X107.656 Y150.195
G1 X107.305 Y148.086
G1 X106.953 Y149.844
M5

; Path 266/290
G1 X83.398 Y151.250 F3000  ; Travel
M3 S1000
G4 P100  ; Wait for pen
G1 F1500
G1 X84.102 Y151.250
G1 X83.750 Y149.492
G1 X83.398 Y150.898
M5

; Path 267/290
G1 X106.953 Y153.359 F3000  ; Travel
M3 S1000
G4 P100  ; Wait for pen
G1 F1500
G1 X111.523 Y149.492
G1 X111.172 Y148.789
G1 X110.469 Y149.492
G1 X111.172 Y148.438
G1 X111.523 Y149.141
G1 X112.227 Y148.438
G1 X111.172 Y147.734
G1 X113.633 Y146.680
G1 X113.281 Y145.625
G1 X109.766 Y147.383
G1 X106.953 Y153.008
M5

; Path 268/290
G1 X76.367 Y155.117 F3000  ; Travel
M3 S1000
G4 P100  ; Wait for pen
G1 F1500
G1 X75.312 Y151.602
G1 X76.016 Y154.766
M5

; Path 269/290
G1 X106.250 Y155.820 F3000  ; Travel
M3 S1000
G4 P100  ; Wait for pen
G1 F1500
G1 X106.953 Y155.820
G1 X107.305 Y153.711
G1 X106.250 Y154.414
G1 X106.250 Y155.469
M5

; Path 270/290
G1 X113.633 Y157.227 F3000  ; Travel
M3 S1000
G4 P100  ; Wait for pen
G1 F1500
G1 X114.688 Y155.469
G1 X114.336 Y154.766
G1 X113.984 Y156.875
M5

; Path 271/290
G1 X110.820 Y157.578 F3000  ; Travel
M3 S1000
G4 P100  ; Wait for pen
G1 F1500
G1 X111.875 Y155.820
G1 X111.172 Y157.227
M5

; Path 272/290
G1 X104.141 Y157.578 F3000  ; Travel
M3 S1000
G4 P100  ; Wait for pen
G1 F1500
G1 X104.844 Y157.930
G1 X105.547 Y156.875
G1 X104.492 Y157.227
M5

; Path 273/290
G1 X89.375 Y159.336 F3000  ; Travel
M3 S1000
G4 P100  ; Wait for pen
G1 F1500
G1 X87.969 Y158.984
G1 X91.836 Y159.336
G1 X89.727 Y159.336
M5

; Path 274/290
G1 X100.625 Y160.039 F3000  ; Travel
M3 S1000
G4 P100  ; Wait for pen
G1 F1500
G1 X102.383 Y160.039
G1 X100.977 Y159.688
M5

; Path 275/290
G1 X102.734 Y160.391 F3000  ; Travel
M3 S1000
G4 P100  ; Wait for pen
G1 F1500
G1 X103.438 Y160.742
G1 X104.141 Y159.688
G1 X102.734 Y160.039
M5

; Path 276/290
G1 X91.836 Y161.445 F3000  ; Travel
M3 S1000
G4 P100  ; Wait for pen
G1 F1500
G1 X96.055 Y161.445
G1 X92.188 Y161.094
M5

; Path 277/290
G1 X86.562 Y161.797 F3000  ; Travel
M3 S1000
G4 P100  ; Wait for pen
G1 F1500
G1 X85.156 Y160.391
G1 X87.969 Y160.742
G1 X86.914 Y161.797
M5

; Path 278/290
G1 X80.586 Y161.797 F3000  ; Travel
M3 S1000
G4 P100  ; Wait for pen
G1 F1500
G1 X76.367 Y152.305
G1 X74.609 Y146.328
G1 X74.961 Y144.922
G1 X74.961 Y147.383
G1 X77.070 Y154.062
G1 X78.125 Y155.469
G1 X78.477 Y153.008
G1 X80.586 Y161.445
M5

; Path 279/290
G1 X101.328 Y162.852 F3000  ; Travel
M3 S1000
G4 P100  ; Wait for pen
G1 F1500
G1 X102.383 Y162.852
G1 X103.086 Y161.797
G1 X101.328 Y162.500
M5

; Path 280/290
G1 X93.945 Y163.203 F3000  ; Travel
M3 S1000
G4 P100  ; Wait for pen
G1 F1500
G1 X95.000 Y163.555
G1 X95.352 Y162.852
G1 X93.594 Y162.852
M5

; Path 281/290
G1 X90.078 Y163.555 F3000  ; Travel
M3 S1000
G4 P100  ; Wait for pen
G1 F1500
G1 X91.836 Y163.555
G1 X90.430 Y163.203
M5

; Path 282/290
G1 X93.945 Y164.258 F3000  ; Travel
M3 S1000
G4 P100  ; Wait for pen
G1 F1500
G1 X95.000 Y164.258
G1 X94.297 Y163.555
G1 X93.594 Y164.258
M5

; Path 283/290
G1 X100.977 Y164.609 F3000  ; Travel
M3 S1000
G4 P100  ; Wait for pen
G1 F1500
G1 X101.680 Y164.961
G1 X106.250 Y160.039
G1 X105.195 Y159.688
G1 X100.977 Y164.258
M5

; Path 284/290
G1 X91.836 Y164.961 F3000  ; Travel
M3 S1000
G4 P100  ; Wait for pen
G1 F1500
G1 X93.594 Y165.312
G1 X94.297 Y164.609
G1 X88.672 Y163.906
G1 X91.484 Y164.961
M5

; Path 285/290
G1 X110.820 Y166.367 F3000  ; Travel
M3 S1000
G4 P100  ; Wait for pen
G1 F1500
G1 X112.227 Y165.312
G1 X111.523 Y164.609
G1 X110.820 Y166.016
M5

; Path 286/290
G1 X68.281 Y166.719 F3000  ; Travel
M3 S1000
G4 P100  ; Wait for pen
G1 F1500
G1 X68.984 Y166.719
G1 X68.281 Y165.312
G1 X67.578 Y165.664
G1 X67.930 Y166.367
M5

; Path 287/290
G1 X90.781 Y168.477 F3000  ; Travel
M3 S1000
G4 P100  ; Wait for pen
G1 F1500
G1 X92.891 Y168.828
G1 X96.406 Y167.773
G1 X95.000 Y167.070
G1 X96.758 Y167.773
G1 X98.164 Y166.367
G1 X97.812 Y163.203
G1 X97.109 Y162.852
G1 X96.758 Y164.258
G1 X94.648 Y165.312
G1 X95.000 Y166.016
G1 X86.211 Y164.258
G1 X86.211 Y163.555
G1 X87.266 Y163.906
G1 X87.266 Y163.203
G1 X90.078 Y163.203
G1 X91.836 Y162.148
G1 X87.617 Y161.797
G1 X93.242 Y160.742
G1 X87.969 Y160.039
G1 X98.867 Y160.039
G1 X96.758 Y160.742
G1 X97.812 Y161.094
G1 X97.461 Y161.797
G1 X99.219 Y161.445
G1 X99.219 Y160.742
G1 X100.273 Y161.445
G1 X99.570 Y161.094
G1 X98.867 Y162.148
G1 X99.219 Y166.016
G1 X98.516 Y168.125
G1 X99.570 Y168.828
G1 X100.273 Y168.125
G1 X100.273 Y163.555
G1 X101.328 Y161.445
G1 X99.922 Y159.688
G1 X103.086 Y158.633
G1 X105.195 Y156.172
G1 X105.547 Y156.875
G1 X105.547 Y154.766
G1 X105.898 Y155.820
G1 X106.602 Y154.062
G1 X105.898 Y153.359
G1 X106.602 Y153.359
G1 X106.953 Y147.031
G1 X107.656 Y146.328
G1 X106.602 Y145.977
G1 X107.656 Y145.625
G1 X108.359 Y138.945
G1 X107.656 Y135.430
G1 X108.359 Y141.406
G1 X109.062 Y141.758
G1 X108.711 Y145.273
G1 X112.578 Y140.000
G1 X110.469 Y135.078
G1 X108.359 Y132.969
G1 X106.953 Y133.320
G1 X105.898 Y129.453
G1 X104.141 Y128.750
G1 X105.547 Y129.102
G1 X105.898 Y128.398
G1 X101.328 Y120.664
G1 X95.703 Y116.445
G1 X89.023 Y115.391
G1 X82.344 Y120.312
G1 X79.883 Y123.125
G1 X80.234 Y123.828
G1 X79.531 Y123.477
G1 X77.422 Y126.289
G1 X74.961 Y136.836
G1 X75.664 Y137.539
G1 X74.961 Y137.539
G1 X74.961 Y138.945
G1 X75.664 Y138.945
G1 X76.016 Y142.109
G1 X77.070 Y143.867
G1 X76.719 Y144.922
G1 X77.422 Y144.570
G1 X77.773 Y145.977
G1 X82.344 Y144.922
G1 X84.102 Y145.273
G1 X84.453 Y144.570
G1 X84.805 Y145.273
G1 X86.211 Y144.922
G1 X87.969 Y143.516
G1 X87.617 Y142.109
G1 X87.266 Y143.164
G1 X84.102 Y143.867
G1 X83.398 Y142.812
G1 X80.586 Y143.164
G1 X82.344 Y143.867
G1 X83.047 Y143.516
G1 X78.828 Y143.164
G1 X78.477 Y141.055
G1 X80.234 Y139.297
G1 X85.508 Y139.648
G1 X81.289 Y139.648
G1 X79.883 Y140.703
G1 X80.586 Y141.758
G1 X81.641 Y141.406
G1 X81.641 Y140.352
G1 X88.320 Y140.703
G1 X89.375 Y139.297
G1 X90.078 Y133.672
G1 X90.078 Y141.055
G1 X88.672 Y143.164
G1 X89.375 Y143.516
G1 X88.672 Y143.164
G1 X87.266 Y145.273
G1 X85.156 Y145.977
G1 X84.102 Y145.273
G1 X83.398 Y145.977
G1 X84.102 Y149.844
G1 X85.156 Y146.680
G1 X84.102 Y150.898
G1 X84.805 Y150.898
G1 X85.859 Y148.789
G1 X82.344 Y155.469
G1 X82.344 Y159.336
G1 X83.047 Y161.797
G1 X84.805 Y163.555
G1 X85.508 Y162.852
G1 X83.750 Y159.688
G1 X84.453 Y160.039
G1 X84.805 Y161.797
G1 X86.211 Y162.852
G1 X84.805 Y163.906
G1 X86.562 Y165.664
G1 X90.430 Y166.719
G1 X86.562 Y165.664
G1 X86.211 Y166.367
G1 X90.430 Y168.477
M5

; Path 288/290
G1 X79.180 Y175.508 F3000  ; Travel
M3 S1000
G4 P100  ; Wait for pen
G1 F1500
G1 X79.883 Y175.156
G1 X78.477 Y174.453
G1 X78.828 Y175.508
M5

; Path 289/290
G1 X99.922 Y175.859 F3000  ; Travel
M3 S1000
G4 P100  ; Wait for pen
G1 F1500
G1 X100.625 Y176.211
G1 X101.680 Y174.805
G1 X100.977 Y174.453
G1 X100.273 Y175.508
M5

; Path 290/290
G1 X91.484 Y181.133 F3000  ; Travel
M3 S1000
G4 P100  ; Wait for pen
G1 F1500
G1 X85.156 Y180.078
G1 X74.609 Y175.508
G1 X68.281 Y169.180
G1 X63.711 Y161.094
G1 X59.844 Y145.977
G1 X61.250 Y132.266
G1 X55.625 Y118.906
G1 X56.328 Y115.742
G1 X57.031 Y121.367
G1 X58.789 Y123.828
G1 X58.789 Y116.094
G1 X56.680 Y111.523
G1 X55.625 Y111.172
G1 X53.516 Y107.305
G1 X50.000 Y104.141
G1 X48.594 Y103.789
G1 X49.648 Y103.438
G1 X43.672 Y97.812
G1 X44.727 Y98.867
G1 X45.430 Y98.516
G1 X44.375 Y97.109
G1 X45.430 Y97.109
G1 X44.727 Y91.836
G1 X43.320 Y90.781
G1 X40.508 Y90.781
G1 X40.156 Y91.484
G1 X41.562 Y93.594
G1 X39.805 Y91.836
G1 X40.508 Y87.969
G1 X40.508 Y90.430
G1 X42.266 Y88.672
G1 X45.430 Y88.320
G1 X45.078 Y85.859
G1 X41.914 Y86.914
G1 X45.078 Y85.508
G1 X44.023 Y84.102
G1 X41.211 Y83.398
G1 X39.805 Y84.453
G1 X40.859 Y83.047
G1 X44.727 Y83.398
G1 X44.023 Y80.586
G1 X41.914 Y81.289
G1 X44.375 Y79.531
G1 X42.617 Y71.797
G1 X43.320 Y74.258
G1 X43.672 Y71.094
G1 X44.375 Y81.289
G1 X45.078 Y81.289
G1 X45.430 Y78.828
G1 X46.133 Y79.180
G1 X46.133 Y81.992
G1 X46.836 Y82.344
G1 X46.836 Y83.398
G1 X46.133 Y82.695
G1 X46.133 Y84.805
G1 X46.836 Y85.859
G1 X46.836 Y84.102
G1 X48.945 Y83.047
G1 X47.188 Y84.453
G1 X47.539 Y87.266
G1 X47.891 Y86.211
G1 X48.242 Y87.266
G1 X49.297 Y86.211
G1 X47.891 Y87.617
G1 X48.594 Y91.133
G1 X51.055 Y87.617
G1 X49.297 Y90.078
G1 X50.000 Y91.484
G1 X48.594 Y92.188
G1 X48.594 Y94.297
G1 X49.297 Y93.945
G1 X50.352 Y98.164
G1 X49.297 Y96.758
G1 X48.594 Y97.461
G1 X49.648 Y99.922
G1 X52.461 Y101.328
G1 X54.219 Y104.141
G1 X53.164 Y103.789
G1 X53.867 Y105.547
G1 X55.977 Y108.008
G1 X56.328 Y110.469
G1 X57.031 Y110.469
G1 X56.328 Y111.172
G1 X60.195 Y119.609
G1 X60.547 Y123.828
G1 X59.492 Y123.125
G1 X58.789 Y124.180
G1 X61.602 Y129.453
G1 X62.305 Y132.617
G1 X63.359 Y131.914
G1 X62.656 Y133.672
G1 X63.711 Y133.672
G1 X63.711 Y139.297
G1 X63.008 Y138.945
G1 X62.305 Y132.617
G1 X61.602 Y132.617
G1 X62.656 Y145.625
G1 X62.305 Y146.680
G1 X62.305 Y145.273
G1 X61.602 Y145.273
G1 X61.602 Y147.734
G1 X63.359 Y152.305
G1 X63.711 Y150.195
G1 X63.711 Y153.711
G1 X64.414 Y153.711
G1 X64.414 Y152.656
G1 X65.117 Y156.172
G1 X64.766 Y154.414
G1 X64.414 Y156.172
G1 X61.953 Y150.195
G1 X61.602 Y151.250
G1 X65.820 Y163.203
G1 X69.688 Y167.070
G1 X68.633 Y167.070
G1 X69.336 Y168.477
G1 X70.391 Y167.773
G1 X72.852 Y170.938
G1 X81.289 Y176.211
G1 X82.695 Y176.562
G1 X84.102 Y175.508
G1 X83.047 Y176.914
G1 X85.156 Y177.617
G1 X91.484 Y177.266
G1 X87.266 Y177.969
G1 X83.398 Y177.266
G1 X83.398 Y178.320
G1 X91.484 Y179.375
G1 X93.945 Y178.672
G1 X93.945 Y177.617
G1 X91.484 Y178.320
G1 X93.594 Y177.266
G1 X94.297 Y177.969
G1 X95.000 Y176.914
G1 X96.055 Y177.969
G1 X98.867 Y176.211
G1 X98.867 Y173.750
G1 X99.922 Y172.695
G1 X99.922 Y169.883
G1 X98.867 Y169.883
G1 X98.516 Y172.344
G1 X95.703 Y176.211
G1 X96.406 Y175.508
G1 X95.000 Y175.508
G1 X97.109 Y174.102
G1 X98.164 Y171.289
G1 X93.594 Y172.695
G1 X96.406 Y171.992
G1 X97.461 Y170.234
G1 X93.242 Y171.641
G1 X89.023 Y171.289
G1 X94.648 Y170.938
G1 X95.000 Y169.883
G1 X97.812 Y169.531
G1 X98.164 Y167.422
G1 X96.758 Y168.125
G1 X97.461 Y168.477
G1 X89.375 Y169.180
G1 X88.672 Y168.125
G1 X87.266 Y169.180
G1 X91.836 Y170.234
G1 X87.617 Y170.234
G1 X77.773 Y164.258
G1 X78.828 Y164.961
G1 X79.531 Y164.258
G1 X77.773 Y162.500
G1 X76.367 Y158.633
G1 X78.477 Y162.500
G1 X80.586 Y164.609
G1 X81.289 Y163.906
G1 X80.586 Y164.609
G1 X81.641 Y165.664
G1 X83.398 Y166.016
G1 X82.695 Y166.367
G1 X84.102 Y167.422
G1 X85.156 Y167.070
G1 X84.453 Y167.422
G1 X86.914 Y168.828
G1 X88.672 Y168.125
G1 X84.453 Y165.312
G1 X86.211 Y166.016
G1 X85.859 Y164.961
G1 X83.750 Y164.609
G1 X84.102 Y163.906
G1 X83.047 Y162.852
G1 X82.344 Y163.906
G1 X82.695 Y163.203
G1 X81.289 Y162.500
G1 X82.695 Y162.500
G1 X81.641 Y160.039
G1 X80.938 Y160.039
G1 X80.586 Y156.523
G1 X83.047 Y145.977
G1 X77.070 Y146.328
G1 X77.773 Y152.656
G1 X76.367 Y144.570
G1 X74.961 Y143.516
G1 X75.664 Y142.812
G1 X74.258 Y141.406
G1 X73.906 Y139.297
G1 X74.961 Y139.648
G1 X74.961 Y131.562
G1 X72.148 Y134.727
G1 X70.391 Y138.242
G1 X72.148 Y141.406
G1 X70.039 Y139.297
G1 X68.633 Y141.758
G1 X70.039 Y138.594
G1 X69.688 Y136.484
G1 X71.797 Y135.078
G1 X72.852 Y132.266
G1 X73.906 Y131.914
G1 X76.016 Y124.531
G1 X73.555 Y122.773
G1 X72.500 Y123.477
G1 X72.852 Y122.773
G1 X70.742 Y121.367
G1 X70.391 Y119.961
G1 X70.039 Y120.664
G1 X70.391 Y119.609
G1 X69.336 Y119.258
G1 X68.984 Y116.797
G1 X69.688 Y114.336
G1 X68.281 Y110.117
G1 X67.578 Y110.117
G1 X68.281 Y109.414
G1 X66.875 Y109.766
G1 X68.281 Y108.711
G1 X68.281 Y106.953
G1 X69.336 Y107.656
G1 X74.258 Y104.141
G1 X81.289 Y101.680
G1 X81.641 Y99.570
G1 X82.344 Y101.680
G1 X85.156 Y100.625
G1 X86.562 Y100.977
G1 X86.914 Y100.273
G1 X87.617 Y101.328
G1 X90.078 Y101.680
G1 X90.078 Y100.977
G1 X91.484 Y101.328
G1 X92.188 Y100.625
G1 X96.406 Y102.383
G1 X97.461 Y102.031
G1 X97.812 Y99.922
G1 X97.812 Y102.734
G1 X99.570 Y103.438
G1 X100.625 Y102.383
G1 X99.922 Y103.086
G1 X100.625 Y103.789
G1 X112.578 Y108.359
G1 X97.812 Y102.734
G1 X93.242 Y102.383
G1 X93.945 Y102.031
G1 X93.594 Y101.328
G1 X86.914 Y102.734
G1 X84.805 Y102.383
G1 X87.266 Y102.383
G1 X87.617 Y101.328
G1 X85.156 Y101.328
G1 X73.203 Y104.844
G1 X71.445 Y106.250
G1 X72.148 Y106.602
G1 X71.094 Y106.602
G1 X68.984 Y108.711
G1 X68.281 Y110.820
G1 X69.336 Y111.172
G1 X69.336 Y113.281
G1 X70.391 Y114.688
G1 X72.852 Y109.414
G1 X75.664 Y107.305
G1 X83.047 Y105.195
G1 X88.320 Y105.547
G1 X95.000 Y104.141
G1 X94.648 Y105.195
G1 X96.758 Y105.898
G1 X97.461 Y105.195
G1 X97.812 Y106.602
G1 X111.172 Y111.523
G1 X97.812 Y106.602
G1 X95.352 Y107.656
G1 X96.758 Y106.602
G1 X95.000 Y105.547
G1 X94.648 Y106.250
G1 X92.891 Y105.547
G1 X83.047 Y105.898
G1 X83.398 Y107.305
G1 X81.641 Y106.250
G1 X77.773 Y108.359
G1 X77.773 Y107.305
G1 X73.906 Y109.062
G1 X70.391 Y115.742
G1 X70.742 Y116.445
G1 X75.664 Y113.281
G1 X83.047 Y111.875
G1 X79.531 Y112.227
G1 X72.148 Y115.391
G1 X71.094 Y116.445
G1 X70.742 Y118.555
G1 X71.445 Y119.258
G1 X71.797 Y118.555
G1 X71.445 Y120.312
G1 X73.203 Y120.312
G1 X72.852 Y121.367
G1 X76.016 Y124.180
G1 X79.883 Y119.609
G1 X79.531 Y118.906
G1 X80.938 Y118.555
G1 X81.641 Y117.148
G1 X77.422 Y118.555
G1 X82.695 Y115.742
G1 X88.320 Y115.039
G1 X88.672 Y114.336
G1 X89.023 Y115.039
G1 X94.297 Y115.391
G1 X98.867 Y117.148
G1 X104.844 Y121.367
G1 X104.141 Y121.719
G1 X105.195 Y123.125
G1 X104.492 Y124.180
G1 X107.305 Y128.750
G1 X112.930 Y125.234
G1 X114.336 Y121.016
G1 X115.391 Y121.016
G1 X116.094 Y115.391
G1 X117.500 Y112.930
G1 X116.797 Y112.578
G1 X117.148 Y109.766
G1 X115.742 Y110.117
G1 X115.391 Y109.414
G1 X116.797 Y109.414
G1 X116.445 Y106.953
G1 X114.336 Y105.195
G1 X114.336 Y104.141
G1 X109.062 Y99.219
G1 X107.656 Y99.219
G1 X107.656 Y98.164
G1 X106.602 Y98.516
G1 X106.602 Y97.812
G1 X103.438 Y96.406
G1 X102.031 Y97.812
G1 X102.383 Y96.055
G1 X90.078 Y91.836
G1 X88.320 Y92.188
G1 X89.727 Y92.891
G1 X84.805 Y93.242
G1 X85.508 Y92.891
G1 X84.805 Y92.188
G1 X83.047 Y92.539
G1 X82.695 Y93.594
G1 X81.992 Y92.891
G1 X81.641 Y96.758
G1 X81.641 Y94.648
G1 X80.586 Y93.945
G1 X79.883 Y95.000
G1 X79.180 Y94.648
G1 X73.906 Y97.812
G1 X77.773 Y95.000
G1 X80.234 Y94.297
G1 X81.289 Y92.891
G1 X73.906 Y95.000
G1 X68.984 Y99.570
G1 X68.281 Y100.977
G1 X68.281 Y106.250
G1 X68.281 Y101.328
G1 X66.875 Y99.922
G1 X70.039 Y96.055
G1 X69.688 Y90.430
G1 X68.281 Y88.320
G1 X69.688 Y87.266
G1 X68.281 Y87.266
G1 X68.633 Y86.211
G1 X63.711 Y73.203
G1 X61.602 Y64.062
G1 X63.359 Y55.273
G1 X66.875 Y48.594
G1 X66.172 Y48.242
G1 X67.227 Y47.891
G1 X65.469 Y47.539
G1 X65.469 Y48.242
G1 X63.711 Y48.594
G1 X63.711 Y49.297
G1 X65.117 Y48.945
G1 X62.656 Y51.055
G1 X63.711 Y49.648
G1 X63.359 Y48.945
G1 X62.656 Y49.297
G1 X63.359 Y48.945
G1 X62.656 Y48.242
G1 X59.141 Y51.406
G1 X61.953 Y48.594
G1 X61.250 Y48.242
G1 X61.953 Y47.539
G1 X60.898 Y47.188
G1 X66.172 Y47.188
G1 X64.766 Y46.133
G1 X57.734 Y46.133
G1 X53.867 Y47.188
G1 X56.328 Y47.539
G1 X45.781 Y47.891
G1 X45.430 Y46.484
G1 X41.562 Y46.484
G1 X41.562 Y45.430
G1 X38.398 Y43.672
G1 X37.344 Y44.727
G1 X38.047 Y46.836
G1 X37.344 Y48.945
G1 X38.047 Y49.297
G1 X38.047 Y53.164
G1 X39.453 Y57.031
G1 X38.750 Y55.977
G1 X39.102 Y58.789
G1 X36.289 Y51.406
G1 X35.938 Y47.891
G1 X36.992 Y39.805
G1 X34.180 Y35.586
G1 X34.180 Y33.125
G1 X37.344 Y26.445
G1 X40.508 Y21.875
G1 X46.133 Y16.250
G1 X50.000 Y14.141
G1 X54.570 Y13.789
G1 X53.867 Y13.086
G1 X56.328 Y12.383
G1 X54.922 Y10.625
G1 X54.219 Y10.977
G1 X54.922 Y12.031
G1 X54.219 Y12.031
G1 X54.219 Y9.922
G1 X50.352 Y5.352
G1 X52.109 Y5.703
G1 X51.406 Y6.055
G1 X52.109 Y7.812
G1 X55.977 Y11.680
G1 X57.031 Y10.625
G1 X58.438 Y11.328
G1 X59.141 Y10.625
G1 X59.141 Y11.328
G1 X60.898 Y12.031
G1 X61.953 Y10.273
G1 X61.250 Y8.867
G1 X60.547 Y9.219
G1 X61.250 Y7.461
G1 X60.195 Y6.055
G1 X60.898 Y5.352
G1 X61.250 Y6.055
G1 X61.602 Y5.352
G1 X67.578 Y6.055
G1 X66.875 Y6.406
G1 X68.281 Y7.812
G1 X66.875 Y6.406
G1 X65.469 Y7.109
G1 X67.578 Y8.164
G1 X65.469 Y7.812
G1 X68.281 Y9.922
G1 X66.523 Y9.219
G1 X65.820 Y11.328
G1 X66.875 Y11.680
G1 X66.172 Y12.383
G1 X67.227 Y14.844
G1 X70.039 Y14.492
G1 X67.227 Y15.547
G1 X67.930 Y18.711
G1 X68.984 Y18.359
G1 X70.391 Y23.281
G1 X73.555 Y26.445
G1 X72.852 Y27.852
G1 X75.664 Y30.664
G1 X76.016 Y29.961
G1 X74.961 Y31.367
G1 X77.773 Y34.531
G1 X77.773 Y36.289
G1 X78.828 Y35.586
G1 X78.477 Y32.773
G1 X78.828 Y38.750
G1 X79.883 Y38.750
G1 X78.828 Y39.805
G1 X79.883 Y40.156
G1 X78.828 Y40.859
G1 X79.531 Y41.914
G1 X80.938 Y40.859
G1 X81.641 Y36.289
G1 X80.586 Y35.938
G1 X81.641 Y35.234
G1 X81.992 Y26.094
G1 X81.289 Y26.094
G1 X80.938 Y28.203
G1 X81.289 Y25.391
G1 X88.320 Y17.656
G1 X86.562 Y20.117
G1 X87.969 Y21.875
G1 X86.211 Y20.469
G1 X84.102 Y23.633
G1 X81.641 Y25.039
G1 X81.992 Y34.883
G1 X83.750 Y34.531
G1 X85.508 Y32.422
G1 X85.859 Y33.125
G1 X81.992 Y35.938
G1 X81.289 Y40.859
G1 X81.992 Y41.914
G1 X84.102 Y41.562
G1 X81.992 Y42.266
G1 X83.398 Y44.727
G1 X85.859 Y46.133
G1 X86.914 Y45.781
G1 X86.562 Y44.727
G1 X88.320 Y46.133
G1 X87.969 Y46.836
G1 X90.781 Y50.352
G1 X90.781 Y52.812
G1 X90.430 Y50.000
G1 X88.672 Y48.945
G1 X88.320 Y47.539
G1 X86.562 Y46.836
G1 X83.398 Y49.297
G1 X83.750 Y50.000
G1 X83.398 Y49.297
G1 X80.938 Y53.164
G1 X81.992 Y50.000
G1 X85.859 Y46.484
G1 X81.641 Y43.320
G1 X78.828 Y48.945
G1 X78.125 Y52.812
G1 X78.477 Y51.406
G1 X77.773 Y51.055
G1 X78.477 Y50.000
G1 X77.422 Y50.000
G1 X78.477 Y49.297
G1 X77.422 Y48.945
G1 X76.719 Y49.648
G1 X79.180 Y47.539
G1 X78.477 Y47.188
G1 X78.828 Y43.672
G1 X77.070 Y43.320
G1 X70.039 Y46.836
G1 X66.523 Y51.055
G1 X66.875 Y51.758
G1 X67.578 Y51.406
G1 X65.469 Y53.164
G1 X64.062 Y57.031
G1 X63.008 Y57.383
G1 X61.953 Y61.602
G1 X63.008 Y61.250
G1 X62.305 Y64.414
G1 X63.008 Y69.336
G1 X63.711 Y70.391
G1 X65.469 Y69.688
G1 X63.711 Y70.742
G1 X64.062 Y72.500
G1 X65.469 Y72.500
G1 X64.766 Y73.555
G1 X65.117 Y76.016
G1 X67.227 Y80.234
G1 X71.094 Y84.102
G1 X71.797 Y81.289
G1 X72.852 Y80.586
G1 X72.500 Y79.883
G1 X71.445 Y80.234
G1 X72.500 Y79.180
G1 X73.555 Y80.234
G1 X75.664 Y77.422
G1 X75.312 Y76.719
G1 X76.016 Y76.719
G1 X76.016 Y75.312
G1 X78.125 Y73.906
G1 X78.125 Y72.852
G1 X78.477 Y73.906
G1 X85.156 Y68.633
G1 X87.969 Y70.039
G1 X90.781 Y72.852
G1 X90.781 Y73.906
G1 X94.648 Y79.180
G1 X96.758 Y80.234
G1 X96.055 Y80.938
G1 X97.109 Y80.938
G1 X98.164 Y83.047
G1 X99.922 Y81.289
G1 X99.219 Y79.531
G1 X99.922 Y78.477
G1 X100.273 Y79.180
G1 X101.680 Y78.828
G1 X109.062 Y73.906
G1 X106.602 Y75.312
G1 X105.195 Y77.773
G1 X100.625 Y79.180
G1 X99.570 Y81.992
G1 X99.922 Y83.750
G1 X108.711 Y92.539
G1 X109.766 Y89.375
G1 X110.820 Y77.422
G1 X111.523 Y78.477
G1 X112.227 Y76.719
G1 X110.820 Y76.719
G1 X109.766 Y74.609
G1 X107.656 Y75.664
G1 X110.117 Y74.258
G1 X110.469 Y72.148
G1 X109.766 Y71.445
G1 X107.305 Y72.148
G1 X105.195 Y71.445
G1 X106.250 Y69.688
G1 X108.008 Y68.984
G1 X106.250 Y70.039
G1 X106.953 Y71.797
G1 X109.766 Y71.445
G1 X112.227 Y70.039
G1 X121.016 Y67.578
G1 X124.883 Y65.469
G1 X124.883 Y64.766
G1 X125.938 Y65.117
G1 X130.156 Y59.492
G1 X134.023 Y57.383
G1 X134.375 Y46.836
G1 X131.914 Y47.188
G1 X136.133 Y45.781
G1 X134.375 Y46.484
G1 X134.727 Y52.812
G1 X139.648 Y51.758
G1 X134.375 Y53.164
G1 X134.375 Y56.328
G1 X135.430 Y56.680
G1 X134.375 Y57.734
G1 X138.594 Y57.383
G1 X134.727 Y58.086
G1 X134.023 Y60.195
G1 X133.672 Y58.789
G1 X131.562 Y59.141
G1 X128.750 Y61.602
G1 X128.047 Y63.008
G1 X128.750 Y63.711
G1 X138.242 Y59.844
G1 X140.703 Y55.625
G1 X142.109 Y55.977
G1 X146.680 Y53.867
G1 X151.602 Y50.352
G1 X151.953 Y49.297
G1 X152.656 Y49.648
G1 X153.359 Y48.945
G1 X152.656 Y48.594
G1 X154.414 Y48.242
G1 X154.766 Y47.539
G1 X154.062 Y47.539
G1 X156.172 Y46.133
G1 X155.820 Y44.375
G1 X156.875 Y44.023
G1 X154.062 Y41.211
G1 X156.172 Y40.859
G1 X155.469 Y38.398
G1 X159.688 Y46.836
G1 X158.984 Y49.648
G1 X155.469 Y52.109
G1 X154.062 Y54.922
G1 X154.414 Y52.461
G1 X148.789 Y56.328
G1 X146.328 Y57.031
G1 X146.328 Y58.086
G1 X145.625 Y57.383
G1 X143.867 Y59.844
G1 X144.922 Y58.789
G1 X144.219 Y57.734
G1 X140.703 Y60.547
G1 X136.484 Y67.227
G1 X132.969 Y75.664
G1 X135.078 Y68.984
G1 X136.484 Y67.578
G1 X135.430 Y66.523
G1 X136.484 Y66.875
G1 X140.000 Y61.602
G1 X139.648 Y60.898
G1 X137.188 Y63.711
G1 X136.836 Y62.656
G1 X134.375 Y63.359
G1 X133.320 Y62.656
G1 X128.750 Y64.766
G1 X130.156 Y66.523
G1 X131.211 Y70.039
G1 X129.453 Y70.391
G1 X129.805 Y67.930
G1 X129.102 Y65.820
G1 X127.344 Y64.414
G1 X127.344 Y65.820
G1 X126.992 Y65.117
G1 X125.938 Y67.578
G1 X123.828 Y69.688
G1 X124.531 Y70.391
G1 X119.609 Y73.555
G1 X112.578 Y76.367
G1 X110.820 Y90.430
G1 X111.523 Y91.133
G1 X110.469 Y92.188
G1 X110.469 Y93.945
G1 X111.172 Y93.945
G1 X110.469 Y96.055
G1 X111.172 Y96.406
G1 X110.117 Y98.516
G1 X112.578 Y99.570
G1 X113.281 Y102.031
G1 X114.688 Y102.031
G1 X114.336 Y103.086
G1 X116.445 Y105.547
G1 X115.742 Y105.898
G1 X117.500 Y107.656
G1 X117.852 Y110.117
G1 X121.016 Y112.227
G1 X130.156 Y112.578
G1 X137.188 Y109.062
G1 X141.055 Y104.492
G1 X140.703 Y103.086
G1 X141.055 Y103.789
G1 X142.812 Y99.570
G1 X146.680 Y94.297
G1 X147.734 Y90.078
G1 X148.438 Y91.484
G1 X150.547 Y90.781
G1 X148.438 Y91.836
G1 X147.031 Y97.109
G1 X143.867 Y100.625
G1 X144.219 Y101.328
G1 X145.273 Y100.625
G1 X143.164 Y102.734
G1 X141.758 Y109.062
G1 X135.078 Y117.852
G1 X137.891 Y113.633
G1 X137.539 Y112.578
G1 X140.703 Y109.062
G1 X141.406 Y104.492
G1 X137.891 Y109.414
G1 X131.562 Y112.930
G1 X131.914 Y114.688
G1 X131.211 Y114.336
G1 X128.398 Y117.148
G1 X126.641 Y120.664
G1 X128.398 Y117.148
G1 X126.641 Y118.203
G1 X125.234 Y120.312
G1 X125.938 Y121.016
G1 X125.586 Y122.773
G1 X123.125 Y126.289
G1 X125.586 Y122.773
G1 X125.234 Y122.070
G1 X124.531 Y122.773
G1 X126.289 Y118.203
G1 X129.805 Y113.633
G1 X128.750 Y113.281
G1 X127.695 Y114.688
G1 X125.586 Y115.039
G1 X120.664 Y119.258
G1 X125.234 Y115.039
G1 X123.477 Y115.039
G1 X119.961 Y117.852
G1 X118.906 Y121.367
G1 X118.203 Y134.023
G1 X118.555 Y131.211
G1 X117.148 Y125.586
G1 X118.203 Y127.344
G1 X119.961 Y116.445
G1 X123.828 Y112.930
G1 X121.719 Y113.281
G1 X118.906 Y115.742
G1 X117.500 Y121.016
G1 X116.797 Y120.312
G1 X116.797 Y121.719
G1 X117.852 Y121.719
G1 X117.852 Y125.586
G1 X117.500 Y122.070
G1 X116.094 Y123.477
G1 X115.742 Y126.289
G1 X115.742 Y123.477
G1 X114.688 Y124.180
G1 X115.039 Y129.453
G1 X115.742 Y126.992
G1 X115.391 Y131.914
G1 X114.688 Y132.266
G1 X114.688 Y128.047
G1 X112.578 Y126.289
G1 X112.930 Y127.695
G1 X112.227 Y128.398
G1 X113.281 Y129.453
G1 X114.688 Y134.375
G1 X113.281 Y134.375
G1 X113.281 Y132.617
G1 X113.984 Y134.375
G1 X114.336 Y132.969
G1 X112.930 Y130.156
G1 X112.227 Y130.859
G1 X109.062 Y128.750
G1 X107.305 Y129.453
G1 X108.008 Y130.859
G1 X108.711 Y129.805
G1 X109.766 Y130.156
G1 X109.414 Y130.859
G1 X108.711 Y130.156
G1 X107.656 Y131.914
G1 X109.062 Y131.562
G1 X110.117 Y132.266
G1 X110.469 Y131.562
G1 X111.875 Y132.969
G1 X111.172 Y134.023
G1 X111.875 Y135.781
G1 X113.281 Y135.430
G1 X112.578 Y134.375
G1 X113.281 Y136.133
G1 X112.578 Y135.781
G1 X112.227 Y136.484
G1 X112.930 Y137.188
G1 X114.336 Y136.484
G1 X115.039 Y137.891
G1 X113.984 Y137.891
G1 X115.039 Y140.000
G1 X114.688 Y143.164
G1 X115.391 Y142.812
G1 X114.688 Y144.570
G1 X115.742 Y144.570
G1 X115.391 Y146.328
G1 X114.336 Y147.031
G1 X115.391 Y148.086
G1 X116.797 Y147.031
G1 X116.445 Y148.438
G1 X114.688 Y149.492
G1 X113.633 Y149.141
G1 X109.414 Y151.953
G1 X107.656 Y154.766
G1 X106.602 Y158.633
G1 X107.656 Y158.281
G1 X109.062 Y156.172
G1 X108.359 Y155.820
G1 X110.820 Y152.656
G1 X116.445 Y149.492
G1 X118.203 Y147.031
G1 X118.203 Y148.438
G1 X119.609 Y147.031
G1 X121.367 Y140.352
G1 X121.016 Y142.109
G1 X122.070 Y141.758
G1 X121.016 Y143.164
G1 X121.367 Y144.570
G1 X119.609 Y147.031
G1 X117.852 Y154.062
G1 X115.391 Y159.688
G1 X116.797 Y155.820
G1 X116.445 Y154.766
G1 X117.148 Y154.766
G1 X117.148 Y152.305
G1 X117.852 Y152.305
G1 X117.852 Y149.844
G1 X114.688 Y151.953
G1 X114.336 Y151.250
G1 X112.578 Y152.305
G1 X102.734 Y164.258
G1 X102.734 Y165.312
G1 X100.977 Y166.719
G1 X101.328 Y167.773
G1 X104.492 Y167.070
G1 X104.141 Y166.367
G1 X106.953 Y164.258
G1 X105.195 Y166.016
G1 X105.898 Y166.367
G1 X107.656 Y164.961
G1 X100.977 Y168.828
G1 X100.625 Y170.938
G1 X103.086 Y172.344
G1 X102.383 Y172.695
G1 X100.625 Y171.289
G1 X99.922 Y172.344
G1 X100.625 Y173.750
G1 X99.922 Y174.453
G1 X99.570 Y173.750
G1 X99.219 Y175.156
G1 X99.922 Y175.508
G1 X103.086 Y173.750
G1 X100.977 Y175.508
G1 X101.328 Y176.211
G1 X105.547 Y174.102
G1 X105.547 Y173.047
G1 X103.789 Y173.750
G1 X107.656 Y170.586
G1 X111.172 Y164.961
G1 X112.227 Y164.609
G1 X113.633 Y161.094
G1 X111.875 Y166.016
G1 X109.766 Y168.477
G1 X110.469 Y168.828
G1 X103.086 Y176.914
G1 X102.734 Y176.211
G1 X100.625 Y177.969
G1 X93.594 Y180.781
G1 X91.836 Y180.781
M5

; Done - pen up and return to start position
M5
G1 X5.000 Y185.000 F3000  ; Paper advance
