; GCode generated by img2gcode
; Image: 512x512px  →  180.0x180.0mm
; Paths: 20
; Draw feedrate: 1500 mm/min
; Travel feedrate: 3000 mm/min

G21         ; Unit: millimeters
G90         ; Absolute coordinates
G1 F3000  ; Travel speed
M5  ; Pen up (initialization)

G1 X5.000 Y5.000  ; Start position

; Path 1/20
G1 X64.062 Y10.273 F3000  ; Travel
M3 S1000
G4 P100  ; Wait for pen
G1 F1500
G1 X62.305 Y5.352
G1 X64.414 Y5.352
G1 X64.414 Y9.922
M5

; Path 2/20
G1 X94.297 Y19.766 F3000  ; Travel
M3 S1000
G4 P100  ; Wait for pen
G1 F1500
G1 X94.297 Y18.359
G1 X92.891 Y19.414
G1 X91.484 Y17.656
G1 X92.539 Y15.195
G1 X92.891 Y17.305
G1 X94.648 Y18.359
G1 X94.648 Y19.766
M5

; Path 3/20
G1 X110.469 Y20.117 F3000  ; Travel
M3 S1000
G4 P100  ; Wait for pen
G1 F1500
G1 X110.117 Y6.055
G1 X109.062 Y6.055
G1 X108.711 Y8.867
G1 X107.305 Y9.922
G1 X108.008 Y5.352
G1 X111.523 Y5.352
G1 X110.469 Y19.766
M5

; Path 4/20
G1 X108.711 Y29.961 F3000  ; Travel
M3 S1000
G4 P100  ; Wait for pen
G1 F1500
G1 X108.008 Y26.797
G1 X108.711 Y20.820
G1 X109.062 Y29.961
M5

; Path 5/20
G1 X110.469 Y37.344 F3000  ; Travel
M3 S1000
G4 P100  ; Wait for pen
G1 F1500
G1 X109.766 Y34.180
G1 X110.820 Y36.992
M5

; Path 6/20
G1 X112.578 Y38.398 F3000  ; Travel
M3 S1000
G4 P100  ; Wait for pen
G1 F1500
G1 X111.523 Y29.258
G1 X113.633 Y34.883
G1 X112.930 Y38.398
M5

; Path 7/20
G1 X82.695 Y43.320 F3000  ; Travel
M3 S1000
G4 P100  ; Wait for pen
G1 F1500
G1 X80.938 Y42.266
G1 X81.289 Y37.695
G1 X82.344 Y35.938
G1 X82.344 Y42.969
M5

; Path 8/20
G1 X67.227 Y48.242 F3000  ; Travel
M3 S1000
G4 P100  ; Wait for pen
G1 F1500
G1 X65.820 Y46.133
G1 X62.656 Y47.188
G1 X61.953 Y46.484
G1 X57.734 Y46.133
G1 X53.516 Y47.891
G1 X48.594 Y47.891
G1 X44.727 Y46.836
G1 X41.914 Y45.078
G1 X45.781 Y45.078
G1 X52.109 Y46.484
G1 X54.219 Y46.133
G1 X54.570 Y45.078
G1 X51.758 Y44.023
G1 X50.000 Y40.508
G1 X53.867 Y42.617
G1 X55.977 Y41.562
G1 X59.141 Y44.375
G1 X67.578 Y44.375
G1 X72.500 Y41.562
G1 X73.906 Y39.805
G1 X76.719 Y39.453
G1 X75.312 Y37.695
G1 X75.312 Y34.883
G1 X73.906 Y31.367
G1 X68.633 Y25.039
G1 X66.523 Y23.633
G1 X57.383 Y20.820
G1 X53.867 Y21.172
G1 X57.383 Y20.117
G1 X66.172 Y22.227
G1 X67.930 Y21.875
G1 X66.875 Y16.250
G1 X67.227 Y13.438
G1 X69.336 Y14.141
G1 X67.930 Y15.898
G1 X69.336 Y23.281
G1 X74.258 Y28.906
G1 X76.016 Y29.609
G1 X77.422 Y36.992
G1 X78.828 Y40.156
G1 X77.422 Y41.914
G1 X75.312 Y41.562
G1 X71.445 Y43.672
G1 X67.578 Y47.891
M5

; Path 9/20
G1 X112.227 Y73.906 F3000  ; Travel
M3 S1000
G4 P100  ; Wait for pen
G1 F1500
G1 X116.797 Y73.555
G1 X121.016 Y71.094
G1 X124.883 Y66.875
G1 X125.938 Y63.008
G1 X127.695 Y60.898
G1 X127.695 Y57.734
G1 X125.938 Y53.516
G1 X121.016 Y49.648
G1 X118.203 Y48.945
G1 X115.039 Y49.648
G1 X112.227 Y52.812
G1 X108.359 Y54.570
G1 X106.953 Y56.328
G1 X107.656 Y58.086
G1 X104.844 Y62.305
G1 X105.547 Y63.008
G1 X104.844 Y66.875
G1 X106.250 Y67.578
G1 X106.250 Y69.688
G1 X108.008 Y71.445
G1 X112.930 Y69.336
G1 X115.391 Y69.336
G1 X110.820 Y71.797
G1 X111.172 Y72.852
G1 X113.984 Y72.148
G1 X112.227 Y73.555
M5

; Path 10/20
G1 X42.617 Y93.242 F3000  ; Travel
M3 S1000
G4 P100  ; Wait for pen
G1 F1500
G1 X44.023 Y93.242
G1 X42.969 Y91.484
G1 X41.562 Y91.836
G1 X42.266 Y92.891
M5

; Path 11/20
G1 X73.906 Y122.422 F3000  ; Travel
M3 S1000
G4 P100  ; Wait for pen
G1 F1500
G1 X70.039 Y118.906
G1 X69.688 Y113.281
G1 X68.281 Y110.469
G1 X68.984 Y108.359
G1 X68.281 Y100.977
G1 X69.336 Y98.164
G1 X71.797 Y95.703
G1 X72.852 Y96.055
G1 X70.039 Y99.219
G1 X69.336 Y101.328
G1 X70.391 Y106.953
G1 X70.039 Y110.820
G1 X71.445 Y113.633
G1 X71.094 Y117.852
G1 X72.148 Y119.961
G1 X74.258 Y121.016
G1 X74.258 Y122.422
M5

; Path 12/20
G1 X91.133 Y126.641 F3000  ; Travel
M3 S1000
G4 P100  ; Wait for pen
G1 F1500
G1 X87.617 Y125.586
G1 X87.969 Y124.883
G1 X87.266 Y124.531
G1 X93.242 Y124.180
G1 X95.703 Y125.586
G1 X95.703 Y126.289
G1 X91.484 Y126.289
M5

; Path 13/20
G1 X81.992 Y142.109 F3000  ; Travel
M3 S1000
G4 P100  ; Wait for pen
G1 F1500
G1 X84.453 Y142.109
G1 X83.047 Y140.703
G1 X81.992 Y141.758
M5

; Path 14/20
G1 X100.273 Y142.812 F3000  ; Travel
M3 S1000
G4 P100  ; Wait for pen
G1 F1500
G1 X101.328 Y142.461
G1 X98.516 Y141.055
G1 X98.164 Y141.758
G1 X99.922 Y142.812
M5

; Path 15/20
G1 X77.773 Y143.867 F3000  ; Travel
M3 S1000
G4 P100  ; Wait for pen
G1 F1500
G1 X79.180 Y143.867
G1 X77.773 Y143.516
M5

; Path 16/20
G1 X100.273 Y145.273 F3000  ; Travel
M3 S1000
G4 P100  ; Wait for pen
G1 F1500
G1 X101.680 Y145.625
G1 X102.031 Y144.922
G1 X101.328 Y144.219
G1 X99.922 Y144.219
G1 X99.922 Y144.922
M5

; Path 17/20
G1 X79.531 Y151.953 F3000  ; Travel
M3 S1000
G4 P100  ; Wait for pen
G1 F1500
G1 X81.289 Y150.898
G1 X81.992 Y148.438
G1 X81.289 Y147.383
G1 X78.828 Y148.086
G1 X79.180 Y151.602
M5

; Path 18/20
G1 X85.156 Y157.930 F3000  ; Travel
M3 S1000
G4 P100  ; Wait for pen
G1 F1500
G1 X89.023 Y157.227
G1 X93.945 Y158.281
G1 X99.570 Y157.930
G1 X102.383 Y156.523
G1 X103.789 Y154.766
G1 X105.547 Y147.734
G1 X100.625 Y147.734
G1 X95.352 Y145.273
G1 X95.352 Y143.867
G1 X96.406 Y143.164
G1 X95.703 Y141.055
G1 X97.109 Y138.594
G1 X101.328 Y138.945
G1 X101.680 Y140.703
G1 X105.195 Y142.461
G1 X102.031 Y143.867
G1 X104.492 Y146.328
G1 X106.602 Y143.516
G1 X107.305 Y137.188
G1 X104.844 Y128.398
G1 X100.625 Y120.664
G1 X97.812 Y117.852
G1 X93.242 Y115.742
G1 X88.672 Y116.094
G1 X80.586 Y123.477
G1 X77.773 Y128.398
G1 X76.367 Y133.320
G1 X76.367 Y139.297
G1 X77.422 Y140.703
G1 X79.180 Y140.352
G1 X81.641 Y138.242
G1 X84.805 Y138.594
G1 X85.508 Y140.000
G1 X87.617 Y140.000
G1 X86.562 Y142.461
G1 X88.320 Y143.867
G1 X88.320 Y145.273
G1 X86.914 Y147.031
G1 X86.914 Y149.844
G1 X83.750 Y155.469
G1 X84.805 Y157.930
M5

; Path 19/20
G1 X96.055 Y161.094 F3000  ; Travel
M3 S1000
G4 P100  ; Wait for pen
G1 F1500
G1 X91.484 Y160.039
G1 X85.508 Y159.688
G1 X84.453 Y160.742
G1 X83.047 Y160.039
G1 X78.125 Y152.305
G1 X76.719 Y151.953
G1 X76.367 Y143.867
G1 X74.258 Y138.594
G1 X74.609 Y134.727
G1 X72.148 Y136.484
G1 X71.445 Y138.242
G1 X71.094 Y137.188
G1 X72.500 Y134.023
G1 X75.312 Y131.914
G1 X77.070 Y125.234
G1 X85.859 Y116.445
G1 X84.805 Y115.742
G1 X80.234 Y117.148
G1 X79.531 Y116.445
G1 X86.914 Y113.984
G1 X92.891 Y114.336
G1 X98.164 Y115.742
G1 X104.844 Y120.312
G1 X104.492 Y121.719
G1 X102.734 Y120.312
G1 X102.383 Y121.367
G1 X106.953 Y127.695
G1 X111.523 Y124.180
G1 X114.336 Y118.555
G1 X115.742 Y109.766
G1 X111.875 Y102.734
G1 X106.953 Y98.516
G1 X103.086 Y96.406
G1 X107.305 Y96.758
G1 X108.008 Y96.055
G1 X106.953 Y91.133
G1 X95.703 Y81.289
G1 X88.672 Y71.797
G1 X85.508 Y70.039
G1 X81.992 Y71.797
G1 X80.938 Y71.094
G1 X84.102 Y68.281
G1 X88.320 Y69.336
G1 X98.516 Y80.938
G1 X100.273 Y81.289
G1 X100.977 Y83.047
G1 X106.953 Y89.727
G1 X108.711 Y87.617
G1 X109.414 Y85.156
G1 X109.062 Y79.531
G1 X109.766 Y75.664
G1 X108.711 Y72.500
G1 X105.195 Y72.148
G1 X102.031 Y69.336
G1 X102.734 Y65.820
G1 X101.328 Y61.953
G1 X104.141 Y61.953
G1 X102.383 Y58.789
G1 X103.086 Y57.031
G1 X105.547 Y55.977
G1 X106.602 Y54.219
G1 X114.336 Y48.242
G1 X119.961 Y47.188
G1 X127.344 Y52.812
G1 X130.156 Y58.438
G1 X129.805 Y60.898
G1 X130.508 Y61.602
G1 X133.672 Y61.250
G1 X136.484 Y59.844
G1 X140.703 Y54.922
G1 X143.516 Y54.922
G1 X137.539 Y61.250
G1 X129.453 Y64.414
G1 X130.859 Y70.039
G1 X130.859 Y76.016
G1 X129.805 Y81.641
G1 X129.102 Y80.938
G1 X128.750 Y69.688
G1 X128.047 Y67.578
G1 X126.641 Y67.227
G1 X124.883 Y70.039
G1 X120.312 Y74.258
G1 X113.984 Y76.719
G1 X112.227 Y86.914
G1 X111.172 Y88.320
G1 X110.820 Y86.562
G1 X109.414 Y89.727
G1 X109.414 Y97.461
G1 X110.469 Y97.461
G1 X113.281 Y100.625
G1 X117.852 Y108.711
G1 X120.312 Y110.820
G1 X127.344 Y112.227
G1 X129.453 Y111.875
G1 X136.133 Y109.062
G1 X140.000 Y105.547
G1 X145.625 Y93.594
G1 X147.383 Y87.969
G1 X148.438 Y77.070
G1 X151.250 Y71.797
G1 X154.062 Y56.328
G1 X158.984 Y48.594
G1 X158.633 Y45.430
G1 X155.117 Y39.453
G1 X153.359 Y33.828
G1 X150.898 Y30.664
G1 X145.625 Y27.500
G1 X141.758 Y26.445
G1 X132.266 Y27.852
G1 X131.914 Y25.039
G1 X136.133 Y16.250
G1 X138.242 Y7.109
G1 X137.188 Y5.352
G1 X140.703 Y5.352
G1 X139.297 Y6.758
G1 X138.945 Y13.086
G1 X134.727 Y24.688
G1 X143.867 Y24.688
G1 X149.844 Y26.797
G1 X154.062 Y30.664
G1 X160.742 Y46.133
G1 X160.742 Y48.945
G1 X156.523 Y57.031
G1 X154.062 Y65.820
G1 X152.305 Y76.367
G1 X149.492 Y82.695
G1 X150.898 Y86.211
G1 X149.492 Y86.914
G1 X149.141 Y89.023
G1 X153.359 Y90.430
G1 X154.062 Y92.188
G1 X150.898 Y91.836
G1 X150.195 Y92.539
G1 X150.547 Y96.758
G1 X146.680 Y100.977
G1 X147.031 Y102.383
G1 X144.922 Y106.250
G1 X144.570 Y108.711
G1 X142.109 Y112.930
G1 X139.297 Y115.742
G1 X136.133 Y122.070
G1 X131.914 Y125.234
G1 X130.508 Y128.047
G1 X129.453 Y128.398
G1 X129.102 Y127.695
G1 X131.211 Y123.828
G1 X134.023 Y121.367
G1 X139.648 Y109.766
G1 X138.945 Y109.062
G1 X136.836 Y110.820
G1 X130.508 Y113.633
G1 X124.531 Y113.633
G1 X119.258 Y112.578
G1 X118.203 Y113.633
G1 X116.094 Y120.312
G1 X114.336 Y122.422
G1 X113.633 Y125.938
G1 X110.469 Y128.398
G1 X107.305 Y129.453
G1 X107.305 Y131.211
G1 X110.469 Y134.023
G1 X112.227 Y137.891
G1 X112.227 Y139.648
G1 X110.117 Y138.242
G1 X109.062 Y138.945
G1 X108.711 Y149.492
G1 X107.656 Y154.062
G1 X105.195 Y157.578
G1 X100.977 Y161.094
G1 X96.406 Y161.094
M5

; Path 20/20
G1 X90.078 Y182.539 F3000  ; Travel
M3 S1000
G4 P100  ; Wait for pen
G1 F1500
G1 X82.344 Y180.781
G1 X73.555 Y176.914
G1 X71.094 Y173.750
G1 X66.172 Y169.883
G1 X61.602 Y158.984
G1 X59.492 Y148.438
G1 X58.086 Y145.273
G1 X57.383 Y135.781
G1 X58.086 Y134.375
G1 X58.438 Y136.836
G1 X59.492 Y136.484
G1 X59.844 Y132.266
G1 X55.273 Y121.367
G1 X53.867 Y114.336
G1 X50.703 Y106.953
G1 X48.594 Y104.844
G1 X46.484 Y104.141
G1 X44.023 Y100.273
G1 X41.914 Y98.516
G1 X41.211 Y95.000
G1 X39.453 Y92.188
G1 X39.805 Y86.914
G1 X41.562 Y86.211
G1 X41.562 Y88.320
G1 X43.320 Y87.969
G1 X44.023 Y86.914
G1 X42.617 Y84.102
G1 X40.156 Y85.156
G1 X39.453 Y84.102
G1 X42.617 Y77.773
G1 X38.750 Y61.250
G1 X35.586 Y52.812
G1 X34.883 Y47.188
G1 X35.586 Y40.156
G1 X33.477 Y35.938
G1 X33.477 Y32.422
G1 X36.289 Y25.391
G1 X39.805 Y20.469
G1 X46.133 Y14.141
G1 X51.758 Y12.031
G1 X48.594 Y5.352
G1 X52.109 Y5.352
G1 X54.922 Y12.031
G1 X54.922 Y14.141
G1 X54.219 Y14.844
G1 X49.648 Y14.844
G1 X43.320 Y19.766
G1 X37.344 Y28.203
G1 X35.586 Y32.070
G1 X35.586 Y35.938
G1 X39.805 Y43.672
G1 X37.695 Y44.023
G1 X37.344 Y50.000
G1 X43.672 Y70.742
G1 X46.484 Y87.266
G1 X45.781 Y91.133
G1 X46.133 Y97.812
G1 X47.188 Y99.922
G1 X53.164 Y105.195
G1 X56.328 Y110.117
G1 X59.141 Y117.852
G1 X58.789 Y124.180
G1 X63.359 Y135.078
G1 X63.359 Y137.539
G1 X61.602 Y138.242
G1 X60.898 Y141.055
G1 X60.898 Y145.977
G1 X63.359 Y151.602
G1 X63.008 Y155.117
G1 X66.875 Y165.664
G1 X71.797 Y171.289
G1 X77.070 Y175.508
G1 X86.211 Y179.727
G1 X93.594 Y180.430
G1 X97.461 Y178.320
G1 X98.516 Y176.562
G1 X100.273 Y177.266
G1 X103.086 Y176.211
G1 X106.250 Y173.398
G1 X113.984 Y161.445
G1 X121.016 Y143.867
G1 X124.883 Y137.891
G1 X125.938 Y131.562
G1 X128.047 Y129.453
G1 X127.344 Y136.484
G1 X120.312 Y151.250
G1 X118.906 Y158.281
G1 X115.742 Y162.852
G1 X114.336 Y166.719
G1 X107.656 Y176.211
G1 X104.141 Y179.023
G1 X100.273 Y179.375
G1 X94.648 Y182.188
G1 X90.430 Y182.539
M5

; Done - pen up and return to start position
M5
G1 X5.000 Y185.000 F3000  ; Paper advance
